<?xml version="1.0" encoding="UTF-8"?>
<osm generator="osmapis" version="0.6">
	<node id="-2031" lat="0.0" lon="0.0">
		<tag k="ADDRESS" v="Langsjøveien 629, 2448 SØMÅDALEN" />
		<tag k="amenity" v="kindergarten" />
		<tag k="capacity" v="4" />
		<tag k="max_age" v="5" />
		<tag k="min_age" v="1" />
		<tag k="name" v="Sømådalen barnehage" />
		<tag k="no-barnehage:nsrid" v="2000167" />
		<tag k="operator" v="Sømådalen barnehage Da" />
		<tag k="operator:type" v="private" />
	</node>
	<node id="-3069" lat="58.0344" lon="7.46754">
		<tag k="ADDRESS" v="Molkebakken 27, 4517 MANDAL" />
		<tag k="amenity" v="kindergarten" />
		<tag k="capacity" v="9" />
		<tag k="max_age" v="5" />
		<tag k="min_age" v="1" />
		<tag k="name" v="Solbakken familiebarnehage Ragnhild Elise Rasmussen" />
		<tag k="no-barnehage:nsrid" v="1020187" />
		<tag k="operator" v="Solbakken Familiebarnehage V/ragnhild Elise Rasmussen" />
		<tag k="operator:type" v="private" />
	</node>
	<node id="-1935" lat="60.73968" lon="11.24034">
		<tag k="ADDRESS" v="Dalsvegen 187, 2335 STANGE" />
		<tag k="amenity" v="kindergarten" />
		<tag k="capacity" v="8" />
		<tag k="max_age" v="5" />
		<tag k="min_age" v="1" />
		<tag k="name" v="Huse Gards- familiebarnehage" />
		<tag k="no-barnehage:nsrid" v="1020669" />
		<tag k="operator" v="Huse Gards- Familiebarnehage AS" />
		<tag k="operator:type" v="private" />
	</node>
	<node id="-1910" lat="60.91697" lon="10.70855">
		<tag k="ADDRESS" v="Storgata 171, 2390 MOELV" />
		<tag k="amenity" v="kindergarten" />
		<tag k="capacity" v="4" />
		<tag k="max_age" v="5" />
		<tag k="min_age" v="1" />
		<tag k="name" v="Stensbak familiebarnehage" />
		<tag k="no-barnehage:nsrid" v="1021813" />
		<tag k="operator" v="Hanna S Skaaren-Fystro" />
		<tag k="operator:type" v="private" />
	</node>
	<node id="-1906" lat="60.84605" lon="11.04562">
		<tag k="ADDRESS" v="Lyksetvegen 15, 2320 FURNES" />
		<tag k="amenity" v="kindergarten" />
		<tag k="capacity" v="6" />
		<tag k="max_age" v="2" />
		<tag k="min_age" v="1" />
		<tag k="name" v="Nydal familiebarnehage" />
		<tag k="no-barnehage:nsrid" v="1020659" />
		<tag k="operator" v="Hege Lund-Asphaug" />
		<tag k="operator:type" v="private" />
	</node>
	<node id="-1897" lat="60.88502" lon="10.95559">
		<tag k="ADDRESS" v="Liavegen 51, 2387 BRUMUNDDAL" />
		<tag k="amenity" v="kindergarten" />
		<tag k="capacity" v="12" />
		<tag k="max_age" v="5" />
		<tag k="min_age" v="1" />
		<tag k="name" v="Liaveien familiebarnehage Stein Arneberg" />
		<tag k="no-barnehage:nsrid" v="1020580" />
		<tag k="operator" v="Liaveien Familiebarnehage Stein Arneberg" />
		<tag k="operator:type" v="private" />
	</node>
	<node id="-1893" lat="61.01581" lon="10.7915">
		<tag k="ADDRESS" v="Fjellvegen 49, 2365 ÅSMARKA" />
		<tag k="amenity" v="kindergarten" />
		<tag k="capacity" v="10" />
		<tag k="max_age" v="5" />
		<tag k="min_age" v="1" />
		<tag k="name" v="Kjeldbakken familiebarnehage" />
		<tag k="no-barnehage:nsrid" v="1020041" />
		<tag k="operator" v="Britt Eriksen" />
		<tag k="operator:type" v="private" />
	</node>
	<node id="-1888" lat="60.86811" lon="10.87051">
		<tag k="ADDRESS" v="Rørsvegen 319, 2384 BRUMUNDDAL" />
		<tag k="amenity" v="kindergarten" />
		<tag k="capacity" v="10" />
		<tag k="max_age" v="5" />
		<tag k="min_age" v="1" />
		<tag k="name" v="Fredbo familiebarnehage" />
		<tag k="no-barnehage:nsrid" v="1020613" />
		<tag k="operator" v="Helle Skjellerud Kløvimo" />
		<tag k="operator:type" v="private" />
	</node>
	<node id="-1872" lat="60.79882" lon="11.0876">
		<tag k="ADDRESS" v="Ringgata 82, 2318 HAMAR" />
		<tag k="amenity" v="kindergarten" />
		<tag k="capacity" v="9" />
		<tag k="contact:website" v="http://www.hamarbooking.no" />
		<tag k="max_age" v="2" />
		<tag k="min_age" v="1" />
		<tag k="name" v="Ringblomsten familiebarnehage Solfrid Bjørge Goldsack" />
		<tag k="no-barnehage:nsrid" v="1021433" />
		<tag k="operator" v="Ringblomsten Familiebarnehage Solfrid Bjørge Goldsack" />
		<tag k="operator:type" v="private" />
	</node>
	<node id="-1847" lat="60.81202" lon="11.0568">
		<tag k="ADDRESS" v="Aluvegen 91b, 2319 HAMAR" />
		<tag k="amenity" v="kindergarten" />
		<tag k="capacity" v="9" />
		<tag k="max_age" v="2" />
		<tag k="min_age" v="1" />
		<tag k="name" v="Ajer gårds og familiebarnehage" />
		<tag k="no-barnehage:nsrid" v="1021542" />
		<tag k="operator" v="Regnbuen Familiebarnehage V/sara Victoria Bjørge Goldsack" />
		<tag k="operator:type" v="private" />
	</node>
	<node id="-1818" lat="59.93892" lon="10.81386">
		<tag k="ADDRESS" v="Økernveien 207, 0584 OSLO" />
		<tag k="amenity" v="kindergarten" />
		<tag k="capacity" v="8" />
		<tag k="max_age" v="2" />
		<tag k="min_age" v="1" />
		<tag k="name" v="Økernveien familiebarnehage" />
		<tag k="no-barnehage:nsrid" v="1013333" />
		<tag k="operator" v="Økernveien Familiebarnehage Cemile Algünerhan" />
		<tag k="operator:type" v="private" />
	</node>
	<node id="-1794" lat="59.95331" lon="10.75387">
		<tag k="ADDRESS" v="Tåsenveien 75a, 0873 OSLO" />
		<tag k="amenity" v="kindergarten" />
		<tag k="capacity" v="10" />
		<tag k="max_age" v="5" />
		<tag k="min_age" v="1" />
		<tag k="name" v="Veslehaugen familiebarnehage B. Bjorskau" />
		<tag k="no-barnehage:nsrid" v="1021297" />
		<tag k="operator" v="Berit Bjorskau" />
		<tag k="operator:type" v="private" />
	</node>
	<node id="-1791" lat="59.91211" lon="10.78101">
		<tag k="ADDRESS" v="Bøgata 12, 0655 OSLO" />
		<tag k="amenity" v="kindergarten" />
		<tag k="capacity" v="4" />
		<tag k="max_age" v="2" />
		<tag k="min_age" v="1" />
		<tag k="name" v="Venkes familiebarnehage Venke Anita Fredstad" />
		<tag k="no-barnehage:nsrid" v="1021775" />
		<tag k="operator" v="Venkes Familiebarnehage Venke Anita Fredstad" />
		<tag k="operator:type" v="private" />
	</node>
	<node id="-1790" lat="59.94021" lon="10.83147">
		<tag k="ADDRESS" v="Veksthusfløtten 11, 0594 OSLO" />
		<tag k="amenity" v="kindergarten" />
		<tag k="capacity" v="8" />
		<tag k="max_age" v="5" />
		<tag k="min_age" v="1" />
		<tag k="name" v="Veksthusfløtten familiebarnehage" />
		<tag k="no-barnehage:nsrid" v="1021159" />
		<tag k="operator" v="Algunarhan Familiebarnehagen" />
		<tag k="operator:type" v="private" />
	</node>
	<node id="-1761" lat="59.91211" lon="10.78101">
		<tag k="ADDRESS" v="Bøgata 12, 0655 OSLO" />
		<tag k="amenity" v="kindergarten" />
		<tag k="capacity" v="4" />
		<tag k="max_age" v="2" />
		<tag k="min_age" v="1" />
		<tag k="name" v="Trudes familiebarnehage Trude Gulbrandsen" />
		<tag k="no-barnehage:nsrid" v="1021078" />
		<tag k="operator" v="Trudes Familiebarnehage Trude Gulbrandsen" />
		<tag k="operator:type" v="private" />
	</node>
	<node id="-1758" lat="59.89292" lon="10.85711">
		<tag k="ADDRESS" v="Hellerudveien 140, 0687 OSLO" />
		<tag k="amenity" v="kindergarten" />
		<tag k="capacity" v="8" />
		<tag k="max_age" v="2" />
		<tag k="min_age" v="1" />
		<tag k="name" v="Trollungene familiebarnehage" />
		<tag k="no-barnehage:nsrid" v="1020398" />
		<tag k="operator" v="Trollungene Familiebarnehage AS" />
		<tag k="operator:type" v="private" />
	</node>
	<node id="-1753" lat="59.86769" lon="10.8081">
		<tag k="ADDRESS" v="Oberst Rodes Vei 57, 1152 OSLO" />
		<tag k="amenity" v="kindergarten" />
		<tag k="capacity" v="8" />
		<tag k="contact:website" v="http://www.treklossen.no" />
		<tag k="max_age" v="2" />
		<tag k="min_age" v="1" />
		<tag k="name" v="Treklossen familiebarnehage" />
		<tag k="no-barnehage:nsrid" v="1022166" />
		<tag k="operator" v="Treklossen Familiebarnehage Kristin S Hagen" />
		<tag k="operator:type" v="private" />
	</node>
	<node id="-1748" lat="59.92083" lon="10.70745">
		<tag k="ADDRESS" v="Frognerveien 47, 0266 OSLO" />
		<tag k="amenity" v="kindergarten" />
		<tag k="capacity" v="4" />
		<tag k="max_age" v="5" />
		<tag k="min_age" v="1" />
		<tag k="name" v="Tornerose familiebarnehage" />
		<tag k="no-barnehage:nsrid" v="1013509" />
		<tag k="operator" v="Amigos barnehage Limited" />
		<tag k="operator:type" v="private" />
	</node>
	<node id="-1747" lat="59.87881" lon="10.79893">
		<tag k="ADDRESS" v="Ringshusveien 8, 1176 OSLO" />
		<tag k="amenity" v="kindergarten" />
		<tag k="capacity" v="8" />
		<tag k="max_age" v="2" />
		<tag k="min_age" v="1" />
		<tag k="name" v="Toppen familiebarnehage Cb" />
		<tag k="no-barnehage:nsrid" v="1022307" />
		<tag k="operator" v="Toppen Familiebarnehage Cb AS" />
		<tag k="operator:type" v="private" />
	</node>
	<node id="-1736" lat="59.88486" lon="10.77882">
		<tag k="ADDRESS" v="Heiasvingen 4, 1177 OSLO" />
		<tag k="amenity" v="kindergarten" />
		<tag k="capacity" v="8" />
		<tag k="max_age" v="5" />
		<tag k="min_age" v="1" />
		<tag k="name" v="Tigergutt familiebarnehage" />
		<tag k="no-barnehage:nsrid" v="1021764" />
		<tag k="operator" v="Tigergutt Familiebarnehage" />
		<tag k="operator:type" v="private" />
	</node>
	<node id="-1732" lat="59.95309" lon="10.70193">
		<tag k="ADDRESS" v="Tennisveien 19c, 0777 OSLO" />
		<tag k="amenity" v="kindergarten" />
		<tag k="capacity" v="7" />
		<tag k="max_age" v="2" />
		<tag k="min_age" v="1" />
		<tag k="name" v="Tennisveien familiebarnehage" />
		<tag k="no-barnehage:nsrid" v="1018545" />
		<tag k="operator" v="Grimelund Familiebarnehage Mette Fürst" />
		<tag k="operator:type" v="private" />
	</node>
	<node id="-1722" lat="59.87935" lon="10.77994">
		<tag k="ADDRESS" v="Solveien 24b, 1177 OSLO" />
		<tag k="amenity" v="kindergarten" />
		<tag k="capacity" v="10" />
		<tag k="max_age" v="5" />
		<tag k="min_age" v="1" />
		<tag k="name" v="Symrahagen familiebarnehage" />
		<tag k="no-barnehage:nsrid" v="1014911" />
		<tag k="operator" v="Symrahagen AS" />
		<tag k="operator:type" v="private" />
	</node>
	<node id="-2330" lat="59.71292" lon="10.25271">
		<tag k="ADDRESS" v="Pedros Vei 34, 3038 DRAMMEN" />
		<tag k="amenity" v="kindergarten" />
		<tag k="capacity" v="4" />
		<tag k="max_age" v="2" />
		<tag k="min_age" v="1" />
		<tag k="name" v="Åskollen familiebarnehage Knerten Marit Fossum" />
		<tag k="no-barnehage:nsrid" v="1020283" />
		<tag k="operator" v="Åskollen Familiebarnehage Knerten Marit Fossum" />
		<tag k="operator:type" v="private" />
	</node>
	<node id="-1680" lat="59.94749" lon="10.63653">
		<tag k="ADDRESS" v="Harald Løvenskiolds Vei 20, 0760 OSLO" />
		<tag k="amenity" v="kindergarten" />
		<tag k="capacity" v="3" />
		<tag k="max_age" v="2" />
		<tag k="min_age" v="1" />
		<tag k="name" v="Spretten familiebarnehage" />
		<tag k="no-barnehage:nsrid" v="1021246" />
		<tag k="operator" v="Spretten Familiebarnehage Henrik Jean Mette" />
		<tag k="operator:type" v="private" />
	</node>
	<node id="-1661" lat="59.84087" lon="10.79906">
		<tag k="ADDRESS" v="Asperudveien 9a, 1258 OSLO" />
		<tag k="amenity" v="kindergarten" />
		<tag k="capacity" v="4" />
		<tag k="max_age" v="2" />
		<tag k="min_age" v="1" />
		<tag k="name" v="Sn familiebarnehager avd. Asperudveien 9a" />
		<tag k="no-barnehage:nsrid" v="1022376" />
		<tag k="operator" v="Sn Familiebarnehager AS" />
		<tag k="operator:type" v="private" />
	</node>
	<node id="-1660" lat="59.84086" lon="10.79942">
		<tag k="ADDRESS" v="Asperudveien 16, 1258 OSLO" />
		<tag k="amenity" v="kindergarten" />
		<tag k="capacity" v="3" />
		<tag k="max_age" v="2" />
		<tag k="min_age" v="1" />
		<tag k="name" v="Sn familiebarnehager avd. Asperudveien 16" />
		<tag k="no-barnehage:nsrid" v="1026563" />
		<tag k="operator" v="Sn Familiebarnehager AS" />
		<tag k="operator:type" v="private" />
	</node>
	<node id="-1659" lat="59.92481" lon="10.6346">
		<tag k="ADDRESS" v="Hartmanns Vei 22d, 0284 OSLO" />
		<tag k="amenity" v="kindergarten" />
		<tag k="capacity" v="4" />
		<tag k="max_age" v="2" />
		<tag k="min_age" v="1" />
		<tag k="name" v="Småtroll Marianne Regina Vatn" />
		<tag k="no-barnehage:nsrid" v="1021620" />
		<tag k="operator" v="Småtroll Marianne Regina Vatn" />
		<tag k="operator:type" v="private" />
	</node>
	<node id="-1658" lat="59.94978" lon="10.77889">
		<tag k="ADDRESS" v="Bjerkealléen 50a, 0487 OSLO" />
		<tag k="amenity" v="kindergarten" />
		<tag k="capacity" v="7" />
		<tag k="max_age" v="2" />
		<tag k="min_age" v="1" />
		<tag k="name" v="Småen familiebarnehage" />
		<tag k="no-barnehage:nsrid" v="1014052" />
		<tag k="operator" v="Amigos barnehage Limited" />
		<tag k="operator:type" v="private" />
	</node>
	<node id="-1633" lat="59.8558" lon="10.78564">
		<tag k="ADDRESS" v="Ljabruveien 31a, 1169 OSLO" />
		<tag k="amenity" v="kindergarten" />
		<tag k="capacity" v="4" />
		<tag k="max_age" v="2" />
		<tag k="min_age" v="1" />
		<tag k="name" v="Sjøutsikten familiebarnehage Hernandez-lillebekk" />
		<tag k="no-barnehage:nsrid" v="1022488" />
		<tag k="operator" v="Sjøutsikten Familiebarnehage Hernandez-Lillebekk" />
		<tag k="operator:type" v="private" />
	</node>
	<node id="-1627" lat="59.91321" lon="10.77488">
		<tag k="ADDRESS" v="Sigurds Gate 20c, 0650 OSLO" />
		<tag k="amenity" v="kindergarten" />
		<tag k="capacity" v="4" />
		<tag k="max_age" v="2" />
		<tag k="min_age" v="1" />
		<tag k="name" v="Sigurdsgate familiebarnehage" />
		<tag k="no-barnehage:nsrid" v="1021533" />
		<tag k="operator" v="Sigurdsgate Familiebarnehage AS" />
		<tag k="operator:type" v="private" />
	</node>
	<node id="-3672" lat="0.0" lon="0.0">
		<tag k="ADDRESS" v=", 9650 AKKARFJORD" />
		<tag k="amenity" v="kindergarten" />
		<tag k="capacity" v="3" />
		<tag k="max_age" v="5" />
		<tag k="min_age" v="3" />
		<tag k="name" v="Akkarfjord familiebarnehage" />
		<tag k="no-barnehage:nsrid" v="1019522" />
		<tag k="operator" v="Hammerfest kommune" />
		<tag k="operator:type" v="public" />
	</node>
	<node id="-1621" lat="59.88158" lon="10.79381">
		<tag k="ADDRESS" v="Granveien 19, 1178 OSLO" />
		<tag k="amenity" v="kindergarten" />
		<tag k="capacity" v="8" />
		<tag k="max_age" v="2" />
		<tag k="min_age" v="1" />
		<tag k="name" v="Saturn familiebarnehager" />
		<tag k="no-barnehage:nsrid" v="1013457" />
		<tag k="operator" v="Planeten barnehage AS" />
		<tag k="operator:type" v="private" />
	</node>
	<node id="-1606" lat="59.95002" lon="10.64822">
		<tag k="ADDRESS" v="Røahagan 23, 0754 OSLO" />
		<tag k="amenity" v="kindergarten" />
		<tag k="capacity" v="9" />
		<tag k="max_age" v="2" />
		<tag k="min_age" v="1" />
		<tag k="name" v="Røahagan familiebarnehage" />
		<tag k="no-barnehage:nsrid" v="1021666" />
		<tag k="operator" v="Røahagan Familiebarnehage Sagedahl" />
		<tag k="operator:type" v="private" />
	</node>
	<node id="-1592" lat="59.93313" lon="10.82391">
		<tag k="ADDRESS" v="Risløkkveien 67b, 0583 OSLO" />
		<tag k="amenity" v="kindergarten" />
		<tag k="capacity" v="8" />
		<tag k="max_age" v="2" />
		<tag k="min_age" v="1" />
		<tag k="name" v="Risløkka familiebarnehage" />
		<tag k="no-barnehage:nsrid" v="1015168" />
		<tag k="operator" v="Økernveien Familiebarnehage Cemile Algünerhan" />
		<tag k="operator:type" v="private" />
	</node>
	<node id="-1588" lat="59.94291" lon="10.68606">
		<tag k="ADDRESS" v="Holmenveien 52c, 0376 OSLO" />
		<tag k="amenity" v="kindergarten" />
		<tag k="capacity" v="4" />
		<tag k="max_age" v="2" />
		<tag k="min_age" v="1" />
		<tag k="name" v="Revehiet familiebarnehage Nils Erik Brodin" />
		<tag k="no-barnehage:nsrid" v="1021501" />
		<tag k="operator" v="Revehiet Familiebarnehage V/nils Erik Brodin" />
		<tag k="operator:type" v="private" />
	</node>
	<node id="-3630" lat="68.8028" lon="16.53113">
		<tag k="ADDRESS" v="Jørns Gate 42, 9405 HARSTAD" />
		<tag k="amenity" v="kindergarten" />
		<tag k="capacity" v="8" />
		<tag k="max_age" v="2" />
		<tag k="min_age" v="1" />
		<tag k="name" v="Jørnsgate familiebarnehage" />
		<tag k="no-barnehage:nsrid" v="1020325" />
		<tag k="operator" v="Jørnsgate Familiebarnehage Rikardsen" />
		<tag k="operator:type" v="private" />
	</node>
	<node id="-1575" lat="59.86081" lon="10.81027">
		<tag k="ADDRESS" v="Oberst Rodes Vei 90e, 1165 OSLO" />
		<tag k="amenity" v="kindergarten" />
		<tag k="capacity" v="8" />
		<tag k="max_age" v="2" />
		<tag k="min_age" v="1" />
		<tag k="name" v="Plutti Plott familiebarnehage" />
		<tag k="no-barnehage:nsrid" v="1022115" />
		<tag k="operator" v="Plutti Plott Familiebarnehage Myrheim" />
		<tag k="operator:type" v="private" />
	</node>
	<node id="-1565" lat="59.85388" lon="10.80137">
		<tag k="ADDRESS" v="Ekebergveien 287, 1166 OSLO" />
		<tag k="amenity" v="kindergarten" />
		<tag k="capacity" v="8" />
		<tag k="contact:website" v="http://www.olebrummbarnehagen.no" />
		<tag k="max_age" v="2" />
		<tag k="min_age" v="1" />
		<tag k="name" v="Ole Brumm barnehage" />
		<tag k="no-barnehage:nsrid" v="1020543" />
		<tag k="operator" v="Ole Brumm barnehage AS" />
		<tag k="operator:type" v="private" />
	</node>
	<node id="-1560" lat="59.95709" lon="10.8634">
		<tag k="ADDRESS" v="Arthur Nordlies Vei 7, 0956 OSLO" />
		<tag k="amenity" v="kindergarten" />
		<tag k="capacity" v="4" />
		<tag k="max_age" v="2" />
		<tag k="min_age" v="1" />
		<tag k="name" v="Nøtteliten familiebarnehage" />
		<tag k="no-barnehage:nsrid" v="1021111" />
		<tag k="operator" v="Nøtteliten Famileibarnehage Anne Katrine Gamre" />
		<tag k="operator:type" v="private" />
	</node>
	<node id="-3581" lat="68.70286" lon="15.40515">
		<tag k="ADDRESS" v="Øvre Lyngvei 6, 8402 SORTLAND" />
		<tag k="amenity" v="kindergarten" />
		<tag k="capacity" v="9" />
		<tag k="contact:website" v="http://www.skogstjerna-familiebarnehage.com" />
		<tag k="max_age" v="5" />
		<tag k="min_age" v="1" />
		<tag k="name" v="Skogstjerna familiebarnehage" />
		<tag k="no-barnehage:nsrid" v="1020185" />
		<tag k="operator" v="Skogstjerna Familiebarnehage Sa" />
		<tag k="operator:type" v="private" />
	</node>
	<node id="-1519" lat="59.94351" lon="10.81929">
		<tag k="ADDRESS" v="Brobekkveien 3b, 0598 OSLO" />
		<tag k="amenity" v="kindergarten" />
		<tag k="capacity" v="4" />
		<tag k="max_age" v="2" />
		<tag k="min_age" v="1" />
		<tag k="name" v="Nemo familiebarnehage Filiz Göcücü avd. Brobekkveien" />
		<tag k="no-barnehage:nsrid" v="1020623" />
		<tag k="operator" v="Nemo Familiebarnehage Filiz GÖcücü" />
		<tag k="operator:type" v="private" />
	</node>
	<node id="-1518" lat="59.95384" lon="10.8487034">
		<tag k="ADDRESS" v="C/o Filiz Göcücü Hans Aanruds Vei 46, 0956 OSLO" />
		<tag k="amenity" v="kindergarten" />
		<tag k="capacity" v="8" />
		<tag k="max_age" v="2" />
		<tag k="min_age" v="1" />
		<tag k="name" v="Nemo familiebarnehage Filiz Göcücü avd. Rødtvedt" />
		<tag k="no-barnehage:nsrid" v="1013617" />
		<tag k="operator" v="Nemo Familiebarnehage Filiz GÖcücü" />
		<tag k="operator:type" v="private" />
	</node>
	<node id="-1486" lat="59.92247" lon="10.66385">
		<tag k="ADDRESS" v="Fagertunveien 3c, 0281 OSLO" />
		<tag k="amenity" v="kindergarten" />
		<tag k="capacity" v="4" />
		<tag k="max_age" v="2" />
		<tag k="min_age" v="1" />
		<tag k="name" v="Montessori Småvenner barnehage avd. A" />
		<tag k="no-barnehage:nsrid" v="1015072" />
		<tag k="operator" v="Amigos barnehage Limited" />
		<tag k="operator:type" v="private" />
	</node>
	<node id="-1485" lat="59.94864" lon="10.78526">
		<tag k="ADDRESS" v="Bråtenalléen 10, 0487 OSLO" />
		<tag k="amenity" v="kindergarten" />
		<tag k="capacity" v="7" />
		<tag k="max_age" v="2" />
		<tag k="min_age" v="1" />
		<tag k="name" v="Montessori Giraffen familie barnehage" />
		<tag k="no-barnehage:nsrid" v="1015052" />
		<tag k="operator" v="Amigos barnehage Limited" />
		<tag k="operator:type" v="private" />
	</node>
	<node id="-1481" lat="59.92974" lon="10.69075">
		<tag k="ADDRESS" v="Skøyensvingen 14b, 0375 OSLO" />
		<tag k="amenity" v="kindergarten" />
		<tag k="capacity" v="8" />
		<tag k="max_age" v="2" />
		<tag k="min_age" v="1" />
		<tag k="name" v="Monoliten familiebarnehage" />
		<tag k="no-barnehage:nsrid" v="1013982" />
		<tag k="operator" v="Amigos barnehage Limited" />
		<tag k="operator:type" v="private" />
	</node>
	<node id="-1477" lat="59.87344" lon="10.80538">
		<tag k="ADDRESS" v="Oberst Rodes Vei 27b, 1152 OSLO" />
		<tag k="amenity" v="kindergarten" />
		<tag k="capacity" v="8" />
		<tag k="max_age" v="2" />
		<tag k="min_age" v="1" />
		<tag k="name" v="Merkur familiebarnehage" />
		<tag k="no-barnehage:nsrid" v="1016954" />
		<tag k="operator" v="Planeten barnehage AS" />
		<tag k="operator:type" v="private" />
	</node>
	<node id="-1474" lat="59.93462" lon="10.81431">
		<tag k="ADDRESS" v="Nordalveien 34b, 0583 OSLO" />
		<tag k="amenity" v="kindergarten" />
		<tag k="capacity" v="8" />
		<tag k="max_age" v="2" />
		<tag k="min_age" v="1" />
		<tag k="name" v="Maurtua private familiebarnehage avd. Nordalveien" />
		<tag k="no-barnehage:nsrid" v="1018308" />
		<tag k="operator" v="Maurtua Private barnehage AS" />
		<tag k="operator:type" v="private" />
	</node>
	<node id="-1473" lat="59.93172" lon="10.81397">
		<tag k="ADDRESS" v="Rabbeveien 15, 0580 OSLO" />
		<tag k="amenity" v="kindergarten" />
		<tag k="capacity" v="8" />
		<tag k="max_age" v="2" />
		<tag k="min_age" v="1" />
		<tag k="name" v="Maurtua private familiebarnehage avd. Rabbeveien" />
		<tag k="no-barnehage:nsrid" v="1016267" />
		<tag k="operator" v="Maurtua Private barnehage AS" />
		<tag k="operator:type" v="private" />
	</node>
	<node id="-1472" lat="0.0" lon="0.0">
		<tag k="ADDRESS" v="Leilighet 1 Beverveien 25, 0596 OSLO" />
		<tag k="amenity" v="kindergarten" />
		<tag k="capacity" v="8" />
		<tag k="max_age" v="2" />
		<tag k="min_age" v="1" />
		<tag k="name" v="Maurtua private familiebarnehage avd. Beverveien" />
		<tag k="no-barnehage:nsrid" v="1013104" />
		<tag k="operator" v="Maurtua Private barnehage AS" />
		<tag k="operator:type" v="private" />
	</node>
	<node id="-1471" lat="59.93608" lon="10.8196">
		<tag k="ADDRESS" v="Kryssveien 10b, 0583 OSLO" />
		<tag k="amenity" v="kindergarten" />
		<tag k="capacity" v="4" />
		<tag k="max_age" v="2" />
		<tag k="min_age" v="1" />
		<tag k="name" v="Maurtua familiebarnehage" />
		<tag k="no-barnehage:nsrid" v="1021283" />
		<tag k="operator" v="Mauertua Familiebarnehage Avdeling Bente Edgren" />
		<tag k="operator:type" v="private" />
	</node>
	<node id="-1468" lat="59.93632" lon="10.75562">
		<tag k="ADDRESS" v="Maridalsveien 140, 0461 OSLO" />
		<tag k="amenity" v="kindergarten" />
		<tag k="capacity" v="8" />
		<tag k="max_age" v="2" />
		<tag k="min_age" v="1" />
		<tag k="name" v="Marihøna familiebarnehage" />
		<tag k="no-barnehage:nsrid" v="1017082" />
		<tag k="operator" v="Bitteliten Barnehager AS" />
		<tag k="operator:type" v="private" />
	</node>
	<node id="-1464" lat="59.88036" lon="10.77942">
		<tag k="ADDRESS" v="Solveien 16, 1177 OSLO" />
		<tag k="amenity" v="kindergarten" />
		<tag k="capacity" v="10" />
		<tag k="max_age" v="5" />
		<tag k="min_age" v="1" />
		<tag k="name" v="Mariannes Hus familiebarnehage" />
		<tag k="no-barnehage:nsrid" v="1017240" />
		<tag k="operator" v="Symrahagen AS" />
		<tag k="operator:type" v="private" />
	</node>
	<node id="-3314" lat="60.53601" lon="4.8744">
		<tag k="ADDRESS" v="Dalevegen 7, 5337 RONG" />
		<tag k="amenity" v="kindergarten" />
		<tag k="capacity" v="5" />
		<tag k="max_age" v="5" />
		<tag k="min_age" v="1" />
		<tag k="name" v="Spurven familiebarnehage" />
		<tag k="no-barnehage:nsrid" v="1020935" />
		<tag k="operator" v="Spurven Familiebarnehage Helen Nelly Dale" />
		<tag k="operator:type" v="private" />
	</node>
	<node id="-1265" lat="59.94482" lon="10.75181">
		<tag k="ADDRESS" v="Biskop Heuchs Vei 6, 0871 OSLO" />
		<tag k="amenity" v="kindergarten" />
		<tag k="capacity" v="8" />
		<tag k="contact:website" v="http://www.Familiebarnehage.no" />
		<tag k="max_age" v="2" />
		<tag k="min_age" v="1" />
		<tag k="name" v="Hakkebakkeskogen familiebarnehage avd. Biskop Heuchsvei" />
		<tag k="no-barnehage:nsrid" v="1016968" />
		<tag k="operator" v="Hakkebakkeskogen Familiebarnehage AS" />
		<tag k="operator:type" v="private" />
	</node>
	<node id="-1438" lat="59.95635" lon="10.78423">
		<tag k="ADDRESS" v="Saturnveien 5a, 0492 OSLO" />
		<tag k="amenity" v="kindergarten" />
		<tag k="capacity" v="4" />
		<tag k="contact:website" v="http://www.lykketrollet.no" />
		<tag k="max_age" v="2" />
		<tag k="min_age" v="1" />
		<tag k="name" v="Lykketrollet familiebarnehage avd. Saturnveien" />
		<tag k="no-barnehage:nsrid" v="1013431" />
		<tag k="operator" v="Oslo Barnevaktformidling AS" />
		<tag k="operator:type" v="private" />
	</node>
	<node id="-1437" lat="59.9478" lon="10.80579">
		<tag k="ADDRESS" v="Kildeveien 10, 0590 OSLO" />
		<tag k="amenity" v="kindergarten" />
		<tag k="capacity" v="4" />
		<tag k="contact:website" v="http://www.lykketrollet.no" />
		<tag k="max_age" v="2" />
		<tag k="min_age" v="1" />
		<tag k="name" v="Lykketrollet familiebarnehage avd. Kildeveien" />
		<tag k="no-barnehage:nsrid" v="1013456" />
		<tag k="operator" v="Oslo Barnevaktformidling AS" />
		<tag k="operator:type" v="private" />
	</node>
	<node id="-1436" lat="59.87671" lon="10.83815">
		<tag k="ADDRESS" v="Bogerudveien 27, 0692 OSLO" />
		<tag k="amenity" v="kindergarten" />
		<tag k="capacity" v="7" />
		<tag k="contact:website" v="http://www.lykketrollet.no" />
		<tag k="max_age" v="2" />
		<tag k="min_age" v="1" />
		<tag k="name" v="Lykketrollet familiebarnehage avd. Bogerudveien" />
		<tag k="no-barnehage:nsrid" v="1013466" />
		<tag k="operator" v="Oslo Barnevaktformidling AS" />
		<tag k="operator:type" v="private" />
	</node>
	<node id="-1435" lat="59.93761" lon="10.81798">
		<tag k="ADDRESS" v="Krokliveien 9b, 0584 OSLO" />
		<tag k="amenity" v="kindergarten" />
		<tag k="capacity" v="8" />
		<tag k="contact:website" v="http://www.lykketrollet.no" />
		<tag k="max_age" v="2" />
		<tag k="min_age" v="1" />
		<tag k="name" v="Lykketrollet familiebarnehage avd. Krokliveien" />
		<tag k="no-barnehage:nsrid" v="1013571" />
		<tag k="operator" v="Oslo Barnevaktformidling AS" />
		<tag k="operator:type" v="private" />
	</node>
	<node id="-1433" lat="59.88929" lon="10.8478">
		<tag k="ADDRESS" v="Ulsrudveien 38, 0690 OSLO" />
		<tag k="amenity" v="kindergarten" />
		<tag k="capacity" v="8" />
		<tag k="contact:website" v="http://www.lykketrollet.no" />
		<tag k="max_age" v="2" />
		<tag k="min_age" v="1" />
		<tag k="name" v="Lykketrollet familiebarnehage avd. Ulsrudveien" />
		<tag k="no-barnehage:nsrid" v="1017910" />
		<tag k="operator" v="Oslo Barnevaktformidling AS" />
		<tag k="operator:type" v="private" />
	</node>
	<node id="-1432" lat="59.92526" lon="10.77663">
		<tag k="ADDRESS" v="Frydens Gate 2b, 0564 OSLO" />
		<tag k="amenity" v="kindergarten" />
		<tag k="capacity" v="4" />
		<tag k="contact:website" v="http://www.lykketrollet.no" />
		<tag k="max_age" v="2" />
		<tag k="min_age" v="1" />
		<tag k="name" v="Lykketrollet familiebarnehage avd. Frydensgate" />
		<tag k="no-barnehage:nsrid" v="1018373" />
		<tag k="operator" v="Oslo Barnevaktformidling AS" />
		<tag k="operator:type" v="private" />
	</node>
	<node id="-1431" lat="59.92081" lon="10.76573">
		<tag k="ADDRESS" v="Sverdrups Gate 18, 0559 OSLO" />
		<tag k="amenity" v="kindergarten" />
		<tag k="capacity" v="4" />
		<tag k="contact:website" v="http://www.lykketrollet.no" />
		<tag k="max_age" v="2" />
		<tag k="min_age" v="1" />
		<tag k="name" v="Lykketrollet familiebarnehage avd. Sverdrupsgate" />
		<tag k="no-barnehage:nsrid" v="1018386" />
		<tag k="operator" v="Oslo Barnevaktformidling AS" />
		<tag k="operator:type" v="private" />
	</node>
	<node id="-1430" lat="0.0" lon="0.0">
		<tag k="ADDRESS" v="Åkerøveien 2 A, 0586 OSLO" />
		<tag k="amenity" v="kindergarten" />
		<tag k="capacity" v="8" />
		<tag k="contact:website" v="http://www.lykketrollet.no" />
		<tag k="max_age" v="2" />
		<tag k="min_age" v="1" />
		<tag k="name" v="Lykketrollet familiebarnehage avd. Åkerøveien" />
		<tag k="no-barnehage:nsrid" v="1018299" />
		<tag k="operator" v="Oslo Barnevaktformidling AS" />
		<tag k="operator:type" v="private" />
	</node>
	<node id="-1429" lat="59.90716" lon="10.83171">
		<tag k="ADDRESS" v="Dalbakkveien 14, 0682 OSLO" />
		<tag k="amenity" v="kindergarten" />
		<tag k="capacity" v="4" />
		<tag k="contact:website" v="http://www.lykketrollet.no" />
		<tag k="max_age" v="2" />
		<tag k="min_age" v="1" />
		<tag k="name" v="Lykketrollet familiebarnehage avd. Dalbakkveien 14" />
		<tag k="no-barnehage:nsrid" v="1017879" />
		<tag k="operator" v="Oslo Barnevaktformidling AS" />
		<tag k="operator:type" v="private" />
	</node>
	<node id="-1428" lat="59.93274" lon="10.76234">
		<tag k="ADDRESS" v="Vogts Gate 32c, 0474 OSLO" />
		<tag k="amenity" v="kindergarten" />
		<tag k="capacity" v="4" />
		<tag k="max_age" v="2" />
		<tag k="min_age" v="1" />
		<tag k="name" v="Lykketrollet familiebarnehage avd. Vogtsgate 32c" />
		<tag k="no-barnehage:nsrid" v="1018348" />
		<tag k="operator" v="Oslo Barnevaktformidling AS" />
		<tag k="operator:type" v="private" />
	</node>
	<node id="-1427" lat="59.90758" lon="10.83222">
		<tag k="ADDRESS" v="Dalbakkveien 10b, 0682 OSLO" />
		<tag k="amenity" v="kindergarten" />
		<tag k="capacity" v="4" />
		<tag k="max_age" v="2" />
		<tag k="min_age" v="1" />
		<tag k="name" v="Lykketrollet familiebarnehage avd. Dalbakkveien 10b" />
		<tag k="no-barnehage:nsrid" v="1018421" />
		<tag k="operator" v="Oslo Barnevaktformidling AS" />
		<tag k="operator:type" v="private" />
	</node>
	<node id="-1426" lat="59.94999" lon="10.83022">
		<tag k="ADDRESS" v="Anna Rogstads Vei 43b, 0592 OSLO" />
		<tag k="amenity" v="kindergarten" />
		<tag k="capacity" v="4" />
		<tag k="contact:website" v="http://www.lykketrollet.no" />
		<tag k="max_age" v="2" />
		<tag k="min_age" v="1" />
		<tag k="name" v="Lykketrollet familiebarnehage avd. Anna Rogstadsvei" />
		<tag k="no-barnehage:nsrid" v="1018420" />
		<tag k="operator" v="Oslo Barnevaktformidling AS" />
		<tag k="operator:type" v="private" />
	</node>
	<node id="-1425" lat="59.93976" lon="10.80045">
		<tag k="ADDRESS" v="Eltonveien 8b, 0586 OSLO" />
		<tag k="amenity" v="kindergarten" />
		<tag k="capacity" v="4" />
		<tag k="contact:website" v="http://www.lykketrollet.no" />
		<tag k="max_age" v="2" />
		<tag k="min_age" v="1" />
		<tag k="name" v="Lykketrollet familiebarnehage avd. Eltonveien" />
		<tag k="no-barnehage:nsrid" v="1018419" />
		<tag k="operator" v="Oslo Barnevaktformidling AS" />
		<tag k="operator:type" v="private" />
	</node>
	<node id="-1424" lat="59.93794" lon="10.75802">
		<tag k="ADDRESS" v="Bentsegata 6a, 0465 OSLO" />
		<tag k="amenity" v="kindergarten" />
		<tag k="capacity" v="4" />
		<tag k="max_age" v="2" />
		<tag k="min_age" v="1" />
		<tag k="name" v="Lykketrollet familiebarnehage avd. Bentsegata" />
		<tag k="no-barnehage:nsrid" v="1014066" />
		<tag k="operator" v="Oslo Barnevaktformidling AS" />
		<tag k="operator:type" v="private" />
	</node>
	<node id="-1423" lat="59.93279" lon="10.76259">
		<tag k="ADDRESS" v="Vogts Gate 32b, 0474 OSLO" />
		<tag k="amenity" v="kindergarten" />
		<tag k="capacity" v="4" />
		<tag k="max_age" v="2" />
		<tag k="min_age" v="1" />
		<tag k="name" v="Lykketrollet familiebarnehage avd. Vogtsgate 32b" />
		<tag k="no-barnehage:nsrid" v="1014231" />
		<tag k="operator" v="Oslo Barnevaktformidling AS" />
		<tag k="operator:type" v="private" />
	</node>
	<node id="-1422" lat="59.93271" lon="10.76254">
		<tag k="ADDRESS" v="Vogts Gate 32a, 0474 OSLO" />
		<tag k="amenity" v="kindergarten" />
		<tag k="capacity" v="4" />
		<tag k="max_age" v="2" />
		<tag k="min_age" v="1" />
		<tag k="name" v="Lykketrollet familiebarnehage avd. Vogtsgate 32a" />
		<tag k="no-barnehage:nsrid" v="1014145" />
		<tag k="operator" v="Oslo Barnevaktformidling AS" />
		<tag k="operator:type" v="private" />
	</node>
	<node id="-1421" lat="59.91126" lon="10.84531">
		<tag k="ADDRESS" v="Stordamveien 34c, 0671 OSLO" />
		<tag k="amenity" v="kindergarten" />
		<tag k="capacity" v="1" />
		<tag k="max_age" v="2" />
		<tag k="min_age" v="1" />
		<tag k="name" v="Lykketrollet familiebarnehage avd. Stordamveien" />
		<tag k="no-barnehage:nsrid" v="1015177" />
		<tag k="operator" v="Oslo Barnevaktformidling AS" />
		<tag k="operator:type" v="private" />
	</node>
	<node id="-3466" lat="63.43306" lon="10.59603">
		<tag k="ADDRESS" v="Lauglobuen 9b, 7562 SAKSVIK" />
		<tag k="amenity" v="kindergarten" />
		<tag k="capacity" v="7" />
		<tag k="max_age" v="5" />
		<tag k="min_age" v="1" />
		<tag k="name" v="Utsikten familiebarnehage Borghild Lucie Vikhammermo" />
		<tag k="no-barnehage:nsrid" v="1020510" />
		<tag k="operator" v="Utsikten Familiebarnehage Borghild Lucie Vikhammermo" />
		<tag k="operator:type" v="private" />
	</node>
	<node id="-1417" lat="59.8859" lon="10.78271">
		<tag k="ADDRESS" v="Sandstuveien 8, 1178 OSLO" />
		<tag k="amenity" v="kindergarten" />
		<tag k="capacity" v="8" />
		<tag k="max_age" v="2" />
		<tag k="min_age" v="1" />
		<tag k="name" v="Lukas familiebarnehage" />
		<tag k="no-barnehage:nsrid" v="1018604" />
		<tag k="operator" v="Lønneberget barnehage AS" />
		<tag k="operator:type" v="private" />
	</node>
	<node id="-1403" lat="59.85184" lon="10.79944">
		<tag k="ADDRESS" v="Ekebergveien 296, 1166 OSLO" />
		<tag k="amenity" v="kindergarten" />
		<tag k="capacity" v="4" />
		<tag k="max_age" v="2" />
		<tag k="min_age" v="1" />
		<tag k="name" v="Lina familiebarnehage" />
		<tag k="no-barnehage:nsrid" v="1013345" />
		<tag k="operator" v="Lønneberget barnehage AS" />
		<tag k="operator:type" v="private" />
	</node>
	<node id="-1397" lat="59.88391" lon="10.80697">
		<tag k="ADDRESS" v="Steinliveien 8, 1185 OSLO" />
		<tag k="amenity" v="kindergarten" />
		<tag k="capacity" v="8" />
		<tag k="max_age" v="2" />
		<tag k="min_age" v="1" />
		<tag k="name" v="Lille Venn familiebarnehage" />
		<tag k="no-barnehage:nsrid" v="1022371" />
		<tag k="operator" v="Lille Venn Familiebarnehage AS" />
		<tag k="operator:type" v="private" />
	</node>
	<node id="-1396" lat="59.8569" lon="10.79916">
		<tag k="ADDRESS" v="Rosendalsveien 22e, 1166 OSLO" />
		<tag k="amenity" v="kindergarten" />
		<tag k="capacity" v="8" />
		<tag k="max_age" v="2" />
		<tag k="min_age" v="1" />
		<tag k="name" v="Lille Persille familiebarnehage" />
		<tag k="no-barnehage:nsrid" v="1021787" />
		<tag k="operator" v="Lille Persille Familiebarnehage AS" />
		<tag k="operator:type" v="private" />
	</node>
	<node id="-1372" lat="59.8873" lon="10.84799">
		<tag k="ADDRESS" v="Kringkollen 24, 0690 OSLO" />
		<tag k="amenity" v="kindergarten" />
		<tag k="capacity" v="3" />
		<tag k="max_age" v="2" />
		<tag k="min_age" v="1" />
		<tag k="name" v="Kringkollen familiebarnehage" />
		<tag k="no-barnehage:nsrid" v="1021466" />
		<tag k="operator" v="Kringkollen Familiebarnehage Else Marie Pålshaugen" />
		<tag k="operator:type" v="private" />
	</node>
	<node id="-1367" lat="59.96051" lon="10.73969">
		<tag k="ADDRESS" v="Kongleveien 43, 0860 OSLO" />
		<tag k="amenity" v="kindergarten" />
		<tag k="capacity" v="8" />
		<tag k="max_age" v="2" />
		<tag k="min_age" v="1" />
		<tag k="name" v="Kongla familiebarnehage" />
		<tag k="no-barnehage:nsrid" v="1013477" />
		<tag k="operator" v="Furukongla AS" />
		<tag k="operator:type" v="private" />
	</node>
	<node id="-1363" lat="59.92935" lon="10.87488">
		<tag k="ADDRESS" v="Lindebergåsen 33, 1071 OSLO" />
		<tag k="amenity" v="kindergarten" />
		<tag k="capacity" v="10" />
		<tag k="max_age" v="5" />
		<tag k="min_age" v="1" />
		<tag k="name" v="Knøttene familiebarnehage-bydel Alna" />
		<tag k="no-barnehage:nsrid" v="1020298" />
		<tag k="operator" v="Knøttene Familiebarnehage-Bydel Alna AS" />
		<tag k="operator:type" v="private" />
	</node>
	<node id="-1361" lat="59.90163" lon="10.8267">
		<tag k="ADDRESS" v="Fugleliveien 19c, 0667 OSLO" />
		<tag k="amenity" v="kindergarten" />
		<tag k="capacity" v="8" />
		<tag k="max_age" v="2" />
		<tag k="min_age" v="1" />
		<tag k="name" v="Knærten familiebarnehage avd. 2" />
		<tag k="no-barnehage:nsrid" v="1013008" />
		<tag k="operator" v="Knærten Familiebarnehage AS" />
		<tag k="operator:type" v="private" />
	</node>
	<node id="-1358" lat="59.94238" lon="10.68466">
		<tag k="ADDRESS" v="Holmenveien 61a, 0376 OSLO" />
		<tag k="amenity" v="kindergarten" />
		<tag k="capacity" v="4" />
		<tag k="max_age" v="2" />
		<tag k="min_age" v="1" />
		<tag k="name" v="Klatremus familiebarnehage" />
		<tag k="no-barnehage:nsrid" v="1020341" />
		<tag k="operator" v="Klatremus Familiebarnehage avd Knerten Mellbye" />
		<tag k="operator:type" v="private" />
	</node>
	<node id="-566" lat="59.90195" lon="10.59561">
		<tag k="ADDRESS" v="Strandalleen 3, 1368 STABEKK" />
		<tag k="amenity" v="kindergarten" />
		<tag k="capacity" v="8" />
		<tag k="contact:website" v="http://www.familiebarnehage.no" />
		<tag k="max_age" v="2" />
		<tag k="min_age" v="1" />
		<tag k="name" v="Nøtteliten familiebarnehager avd. Strandalleen" />
		<tag k="no-barnehage:nsrid" v="1025815" />
		<tag k="operator" v="Nøtteliten Familiebarnehager AS" />
		<tag k="operator:type" v="private" />
	</node>
	<node id="-1344" lat="59.87825" lon="10.80198">
		<tag k="ADDRESS" v="Bernt Knudsens Vei 10b, 1176 OSLO" />
		<tag k="amenity" v="kindergarten" />
		<tag k="capacity" v="8" />
		<tag k="max_age" v="2" />
		<tag k="min_age" v="1" />
		<tag k="name" v="Karlsrud familiebarnehage" />
		<tag k="no-barnehage:nsrid" v="1017652" />
		<tag k="operator" v="Bitteliten Barnehager AS" />
		<tag k="operator:type" v="private" />
	</node>
	<node id="-3389" lat="62.45901" lon="6.26631">
		<tag k="ADDRESS" v="Hatlahaugen 11, 6016 ÅLESUND" />
		<tag k="amenity" v="kindergarten" />
		<tag k="capacity" v="8" />
		<tag k="max_age" v="5" />
		<tag k="min_age" v="1" />
		<tag k="name" v="Hatlahaugen familiebarnehage Gunn Berit Rødstøl" />
		<tag k="no-barnehage:nsrid" v="1020772" />
		<tag k="operator" v="Hatlahaugen Familiebarnehage V/gunn Berit Rødstøl" />
		<tag k="operator:type" v="private" />
	</node>
	<node id="-1332" lat="59.95382" lon="10.67368">
		<tag k="ADDRESS" v="Holmenkollveien 61e, 0784 OSLO" />
		<tag k="amenity" v="kindergarten" />
		<tag k="capacity" v="8" />
		<tag k="max_age" v="2" />
		<tag k="min_age" v="1" />
		<tag k="name" v="Jeppes familiebarnehage" />
		<tag k="no-barnehage:nsrid" v="1022214" />
		<tag k="operator" v="Amh Sandaker" />
		<tag k="operator:type" v="private" />
	</node>
	<node id="-1326" lat="59.92249" lon="10.65318">
		<tag k="ADDRESS" v="Holgerslystveien 10c, 0280 OSLO" />
		<tag k="amenity" v="kindergarten" />
		<tag k="capacity" v="8" />
		<tag k="contact:website" v="http://ingvildsbarnehage.no" />
		<tag k="max_age" v="2" />
		<tag k="min_age" v="1" />
		<tag k="name" v="Ingvilds barnehage Holgerslystveien" />
		<tag k="no-barnehage:nsrid" v="2000107" />
		<tag k="operator" v="Ingvilds barnehage Ingvild Elisabeth Eide" />
		<tag k="operator:type" v="private" />
	</node>
	<node id="-1325" lat="59.92212" lon="10.65596">
		<tag k="ADDRESS" v="Bestumveien 43, 0281 OSLO" />
		<tag k="amenity" v="kindergarten" />
		<tag k="capacity" v="8" />
		<tag k="contact:website" v="http://ingvildsbarnehage.no" />
		<tag k="max_age" v="2" />
		<tag k="min_age" v="1" />
		<tag k="name" v="Ingvilds barnehage Bestumveien" />
		<tag k="no-barnehage:nsrid" v="1021810" />
		<tag k="operator" v="Ingvilds barnehage Ingvild Elisabeth Eide" />
		<tag k="operator:type" v="private" />
	</node>
	<node id="-3366" lat="61.91915" lon="5.99375">
		<tag k="ADDRESS" v="Fossevegen 56, 6770 NORDFJORDEID" />
		<tag k="amenity" v="kindergarten" />
		<tag k="capacity" v="4" />
		<tag k="max_age" v="2" />
		<tag k="min_age" v="1" />
		<tag k="name" v="Nøtteliten familiebarnehage" />
		<tag k="no-barnehage:nsrid" v="1020883" />
		<tag k="operator" v="Nøtteliten Familiebarnehage Haugen" />
		<tag k="operator:type" v="private" />
	</node>
	<node id="-561" lat="59.91183" lon="10.6201">
		<tag k="ADDRESS" v="Nordraaks Vei 55b, 1369 STABEKK" />
		<tag k="amenity" v="kindergarten" />
		<tag k="capacity" v="8" />
		<tag k="max_age" v="5" />
		<tag k="min_age" v="1" />
		<tag k="name" v="Nordraaksvei familiebarnehage" />
		<tag k="no-barnehage:nsrid" v="1015028" />
		<tag k="operator" v="Familiebarnehagene Vivi Engelund" />
		<tag k="operator:type" v="private" />
	</node>
	<node id="-1301" lat="59.93849" lon="10.8135">
		<tag k="ADDRESS" v="Økernveien 205b, 0584 OSLO" />
		<tag k="amenity" v="kindergarten" />
		<tag k="capacity" v="8" />
		<tag k="max_age" v="2" />
		<tag k="min_age" v="1" />
		<tag k="name" v="Hestehagen familiebarnehage" />
		<tag k="no-barnehage:nsrid" v="1013065" />
		<tag k="operator" v="Ulna AS" />
		<tag k="operator:type" v="private" />
	</node>
	<node id="-1300" lat="59.91217" lon="10.77012">
		<tag k="ADDRESS" v="Borggata 4, 0650 OSLO" />
		<tag k="amenity" v="kindergarten" />
		<tag k="capacity" v="4" />
		<tag k="max_age" v="2" />
		<tag k="min_age" v="1" />
		<tag k="name" v="Herslebs familiebarnehage" />
		<tag k="no-barnehage:nsrid" v="1022453" />
		<tag k="operator" v="Egeh AS" />
		<tag k="operator:type" v="private" />
	</node>
	<node id="-3317" lat="0.0" lon="0.0">
		<tag k="ADDRESS" v="Hilland, 5911 ALVERSUND" />
		<tag k="amenity" v="kindergarten" />
		<tag k="capacity" v="10" />
		<tag k="max_age" v="5" />
		<tag k="min_age" v="1" />
		<tag k="name" v="Smilehullet familiebarnehage Anne Mari Arnesen" />
		<tag k="no-barnehage:nsrid" v="1020579" />
		<tag k="operator" v="Smilehullet Familiebarnehage Anne Mari Arnesen" />
		<tag k="operator:type" v="private" />
	</node>
	<node id="-1266" lat="59.93055" lon="10.68034">
		<tag k="ADDRESS" v="Gullkroken 2c, 0377 OSLO" />
		<tag k="amenity" v="kindergarten" />
		<tag k="capacity" v="8" />
		<tag k="contact:website" v="http://www.Familiebarnehage.no" />
		<tag k="max_age" v="2" />
		<tag k="min_age" v="1" />
		<tag k="name" v="Hakkebakkeskogen familiebarnehage avd. Gullkroken" />
		<tag k="no-barnehage:nsrid" v="1018305" />
		<tag k="operator" v="Hakkebakkeskogen Familiebarnehage AS" />
		<tag k="operator:type" v="private" />
	</node>
	<node id="-3313" lat="60.46084" lon="4.96087">
		<tag k="ADDRESS" v="Knappevegen 39, 5337 RONG" />
		<tag k="amenity" v="kindergarten" />
		<tag k="capacity" v="4" />
		<tag k="max_age" v="5" />
		<tag k="min_age" v="1" />
		<tag k="name" v="Knappen familiebarnehage" />
		<tag k="no-barnehage:nsrid" v="1020936" />
		<tag k="operator" v="Malin Pernille Lid Romarheim" />
		<tag k="operator:type" v="private" />
	</node>
	<node id="-1263" lat="59.90224" lon="10.81093">
		<tag k="ADDRESS" v="Drivhusveien 5a, 0678 OSLO" />
		<tag k="amenity" v="kindergarten" />
		<tag k="capacity" v="2" />
		<tag k="contact:website" v="http://www.Familiebarnehage.no" />
		<tag k="max_age" v="2" />
		<tag k="min_age" v="1" />
		<tag k="name" v="Hakkebakkeskogen familiebarnehage avd. Drivhusveien" />
		<tag k="no-barnehage:nsrid" v="1017276" />
		<tag k="operator" v="Hakkebakkeskogen Familiebarnehage AS" />
		<tag k="operator:type" v="private" />
	</node>
	<node id="-3310" lat="60.53125" lon="5.17424">
		<tag k="ADDRESS" v="Hoplandsvegen 141, 5919 FREKHAUG" />
		<tag k="amenity" v="kindergarten" />
		<tag k="capacity" v="9" />
		<tag k="max_age" v="5" />
		<tag k="min_age" v="1" />
		<tag k="name" v="Lita-god familiebarnehage" />
		<tag k="no-barnehage:nsrid" v="1014084" />
		<tag k="operator" v="Kooij Van Der Liv Hopland" />
		<tag k="operator:type" v="private" />
	</node>
	<node id="-1261" lat="59.9517" lon="10.78255">
		<tag k="ADDRESS" v="Kastanjeveien 8b, 0487 OSLO" />
		<tag k="amenity" v="kindergarten" />
		<tag k="capacity" v="8" />
		<tag k="contact:website" v="http://www.Familiebarnehage.no" />
		<tag k="max_age" v="2" />
		<tag k="min_age" v="1" />
		<tag k="name" v="Hakkebakkeskogen familiebarnehage avd. Kastanjeveien" />
		<tag k="no-barnehage:nsrid" v="1017909" />
		<tag k="operator" v="Hakkebakkeskogen Familiebarnehage AS" />
		<tag k="operator:type" v="private" />
	</node>
	<node id="-1260" lat="59.91058" lon="10.82764">
		<tag k="ADDRESS" v="Fyrstikkbakken 22, 0667 OSLO" />
		<tag k="amenity" v="kindergarten" />
		<tag k="capacity" v="8" />
		<tag k="contact:website" v="http://www.Familiebarnehage.no" />
		<tag k="max_age" v="2" />
		<tag k="min_age" v="1" />
		<tag k="name" v="Hakkebakkeskogen familiebarnehage avd. Fyrstikkbakken" />
		<tag k="no-barnehage:nsrid" v="1017908" />
		<tag k="operator" v="Hakkebakkeskogen Familiebarnehage AS" />
		<tag k="operator:type" v="private" />
	</node>
	<node id="-1259" lat="59.94363" lon="10.64113">
		<tag k="ADDRESS" v="Vækerøveien 184, 0751 OSLO" />
		<tag k="amenity" v="kindergarten" />
		<tag k="capacity" v="8" />
		<tag k="contact:website" v="http://www.Familiebarnehage.no" />
		<tag k="max_age" v="2" />
		<tag k="min_age" v="1" />
		<tag k="name" v="Hakkebakkeskogen familiebarnehage avd. Vækerøveien" />
		<tag k="no-barnehage:nsrid" v="1015857" />
		<tag k="operator" v="Hakkebakkeskogen Familiebarnehage AS" />
		<tag k="operator:type" v="private" />
	</node>
	<node id="-1258" lat="59.92234" lon="10.66058">
		<tag k="ADDRESS" v="Ullernveien 9, 0280 OSLO" />
		<tag k="amenity" v="kindergarten" />
		<tag k="capacity" v="8" />
		<tag k="contact:website" v="http://www.Familiebarnehage.no" />
		<tag k="max_age" v="2" />
		<tag k="min_age" v="1" />
		<tag k="name" v="Hakkebakkeskogen familiebarnehage avd. Ullernveien" />
		<tag k="no-barnehage:nsrid" v="1016575" />
		<tag k="operator" v="Hakkebakkeskogen Familiebarnehage AS" />
		<tag k="operator:type" v="private" />
	</node>
	<node id="-1257" lat="59.91522" lon="10.6434">
		<tag k="ADDRESS" v="Doktor Rustads Vei 1, 0283 OSLO" />
		<tag k="amenity" v="kindergarten" />
		<tag k="capacity" v="8" />
		<tag k="contact:website" v="http://www.Familiebarnehage.no" />
		<tag k="max_age" v="2" />
		<tag k="min_age" v="1" />
		<tag k="name" v="Hakkebakkeskogen familiebarnehage avd. Dr Rustadsvei" />
		<tag k="no-barnehage:nsrid" v="1016354" />
		<tag k="operator" v="Hakkebakkeskogen Familiebarnehage AS" />
		<tag k="operator:type" v="private" />
	</node>
	<node id="-1256" lat="59.88267" lon="10.80102">
		<tag k="ADDRESS" v="Jotunveien 3b, 1185 OSLO" />
		<tag k="amenity" v="kindergarten" />
		<tag k="capacity" v="7" />
		<tag k="contact:website" v="http://www.familiebarnehage.no" />
		<tag k="max_age" v="2" />
		<tag k="min_age" v="1" />
		<tag k="name" v="Hakkebakkeskogen familiebarnehage avd. Jotunveien" />
		<tag k="no-barnehage:nsrid" v="1016353" />
		<tag k="operator" v="Hakkebakkeskogen Familiebarnehage AS" />
		<tag k="operator:type" v="private" />
	</node>
	<node id="-1255" lat="59.9583" lon="10.76013">
		<tag k="ADDRESS" v="Tåsenveien 113, 0880 OSLO" />
		<tag k="amenity" v="kindergarten" />
		<tag k="capacity" v="8" />
		<tag k="contact:website" v="http://www.Familiebarnehage.no" />
		<tag k="max_age" v="2" />
		<tag k="min_age" v="1" />
		<tag k="name" v="Hakkebakkeskogen familiebarnehage avd. Tåsenveien" />
		<tag k="no-barnehage:nsrid" v="1016352" />
		<tag k="operator" v="Hakkebakkeskogen Familiebarnehage AS" />
		<tag k="operator:type" v="private" />
	</node>
	<node id="-1254" lat="59.94513" lon="10.79198">
		<tag k="ADDRESS" v="Kolderups Vei 5b, 0587 OSLO" />
		<tag k="amenity" v="kindergarten" />
		<tag k="capacity" v="8" />
		<tag k="contact:website" v="http://www.Familiebarnehage.no" />
		<tag k="max_age" v="2" />
		<tag k="min_age" v="1" />
		<tag k="name" v="Hakkebakkeskogen familiebarnehage avd. Koldrupsvei" />
		<tag k="no-barnehage:nsrid" v="1013346" />
		<tag k="operator" v="Hakkebakkeskogen Familiebarnehage AS" />
		<tag k="operator:type" v="private" />
	</node>
	<node id="-1253" lat="59.95689" lon="10.88553">
		<tag k="ADDRESS" v="Kirkesvingen 5, 0962 OSLO" />
		<tag k="amenity" v="kindergarten" />
		<tag k="capacity" v="8" />
		<tag k="contact:website" v="http://www.Familiebarnehage.no" />
		<tag k="max_age" v="2" />
		<tag k="min_age" v="1" />
		<tag k="name" v="Hakkebakkeskogen familiebarnehage avd. kirkesvingen" />
		<tag k="no-barnehage:nsrid" v="1013304" />
		<tag k="operator" v="Hakkebakkeskogen Familiebarnehage AS" />
		<tag k="operator:type" v="private" />
	</node>
	<node id="-3299" lat="60.34877" lon="5.08914">
		<tag k="ADDRESS" v="Skorafjellet 34, 5360 KOLLTVEIT" />
		<tag k="amenity" v="kindergarten" />
		<tag k="capacity" v="10" />
		<tag k="max_age" v="5" />
		<tag k="min_age" v="1" />
		<tag k="name" v="Knerten familiebarnehage" />
		<tag k="no-barnehage:nsrid" v="1020598" />
		<tag k="operator" v="Knerten Familiebarnehage Torill Hesjedal" />
		<tag k="operator:type" v="private" />
	</node>
	<node id="-1250" lat="59.92554" lon="10.63442">
		<tag k="ADDRESS" v="Hartmanns Vei 36, 0284 OSLO" />
		<tag k="amenity" v="kindergarten" />
		<tag k="capacity" v="8" />
		<tag k="contact:website" v="http://www.tornsvalen.no" />
		<tag k="max_age" v="2" />
		<tag k="min_age" v="1" />
		<tag k="name" v="Gulspurven familebarnehage" />
		<tag k="no-barnehage:nsrid" v="1015906" />
		<tag k="operator" v="Tårnsvalen barnehage AS" />
		<tag k="operator:type" v="private" />
	</node>
	<node id="-1249" lat="59.92078" lon="10.66102">
		<tag k="ADDRESS" v="Bestumveien 26, 0281 OSLO" />
		<tag k="amenity" v="kindergarten" />
		<tag k="capacity" v="4" />
		<tag k="contact:website" v="http://www.minbarnehage.no/gullungenefamiliebarnehage" />
		<tag k="max_age" v="2" />
		<tag k="min_age" v="1" />
		<tag k="name" v="Gullungene familiebarnehage avd. Bestumveien" />
		<tag k="no-barnehage:nsrid" v="1015900" />
		<tag k="operator" v="Gullungene Familiebarnehage Mona K Axelsen" />
		<tag k="operator:type" v="private" />
	</node>
	<node id="-1248" lat="59.91858" lon="10.65948">
		<tag k="ADDRESS" v="Vennersborgveien 8a, 0281 OSLO" />
		<tag k="amenity" v="kindergarten" />
		<tag k="capacity" v="3" />
		<tag k="max_age" v="2" />
		<tag k="min_age" v="1" />
		<tag k="name" v="Gullungene familiebarnehage avd. Lille My" />
		<tag k="no-barnehage:nsrid" v="1022037" />
		<tag k="operator" v="Gullungene Familiebarnehage Mona K Axelsen" />
		<tag k="operator:type" v="private" />
	</node>
	<node id="-1247" lat="59.8545" lon="10.79228">
		<tag k="ADDRESS" v="Åsdalsveien 33, 1166 OSLO" />
		<tag k="amenity" v="kindergarten" />
		<tag k="capacity" v="6" />
		<tag k="max_age" v="2" />
		<tag k="min_age" v="1" />
		<tag k="name" v="Gullklumpen familiebarnehage" />
		<tag k="no-barnehage:nsrid" v="1014263" />
		<tag k="operator" v="Amigos barnehage Limited" />
		<tag k="operator:type" v="private" />
	</node>
	<node id="-1240" lat="59.91346" lon="10.76329">
		<tag k="ADDRESS" v="Breigata 23, 0187 OSLO" />
		<tag k="amenity" v="kindergarten" />
		<tag k="capacity" v="4" />
		<tag k="max_age" v="2" />
		<tag k="min_age" v="1" />
		<tag k="name" v="Grønland familiebarnehage" />
		<tag k="no-barnehage:nsrid" v="1025643" />
		<tag k="operator" v="Egeh AS" />
		<tag k="operator:type" v="private" />
	</node>
	<node id="-1212" lat="59.95644" lon="10.67058">
		<tag k="ADDRESS" v="Holmenkollveien 95a, 0784 OSLO" />
		<tag k="amenity" v="kindergarten" />
		<tag k="capacity" v="8" />
		<tag k="contact:website" v="http://www.tornsvalen.no" />
		<tag k="max_age" v="2" />
		<tag k="min_age" v="1" />
		<tag k="name" v="Fuglekongen familiebarnehage" />
		<tag k="no-barnehage:nsrid" v="1013148" />
		<tag k="operator" v="Tårnsvalen barnehage AS" />
		<tag k="operator:type" v="private" />
	</node>
	<node id="-1201" lat="59.90307" lon="10.68751">
		<tag k="ADDRESS" v="Fredriksborgveien 18, 0286 OSLO" />
		<tag k="amenity" v="kindergarten" />
		<tag k="capacity" v="8" />
		<tag k="max_age" v="2" />
		<tag k="min_age" v="1" />
		<tag k="name" v="Fredriksborg familiebarnehage" />
		<tag k="no-barnehage:nsrid" v="1022152" />
		<tag k="operator" v="Fredriksborg Familiebarnehage Blom" />
		<tag k="operator:type" v="private" />
	</node>
	<node id="-1193" lat="59.8686" lon="10.75984">
		<tag k="ADDRESS" v="Høyboveien 6, 0198 OSLO" />
		<tag k="amenity" v="kindergarten" />
		<tag k="capacity" v="8" />
		<tag k="max_age" v="2" />
		<tag k="min_age" v="1" />
		<tag k="name" v="Fjordgløtt familiebarnehage" />
		<tag k="no-barnehage:nsrid" v="1020134" />
		<tag k="operator" v="Fjordgløtt Familiebarnehage AS" />
		<tag k="operator:type" v="private" />
	</node>
	<node id="-3212" lat="60.32135" lon="5.33603">
		<tag k="ADDRESS" v="Hopsåsen 14a, 5232 PARADIS" />
		<tag k="amenity" v="kindergarten" />
		<tag k="capacity" v="8" />
		<tag k="contact:website" v="http://www.lekehagen.no" />
		<tag k="max_age" v="2" />
		<tag k="min_age" v="1" />
		<tag k="name" v="Lekehagen familiebarnehage" />
		<tag k="no-barnehage:nsrid" v="1020539" />
		<tag k="operator" v="Lekehagen Familiebarnehage" />
		<tag k="operator:type" v="private" />
	</node>
	<node id="-1159" lat="59.87442" lon="10.80399">
		<tag k="ADDRESS" v="Mylskerudveien 35, 1152 OSLO" />
		<tag k="amenity" v="kindergarten" />
		<tag k="capacity" v="8" />
		<tag k="max_age" v="2" />
		<tag k="min_age" v="1" />
		<tag k="name" v="Emil familebarnehage" />
		<tag k="no-barnehage:nsrid" v="1016456" />
		<tag k="operator" v="Lønneberget barnehage AS" />
		<tag k="operator:type" v="private" />
	</node>
	<node id="-1149" lat="59.94963" lon="10.68132">
		<tag k="ADDRESS" v="Tråkka 22, 0774 OSLO" />
		<tag k="amenity" v="kindergarten" />
		<tag k="capacity" v="8" />
		<tag k="max_age" v="2" />
		<tag k="min_age" v="1" />
		<tag k="name" v="Du og Jeg Og Vi To" />
		<tag k="no-barnehage:nsrid" v="1013454" />
		<tag k="operator" v="Amigos barnehage Limited" />
		<tag k="operator:type" v="private" />
	</node>
	<node id="-3193" lat="60.38503" lon="5.20259">
		<tag k="ADDRESS" v="Gjerdingsskjenet 28, 5179 GODVIK" />
		<tag k="amenity" v="kindergarten" />
		<tag k="capacity" v="9" />
		<tag k="contact:website" v="http://gjeringsvikfamiliebarnehage.com/hjem" />
		<tag k="max_age" v="5" />
		<tag k="min_age" v="1" />
		<tag k="name" v="Gjæringsvik familiebarnehage" />
		<tag k="no-barnehage:nsrid" v="1020064" />
		<tag k="operator" v="Gjæringsvik Familiebarnehage Ans" />
		<tag k="operator:type" v="private" />
	</node>
	<node id="-1140" lat="59.90638" lon="10.83576">
		<tag k="ADDRESS" v="Låveveien 26d, 0682 OSLO" />
		<tag k="amenity" v="kindergarten" />
		<tag k="capacity" v="5" />
		<tag k="max_age" v="5" />
		<tag k="min_age" v="3" />
		<tag k="name" v="Den Russiske familiebarnehagen" />
		<tag k="no-barnehage:nsrid" v="1026289" />
		<tag k="operator" v="Rysstad Drift" />
		<tag k="operator:type" v="private" />
	</node>
	<node id="-1139" lat="59.91674" lon="10.82453">
		<tag k="ADDRESS" v="Harald Halvorsens Vei 12b, 0666 OSLO" />
		<tag k="amenity" v="kindergarten" />
		<tag k="capacity" v="5" />
		<tag k="max_age" v="5" />
		<tag k="min_age" v="3" />
		<tag k="name" v="Den Russiske barnehagen" />
		<tag k="no-barnehage:nsrid" v="1022203" />
		<tag k="operator" v="Rysstad Drift" />
		<tag k="operator:type" v="private" />
	</node>
	<node id="-1136" lat="59.85084" lon="10.78953">
		<tag k="ADDRESS" v="Åsdalsveien 62, 1167 OSLO" />
		<tag k="amenity" v="kindergarten" />
		<tag k="capacity" v="8" />
		<tag k="max_age" v="2" />
		<tag k="min_age" v="1" />
		<tag k="name" v="De Ni Musene avd. Nordstrand" />
		<tag k="no-barnehage:nsrid" v="1022095" />
		<tag k="operator" v="De Ni Musene AS" />
		<tag k="operator:type" v="private" />
	</node>
	<node id="-1135" lat="59.91988" lon="10.70132">
		<tag k="ADDRESS" v="Eckersbergs Gate 13b, 0266 OSLO" />
		<tag k="amenity" v="kindergarten" />
		<tag k="capacity" v="4" />
		<tag k="contact:website" v="http://denimusene.no" />
		<tag k="max_age" v="2" />
		<tag k="min_age" v="1" />
		<tag k="name" v="De Ni Musene avd. Frogner" />
		<tag k="no-barnehage:nsrid" v="1021914" />
		<tag k="operator" v="De Ni Musene AS" />
		<tag k="operator:type" v="private" />
	</node>
	<node id="-1134" lat="59.89434" lon="10.79271">
		<tag k="ADDRESS" v="Jonsokveien 6, 1182 OSLO" />
		<tag k="amenity" v="kindergarten" />
		<tag k="capacity" v="7" />
		<tag k="max_age" v="2" />
		<tag k="min_age" v="1" />
		<tag k="name" v="De Ni Musene avd. Ekeberg" />
		<tag k="no-barnehage:nsrid" v="1022451" />
		<tag k="operator" v="De Ni Musene AS" />
		<tag k="operator:type" v="private" />
	</node>
	<node id="-1106" lat="59.84905" lon="10.84328">
		<tag k="ADDRESS" v="Brennastubben 16, 1279 OSLO" />
		<tag k="amenity" v="kindergarten" />
		<tag k="capacity" v="10" />
		<tag k="contact:website" v="http://www.brennastubben.no" />
		<tag k="max_age" v="5" />
		<tag k="min_age" v="1" />
		<tag k="name" v="Brennastubben familiebarnehage" />
		<tag k="no-barnehage:nsrid" v="1021439" />
		<tag k="operator" v="Brennastubben Familiebarnehage AS" />
		<tag k="operator:type" v="private" />
	</node>
	<node id="-1103" lat="59.85783" lon="10.81334">
		<tag k="ADDRESS" v="Brattvollveien 13, 1164 OSLO" />
		<tag k="amenity" v="kindergarten" />
		<tag k="capacity" v="8" />
		<tag k="max_age" v="2" />
		<tag k="min_age" v="1" />
		<tag k="name" v="Brattvoll familiebarnehage" />
		<tag k="no-barnehage:nsrid" v="1014001" />
		<tag k="operator" v="Ellen Marianne Pettersen" />
		<tag k="operator:type" v="private" />
	</node>
	<node id="-1102" lat="0.0" lon="0.0">
		<tag k="ADDRESS" v="Husnummer 116 Borggata 8, 0650 OSLO" />
		<tag k="amenity" v="kindergarten" />
		<tag k="capacity" v="4" />
		<tag k="max_age" v="2" />
		<tag k="min_age" v="1" />
		<tag k="name" v="Borggata familiebarnehage" />
		<tag k="no-barnehage:nsrid" v="1022224" />
		<tag k="operator" v="Egeh AS" />
		<tag k="operator:type" v="private" />
	</node>
	<node id="-3137" lat="58.72365" lon="5.64477">
		<tag k="ADDRESS" v="Svertingstadvegen 8, 4340 BRYNE" />
		<tag k="amenity" v="kindergarten" />
		<tag k="capacity" v="10" />
		<tag k="max_age" v="5" />
		<tag k="min_age" v="1" />
		<tag k="name" v="Nubben familiebarnehage" />
		<tag k="no-barnehage:nsrid" v="1020668" />
		<tag k="operator" v="Nubben Familiebarnehage Da" />
		<tag k="operator:type" v="private" />
	</node>
	<node id="-1077" lat="59.88295" lon="10.77505">
		<tag k="ADDRESS" v="Bekkelagsveien 18e, 1177 OSLO" />
		<tag k="amenity" v="kindergarten" />
		<tag k="capacity" v="4" />
		<tag k="max_age" v="2" />
		<tag k="min_age" v="1" />
		<tag k="name" v="Bekkelagsveien familiebarnehage Faisal" />
		<tag k="no-barnehage:nsrid" v="1021538" />
		<tag k="operator" v="Bekkelagsveien Familiebarnehage Faisal" />
		<tag k="operator:type" v="private" />
	</node>
	<node id="-3123" lat="59.4222" lon="5.26297">
		<tag k="ADDRESS" v="St. Olavs Plass 6, 5523 HAUGESUND" />
		<tag k="amenity" v="kindergarten" />
		<tag k="capacity" v="35" />
		<tag k="max_age" v="5" />
		<tag k="min_age" v="1" />
		<tag k="name" v="Nøtteliten familiebarnehage" />
		<tag k="no-barnehage:nsrid" v="1020894" />
		<tag k="operator" v="Nøtteliten Familiebarnehage AS" />
		<tag k="operator:type" v="private" />
	</node>
	<node id="-2150" lat="0.0" lon="0.0">
		<tag k="ADDRESS" v="Grådalshaugen Familiebarnehage, 2630 RINGEBU" />
		<tag k="amenity" v="kindergarten" />
		<tag k="capacity" v="4" />
		<tag k="max_age" v="2" />
		<tag k="min_age" v="1" />
		<tag k="name" v="Randis familiebarnehage Randi Anita Bjerkehage" />
		<tag k="no-barnehage:nsrid" v="1022316" />
		<tag k="operator" v="Randis Familiebarnehage Randi Anita Bjerkehage" />
		<tag k="operator:type" v="private" />
	</node>
	<node id="-3119" lat="59.417" lon="5.25711">
		<tag k="ADDRESS" v="Holmegata 54, 5523 HAUGESUND" />
		<tag k="amenity" v="kindergarten" />
		<tag k="capacity" v="9" />
		<tag k="max_age" v="5" />
		<tag k="min_age" v="1" />
		<tag k="name" v="Holmegaten familiebarnehage" />
		<tag k="no-barnehage:nsrid" v="1020671" />
		<tag k="operator" v="Holmegaten Familiebarnehage Ans" />
		<tag k="operator:type" v="private" />
	</node>
	<node id="-1063" lat="59.94177" lon="10.68522">
		<tag k="ADDRESS" v="Bernhard Herres Vei 9, 0376 OSLO" />
		<tag k="amenity" v="kindergarten" />
		<tag k="capacity" v="8" />
		<tag k="contact:website" v="http://www.oslo.kommune.no/barnehage/finn-barnehage-i-oslo/bamsebo-familiebarnehage/" />
		<tag k="max_age" v="2" />
		<tag k="min_age" v="1" />
		<tag k="name" v="Bamsebo familiebarnehage" />
		<tag k="no-barnehage:nsrid" v="1022390" />
		<tag k="operator" v="Vestre Aker Omsorg AS" />
		<tag k="operator:type" v="private" />
	</node>
	<node id="-581" lat="59.88669" lon="10.62149">
		<tag k="ADDRESS" v="Snarøyveien 97a, 1367 SNARØYA" />
		<tag k="amenity" v="kindergarten" />
		<tag k="capacity" v="8" />
		<tag k="contact:website" v="http://www.Familiebarnehage.no" />
		<tag k="max_age" v="2" />
		<tag k="min_age" v="1" />
		<tag k="name" v="Nøtteliten familiebarnehager avd. Snarøyveien" />
		<tag k="no-barnehage:nsrid" v="1015212" />
		<tag k="operator" v="Nøtteliten Familiebarnehager AS" />
		<tag k="operator:type" v="private" />
	</node>
	<node id="-2149" lat="0.0" lon="0.0">
		<tag k="ADDRESS" v="Kjønås, 2630 RINGEBU" />
		<tag k="amenity" v="kindergarten" />
		<tag k="capacity" v="4" />
		<tag k="max_age" v="2" />
		<tag k="min_age" v="1" />
		<tag k="name" v="Marit Lovises familiebarnehage" />
		<tag k="no-barnehage:nsrid" v="1021646" />
		<tag k="operator" v="Marit Lovise Amundlien" />
		<tag k="operator:type" v="private" />
	</node>
	<node id="-174" lat="59.22824" lon="10.99223">
		<tag k="ADDRESS" v="Trykkeriveien 5, 1653 SELLEBAKK" />
		<tag k="amenity" v="kindergarten" />
		<tag k="capacity" v="5" />
		<tag k="max_age" v="5" />
		<tag k="min_age" v="1" />
		<tag k="name" v="Sesam familiebarnehage" />
		<tag k="no-barnehage:nsrid" v="1020546" />
		<tag k="operator" v="Sesam Familiebarnehage Anita Jeanett Saastad" />
		<tag k="operator:type" v="private" />
	</node>
	<node id="-1037" lat="59.91143" lon="10.72316">
		<tag k="ADDRESS" v="Ruseløkkveien 59, 0251 OSLO" />
		<tag k="amenity" v="kindergarten" />
		<tag k="capacity" v="8" />
		<tag k="max_age" v="2" />
		<tag k="min_age" v="1" />
		<tag k="name" v="Abrakadabra familiebarnehage" />
		<tag k="no-barnehage:nsrid" v="1018450" />
		<tag k="operator" v="Amigos barnehage Limited" />
		<tag k="operator:type" v="private" />
	</node>
	<node id="-3082" lat="58.09325" lon="7.80233">
		<tag k="ADDRESS" v="Salemsveien 18, 4640 SØGNE" />
		<tag k="amenity" v="kindergarten" />
		<tag k="capacity" v="10" />
		<tag k="max_age" v="5" />
		<tag k="min_age" v="1" />
		<tag k="name" v="Salemveien familiebarnehage Siren Henriette Holskog Pettersen" />
		<tag k="no-barnehage:nsrid" v="1020930" />
		<tag k="operator" v="Salemveien Familiebarnehage Siren Henriette Holskog Pettersen" />
		<tag k="operator:type" v="private" />
	</node>
	<node id="-3080" lat="58.10276" lon="7.76242">
		<tag k="ADDRESS" v="Vedderheia 20, 4642 SØGNE" />
		<tag k="amenity" v="kindergarten" />
		<tag k="capacity" v="11" />
		<tag k="max_age" v="5" />
		<tag k="min_age" v="1" />
		<tag k="name" v="Lisebo familiebarnehage Lise Merethe Ekeland" />
		<tag k="no-barnehage:nsrid" v="1020646" />
		<tag k="operator" v="Lisebo Familiebarnehage Lise Merethe Ekeland" />
		<tag k="operator:type" v="private" />
	</node>
	<node id="-1262" lat="59.96336" lon="10.78007">
		<tag k="ADDRESS" v="Daniel Walstads Vei 9, 0493 OSLO" />
		<tag k="amenity" v="kindergarten" />
		<tag k="capacity" v="8" />
		<tag k="contact:website" v="http://www.Familiebarnehage.no" />
		<tag k="max_age" v="2" />
		<tag k="min_age" v="1" />
		<tag k="name" v="Hakkebakkeskogen familiebarnehage avd. Daniel Walstadsvei" />
		<tag k="no-barnehage:nsrid" v="1017631" />
		<tag k="operator" v="Hakkebakkeskogen Familiebarnehage AS" />
		<tag k="operator:type" v="private" />
	</node>
	<node id="-580" lat="59.9067" lon="10.59291">
		<tag k="ADDRESS" v="Gamle Drammensvei 70a, 1369 STABEKK" />
		<tag k="amenity" v="kindergarten" />
		<tag k="capacity" v="8" />
		<tag k="contact:website" v="http://www.Familiebarnehage.no" />
		<tag k="max_age" v="2" />
		<tag k="min_age" v="1" />
		<tag k="name" v="Nøtteliten familiebarnehager avd. Gamle Drammensvei" />
		<tag k="no-barnehage:nsrid" v="1015600" />
		<tag k="operator" v="Nøtteliten Familiebarnehager AS" />
		<tag k="operator:type" v="private" />
	</node>
	<node id="-853" lat="59.96647" lon="11.05588">
		<tag k="ADDRESS" v="Åråsveien 20d, 2007 KJELLER" />
		<tag k="amenity" v="kindergarten" />
		<tag k="capacity" v="4" />
		<tag k="max_age" v="2" />
		<tag k="min_age" v="1" />
		<tag k="name" v="Kanutten familiebarnehage Bremnes" />
		<tag k="no-barnehage:nsrid" v="1020303" />
		<tag k="operator" v="Kanutten Familiebarnehage May-Liss Peggy Bremnes" />
		<tag k="operator:type" v="private" />
	</node>
	<node id="-3065" lat="58.17735" lon="8.09646">
		<tag k="ADDRESS" v="Hveteveien 46a, 4635 KRISTIANSAND S" />
		<tag k="amenity" v="kindergarten" />
		<tag k="capacity" v="8" />
		<tag k="max_age" v="5" />
		<tag k="min_age" v="1" />
		<tag k="name" v="Åshild Ek Bråtane" />
		<tag k="no-barnehage:nsrid" v="1020855" />
		<tag k="operator" v="Åshild Ek Bråtane" />
		<tag k="operator:type" v="private" />
	</node>
	<node id="-3062" lat="58.12258" lon="7.95886">
		<tag k="ADDRESS" v="Nordre Hovedgårds Vei 3, 4621 KRISTIANSAND S" />
		<tag k="amenity" v="kindergarten" />
		<tag k="capacity" v="10" />
		<tag k="max_age" v="5" />
		<tag k="min_age" v="1" />
		<tag k="name" v="Vågsbygd familiebarnehage" />
		<tag k="no-barnehage:nsrid" v="1020160" />
		<tag k="operator" v="Vågsbygd Familiebarnehage Elin Marie Nilsen" />
		<tag k="operator:type" v="private" />
	</node>
	<node id="-2899" lat="63.37405" lon="10.3377">
		<tag k="ADDRESS" v="Øvre Flatåsveg 43a, 7079 FLATÅSEN" />
		<tag k="amenity" v="kindergarten" />
		<tag k="capacity" v="4" />
		<tag k="max_age" v="5" />
		<tag k="min_age" v="1" />
		<tag k="name" v="Nedre Flatåsen familiebarnehage Wenche Storfjord Lunde" />
		<tag k="no-barnehage:nsrid" v="1020823" />
		<tag k="operator" v="Nedre Flatåsen Familiebarnehage Wenche Storfjord Lunde" />
		<tag k="operator:type" v="private" />
	</node>
	<node id="-3056" lat="58.15141" lon="8.01903">
		<tag k="ADDRESS" v="Freyasdalsveien 25, 4631 KRISTIANSAND S" />
		<tag k="amenity" v="kindergarten" />
		<tag k="capacity" v="8" />
		<tag k="max_age" v="2" />
		<tag k="min_age" v="1" />
		<tag k="name" v="Solsikken familebarnehage" />
		<tag k="no-barnehage:nsrid" v="1017267" />
		<tag k="operator" v="Lillebo Familiebarnehage Diane Foss" />
		<tag k="operator:type" v="private" />
	</node>
	<node id="-3053" lat="58.11678" lon="7.94708">
		<tag k="ADDRESS" v="Rognelia 17, 4622 KRISTIANSAND S" />
		<tag k="amenity" v="kindergarten" />
		<tag k="capacity" v="6" />
		<tag k="max_age" v="2" />
		<tag k="min_age" v="1" />
		<tag k="name" v="Rognelia familiebarnehage" />
		<tag k="no-barnehage:nsrid" v="1020217" />
		<tag k="operator" v="Rognelia Familiebarnehage Ans" />
		<tag k="operator:type" v="private" />
	</node>
	<node id="-3051" lat="58.15738" lon="8.08064">
		<tag k="ADDRESS" v="Ronatoppen 16, 4638 KRISTIANSAND S" />
		<tag k="amenity" v="kindergarten" />
		<tag k="capacity" v="7" />
		<tag k="max_age" v="5" />
		<tag k="min_age" v="1" />
		<tag k="name" v="Portveien familiebarnehage Lene V Engdahl" />
		<tag k="no-barnehage:nsrid" v="1020766" />
		<tag k="operator" v="Portveien Familiebarnehage Lene V Engdahl" />
		<tag k="operator:type" v="private" />
	</node>
	<node id="-3048" lat="58.13081" lon="7.96259">
		<tag k="ADDRESS" v="Blørstadkollen 5, 4626 KRISTIANSAND S" />
		<tag k="amenity" v="kindergarten" />
		<tag k="capacity" v="10" />
		<tag k="max_age" v="5" />
		<tag k="min_age" v="1" />
		<tag k="name" v="Nedre Slettheia familiebarnehage Tove M Løkke Mac Connacher" />
		<tag k="no-barnehage:nsrid" v="1020926" />
		<tag k="operator" v="Nedre Slettheia Familiebarnehage Tove Mac Connacher" />
		<tag k="operator:type" v="private" />
	</node>
	<node id="-3042" lat="58.11288" lon="7.96571">
		<tag k="ADDRESS" v="Hammerstien 6, 4623 KRISTIANSAND S" />
		<tag k="amenity" v="kindergarten" />
		<tag k="capacity" v="8" />
		<tag k="max_age" v="5" />
		<tag k="min_age" v="1" />
		<tag k="name" v="Kanutten familiebarnehage" />
		<tag k="no-barnehage:nsrid" v="1015741" />
		<tag k="operator" v="Euromix Entertainment &amp; Kanutten Familiebarnehage Hayek" />
		<tag k="operator:type" v="private" />
	</node>
	<node id="-3041" lat="0.0" lon="0.0">
		<tag k="ADDRESS" v="Kalvehagen Justnes, 4634 KRISTIANSAND S" />
		<tag k="amenity" v="kindergarten" />
		<tag k="capacity" v="22" />
		<tag k="max_age" v="5" />
		<tag k="min_age" v="1" />
		<tag k="name" v="Kalvehagen familiebarnehage" />
		<tag k="no-barnehage:nsrid" v="1020908" />
		<tag k="operator" v="Kalvehagen Familiebarnehage Da" />
		<tag k="operator:type" v="private" />
	</node>
	<node id="-3031" lat="58.23044" lon="8.10179">
		<tag k="ADDRESS" v="Brattvoll Platå 33, 4658 TVEIT" />
		<tag k="amenity" v="kindergarten" />
		<tag k="capacity" v="10" />
		<tag k="max_age" v="5" />
		<tag k="min_age" v="1" />
		<tag k="name" v="Brattvolltoppen familiebarnehage" />
		<tag k="no-barnehage:nsrid" v="1020764" />
		<tag k="operator" v="Brattvolltoppen Familiebarnehage Ans" />
		<tag k="operator:type" v="private" />
	</node>
	<node id="-3026" lat="63.59258" lon="9.95564">
		<tag k="ADDRESS" v="Furuveien 2, 7100 RISSA" />
		<tag k="amenity" v="kindergarten" />
		<tag k="capacity" v="4" />
		<tag k="max_age" v="2" />
		<tag k="min_age" v="1" />
		<tag k="name" v="Årnseth familiebarnehage" />
		<tag k="no-barnehage:nsrid" v="1020663" />
		<tag k="operator" v="Årnseth Familiebarnehage Marian Langsæter" />
		<tag k="operator:type" v="private" />
	</node>
	<node id="-3023" lat="63.86704" lon="11.29553">
		<tag k="ADDRESS" v="Blåveisvegen 4, 7670 INDERØY" />
		<tag k="amenity" v="kindergarten" />
		<tag k="capacity" v="10" />
		<tag k="max_age" v="5" />
		<tag k="min_age" v="1" />
		<tag k="name" v="Inderøy familiebarnehage Tina Leinan" />
		<tag k="no-barnehage:nsrid" v="1020629" />
		<tag k="operator" v="Inderøy Familiebarnehage Tina Leinan" />
		<tag k="operator:type" v="private" />
	</node>
	<node id="-845" lat="59.95958" lon="10.98948">
		<tag k="ADDRESS" v="Skjettenveien 106b, 2013 SKJETTEN" />
		<tag k="amenity" v="kindergarten" />
		<tag k="capacity" v="10" />
		<tag k="max_age" v="5" />
		<tag k="min_age" v="1" />
		<tag k="name" v="Bitteliten familiebarnehage Trine Dahl" />
		<tag k="no-barnehage:nsrid" v="1020760" />
		<tag k="operator" v="Bitteliten Familiebarnehage Trine Dahl" />
		<tag k="operator:type" v="private" />
	</node>
	<node id="-971" lat="60.15117" lon="11.12832">
		<tag k="ADDRESS" v="Nedre Solhellinga 22b, 2067 JESSHEIM" />
		<tag k="amenity" v="kindergarten" />
		<tag k="capacity" v="10" />
		<tag k="max_age" v="5" />
		<tag k="min_age" v="1" />
		<tag k="name" v="Solstråla familiebarnehage Irene Lundeby" />
		<tag k="no-barnehage:nsrid" v="1021249" />
		<tag k="operator" v="Solstråla Familiebarnehage Irene Lundeby" />
		<tag k="operator:type" v="private" />
	</node>
	<node id="-970" lat="60.15249" lon="11.12572">
		<tag k="ADDRESS" v="Sandsvegen 13b, 2067 JESSHEIM" />
		<tag k="amenity" v="kindergarten" />
		<tag k="capacity" v="8" />
		<tag k="max_age" v="5" />
		<tag k="min_age" v="1" />
		<tag k="name" v="Sand familiebarnehage" />
		<tag k="no-barnehage:nsrid" v="1020054" />
		<tag k="operator" v="Sand Familiebarnehage" />
		<tag k="operator:type" v="private" />
	</node>
	<node id="-969" lat="60.08172" lon="11.12972">
		<tag k="ADDRESS" v="Gamlevegen 93b, 2040 KLØFTA" />
		<tag k="amenity" v="kindergarten" />
		<tag k="capacity" v="7" />
		<tag k="max_age" v="2" />
		<tag k="min_age" v="1" />
		<tag k="name" v="Rosterud familiebarnehage avd. 1" />
		<tag k="no-barnehage:nsrid" v="1015643" />
		<tag k="operator" v="Rosterud Familiebarnehage AS" />
		<tag k="operator:type" v="private" />
	</node>
	<node id="-968" lat="60.08153" lon="11.12955">
		<tag k="ADDRESS" v="Gamlevegen 93c, 2040 KLØFTA" />
		<tag k="amenity" v="kindergarten" />
		<tag k="capacity" v="5" />
		<tag k="max_age" v="5" />
		<tag k="min_age" v="1" />
		<tag k="name" v="Rosterud familiebarnehage avd. 2" />
		<tag k="no-barnehage:nsrid" v="1013481" />
		<tag k="operator" v="Rosterud Familiebarnehage AS" />
		<tag k="operator:type" v="private" />
	</node>
	<node id="-967" lat="60.14662" lon="11.1571">
		<tag k="ADDRESS" v="Hagavegen 27, 2066 JESSHEIM" />
		<tag k="amenity" v="kindergarten" />
		<tag k="capacity" v="8" />
		<tag k="max_age" v="2" />
		<tag k="min_age" v="1" />
		<tag k="name" v="Rosenlund familiebarnehage" />
		<tag k="no-barnehage:nsrid" v="1020651" />
		<tag k="operator" v="Rosenlund Familiebarnehage Bronwyn Picot" />
		<tag k="operator:type" v="private" />
	</node>
	<node id="-3013" lat="0.0" lon="0.0">
		<tag k="ADDRESS" v=", 7760 SNÅSA" />
		<tag k="amenity" v="kindergarten" />
		<tag k="capacity" v="4" />
		<tag k="max_age" v="2" />
		<tag k="min_age" v="1" />
		<tag k="name" v="Lillemarka familiebarnehage" />
		<tag k="no-barnehage:nsrid" v="1020521" />
		<tag k="operator" v="Laila Saur" />
		<tag k="operator:type" v="private" />
	</node>
	<node id="-3006" lat="63.48188" lon="10.97334">
		<tag k="ADDRESS" v="Malmtunet 4, 7509 STJØRDAL" />
		<tag k="amenity" v="kindergarten" />
		<tag k="capacity" v="4" />
		<tag k="max_age" v="5" />
		<tag k="min_age" v="1" />
		<tag k="name" v="Trollskogen familiebarnehage" />
		<tag k="no-barnehage:nsrid" v="1020701" />
		<tag k="operator" v="Margrethe Borgsø" />
		<tag k="operator:type" v="private" />
	</node>
	<node id="-3003" lat="63.48135" lon="10.96957">
		<tag k="ADDRESS" v="Malmtunet 15, 7509 STJØRDAL" />
		<tag k="amenity" v="kindergarten" />
		<tag k="capacity" v="4" />
		<tag k="max_age" v="5" />
		<tag k="min_age" v="1" />
		<tag k="name" v="Lasseliten familiebarnehage Siritun" />
		<tag k="no-barnehage:nsrid" v="1020622" />
		<tag k="operator" v="Malmtunet Familiebarnehage avd Siritun Ann-Siri Koen" />
		<tag k="operator:type" v="private" />
	</node>
	<node id="-3001" lat="63.4588" lon="10.96569">
		<tag k="ADDRESS" v="Hognesaunvegen 60, 7513 STJØRDAL" />
		<tag k="amenity" v="kindergarten" />
		<tag k="capacity" v="4" />
		<tag k="max_age" v="2" />
		<tag k="min_age" v="1" />
		<tag k="name" v="Eventyrskogen familiebarnehage Hans og Grete" />
		<tag k="no-barnehage:nsrid" v="1020830" />
		<tag k="operator" v="Kari Skulbørstad" />
		<tag k="operator:type" v="private" />
	</node>
	<node id="-940" lat="60.06873" lon="11.12633">
		<tag k="ADDRESS" v="Statframvegen 1, 2040 KLØFTA" />
		<tag k="amenity" v="kindergarten" />
		<tag k="capacity" v="5" />
		<tag k="contact:website" v="http://www.kongletoppen-bhg.no" />
		<tag k="max_age" v="5" />
		<tag k="min_age" v="1" />
		<tag k="name" v="Hakkebakkeskogen familiebarnehage" />
		<tag k="no-barnehage:nsrid" v="1021912" />
		<tag k="operator" v="Pedersens Familiebarnehage Avd. Statframveien" />
		<tag k="operator:type" v="private" />
	</node>
	<node id="-939" lat="60.15407" lon="11.17669">
		<tag k="ADDRESS" v="Nordbyvegen 18, 2069 JESSHEIM" />
		<tag k="amenity" v="kindergarten" />
		<tag k="capacity" v="10" />
		<tag k="max_age" v="5" />
		<tag k="min_age" v="1" />
		<tag k="name" v="Gullungen familiebarnehage" />
		<tag k="no-barnehage:nsrid" v="1020170" />
		<tag k="operator" v="Gullungen Familiebarnehage avd Nordbyveien Marian Vårdal" />
		<tag k="operator:type" v="private" />
	</node>
	<node id="-937" lat="60.12173" lon="11.25455">
		<tag k="ADDRESS" v="Skedsmovegen 131, 2056 ALGARHEIM" />
		<tag k="amenity" v="kindergarten" />
		<tag k="capacity" v="7" />
		<tag k="max_age" v="5" />
		<tag k="min_age" v="1" />
		<tag k="name" v="Ekornrud gårds-familiebarnehage Trine Glitre Skedsmo" />
		<tag k="no-barnehage:nsrid" v="1020125" />
		<tag k="operator" v="Ekornrud Gårds-Familiebarnehage Trine Glitre Skedsmo" />
		<tag k="operator:type" v="private" />
	</node>
	<node id="-935" lat="60.06558" lon="11.12011">
		<tag k="ADDRESS" v="Hilton 144, 2040 KLØFTA" />
		<tag k="amenity" v="kindergarten" />
		<tag k="capacity" v="5" />
		<tag k="max_age" v="5" />
		<tag k="min_age" v="1" />
		<tag k="name" v="Charlotte Pedersens familiebarnehag" />
		<tag k="no-barnehage:nsrid" v="1021793" />
		<tag k="operator" v="Pedersens Familiebarnehage Avd. Hilton" />
		<tag k="operator:type" v="private" />
	</node>
	<node id="-933" lat="60.13567" lon="11.19052">
		<tag k="ADDRESS" v="Kongletoppen 34, 2053 JESSHEIM" />
		<tag k="amenity" v="kindergarten" />
		<tag k="capacity" v="5" />
		<tag k="max_age" v="5" />
		<tag k="min_age" v="1" />
		<tag k="name" v="Barnehage- og Vaktmester- Tjenester" />
		<tag k="no-barnehage:nsrid" v="1020670" />
		<tag k="operator" v="Barnehage- og Vaktmester- Tjenester AS" />
		<tag k="operator:type" v="private" />
	</node>
	<node id="-932" lat="60.06612" lon="11.13915">
		<tag k="ADDRESS" v="Bakkevegen 4, 2040 KLØFTA" />
		<tag k="amenity" v="kindergarten" />
		<tag k="capacity" v="5" />
		<tag k="max_age" v="5" />
		<tag k="min_age" v="1" />
		<tag k="name" v="Bakkeveien familiebarnehage" />
		<tag k="no-barnehage:nsrid" v="1022357" />
		<tag k="operator" v="Pedersens Familiebarnehage Avd. Bakke" />
		<tag k="operator:type" v="private" />
	</node>
	<node id="-927" lat="60.07949" lon="11.07761">
		<tag k="ADDRESS" v="Gjerivegen 80, 2022 GJERDRUM" />
		<tag k="amenity" v="kindergarten" />
		<tag k="capacity" v="10" />
		<tag k="max_age" v="5" />
		<tag k="min_age" v="1" />
		<tag k="name" v="Hoelstoppen familiebarnehager Tove Olstad" />
		<tag k="no-barnehage:nsrid" v="1020571" />
		<tag k="operator" v="Hoelstoppen Familiebarnehager Tove Olstad" />
		<tag k="operator:type" v="private" />
	</node>
	<node id="-922" lat="60.07749" lon="11.00232">
		<tag k="ADDRESS" v="Fjellvegen 14, 2022 GJERDRUM" />
		<tag k="amenity" v="kindergarten" />
		<tag k="capacity" v="4" />
		<tag k="max_age" v="5" />
		<tag k="min_age" v="1" />
		<tag k="name" v="Ekornstua familiebarnehage Anne Sundstu" />
		<tag k="no-barnehage:nsrid" v="1022026" />
		<tag k="operator" v="Ekornstua Familiebarnehage Anne Sundstu" />
		<tag k="operator:type" v="private" />
	</node>
	<node id="-2964" lat="0.0" lon="0.0">
		<tag k="ADDRESS" v="Stormo, 4934 NES VERK" />
		<tag k="amenity" v="kindergarten" />
		<tag k="capacity" v="4" />
		<tag k="max_age" v="5" />
		<tag k="min_age" v="1" />
		<tag k="name" v="Stormo familiebarnehage" />
		<tag k="no-barnehage:nsrid" v="1020339" />
		<tag k="operator" v="Grethe Hovland Stormo Familiebarnehage" />
		<tag k="operator:type" v="private" />
	</node>
	<node id="-2963" lat="0.0" lon="0.0">
		<tag k="ADDRESS" v="Napen, 4934 NES VERK" />
		<tag k="amenity" v="kindergarten" />
		<tag k="capacity" v="3" />
		<tag k="max_age" v="5" />
		<tag k="min_age" v="1" />
		<tag k="name" v="Napen familiebarnehage" />
		<tag k="no-barnehage:nsrid" v="1020142" />
		<tag k="operator" v="Napen Familiebarnehage Ingunn Nodland" />
		<tag k="operator:type" v="private" />
	</node>
	<node id="-2958" lat="64.46961" lon="11.50222">
		<tag k="ADDRESS" v="Eidsvolds Gate 1, 7803 NAMSOS" />
		<tag k="amenity" v="kindergarten" />
		<tag k="capacity" v="7" />
		<tag k="max_age" v="2" />
		<tag k="min_age" v="1" />
		<tag k="name" v="Snippen familiebarnehage" />
		<tag k="no-barnehage:nsrid" v="1020182" />
		<tag k="operator" v="Snippen Familiebarnehage AS" />
		<tag k="operator:type" v="private" />
	</node>
	<node id="-2951" lat="64.02122" lon="11.54056">
		<tag k="ADDRESS" v="Risgropa 18, 7716 STEINKJER" />
		<tag k="amenity" v="kindergarten" />
		<tag k="capacity" v="8" />
		<tag k="max_age" v="2" />
		<tag k="min_age" v="1" />
		<tag k="name" v="Risgropa familiebarnehage" />
		<tag k="no-barnehage:nsrid" v="1020957" />
		<tag k="operator" v="Karin Wahl Oldren" />
		<tag k="operator:type" v="private" />
	</node>
	<node id="-883" lat="59.95678" lon="11.01885">
		<tag k="ADDRESS" v="Strømsveien 144b, 1466 STRØMMEN" />
		<tag k="amenity" v="kindergarten" />
		<tag k="capacity" v="4" />
		<tag k="max_age" v="2" />
		<tag k="min_age" v="1" />
		<tag k="name" v="Svanen familie barnehage Mahnaz Hosseini" />
		<tag k="no-barnehage:nsrid" v="1020349" />
		<tag k="operator" v="Svanen Familie barnehage Mahnaz Hosseini" />
		<tag k="operator:type" v="private" />
	</node>
	<node id="-881" lat="59.95658" lon="11.02328">
		<tag k="ADDRESS" v="Kroken 16, 1466 STRØMMEN" />
		<tag k="amenity" v="kindergarten" />
		<tag k="capacity" v="4" />
		<tag k="max_age" v="2" />
		<tag k="min_age" v="1" />
		<tag k="name" v="Stalsberg familiebarnehage Tott" />
		<tag k="no-barnehage:nsrid" v="1021325" />
		<tag k="operator" v="Stalsberg Fam. barnehage Avd. Tott Anne Karin Fredheim" />
		<tag k="operator:type" v="private" />
	</node>
	<node id="-878" lat="59.95733" lon="10.9922">
		<tag k="ADDRESS" v="Hellaveien 21b, 2013 SKJETTEN" />
		<tag k="amenity" v="kindergarten" />
		<tag k="capacity" v="4" />
		<tag k="max_age" v="2" />
		<tag k="min_age" v="1" />
		<tag k="name" v="Sesam familiebarnehage avd. Pelikan Naziha Nouri" />
		<tag k="no-barnehage:nsrid" v="1021171" />
		<tag k="operator" v="Sesam Familiebarnehage Avd. Pelikan Naziha Nouri" />
		<tag k="operator:type" v="private" />
	</node>
	<node id="-2925" lat="63.34393" lon="10.36376">
		<tag k="ADDRESS" v="Sandbakkvegen 52, 7072 HEIMDAL" />
		<tag k="amenity" v="kindergarten" />
		<tag k="capacity" v="9" />
		<tag k="max_age" v="5" />
		<tag k="min_age" v="1" />
		<tag k="name" v="Vindheim familiebarnehage Rita Soleim Lernes" />
		<tag k="no-barnehage:nsrid" v="1020887" />
		<tag k="operator" v="Vindheim Familiebarnehage Rita Soleim Lernes" />
		<tag k="operator:type" v="private" />
	</node>
	<node id="-876" lat="59.96748" lon="10.99677">
		<tag k="ADDRESS" v="Glostrupveien 13, 2013 SKJETTEN" />
		<tag k="amenity" v="kindergarten" />
		<tag k="capacity" v="4" />
		<tag k="max_age" v="2" />
		<tag k="min_age" v="1" />
		<tag k="name" v="Rosenknoppen familiebarnehage" />
		<tag k="no-barnehage:nsrid" v="1020652" />
		<tag k="operator" v="Hundremeterskogen Familiebarnehage, avd Rosenknoppen, Mette Helen Haugen Johnsen" />
		<tag k="operator:type" v="private" />
	</node>
	<node id="-874" lat="59.94157" lon="11.01452">
		<tag k="ADDRESS" v="Gamle Strømsvei 13, 1467 STRØMMEN" />
		<tag k="amenity" v="kindergarten" />
		<tag k="capacity" v="10" />
		<tag k="max_age" v="5" />
		<tag k="min_age" v="1" />
		<tag k="name" v="Portveien familiebarnehage" />
		<tag k="no-barnehage:nsrid" v="1020844" />
		<tag k="operator" v="Portveien Familiebarnehage AS" />
		<tag k="operator:type" v="private" />
	</node>
	<node id="-2916" lat="63.43324" lon="10.58622">
		<tag k="ADDRESS" v="Væretrøa 122, 7055 RANHEIM" />
		<tag k="amenity" v="kindergarten" />
		<tag k="capacity" v="8" />
		<tag k="max_age" v="5" />
		<tag k="min_age" v="1" />
		<tag k="name" v="Solstrålen familiebarnehage Ann Kristin Olderskog" />
		<tag k="no-barnehage:nsrid" v="1020927" />
		<tag k="operator" v="Solstrålen Familiebarnehage Ann Kristin Olderskog" />
		<tag k="operator:type" v="private" />
	</node>
	<node id="-862" lat="59.97128" lon="11.05426">
		<tag k="ADDRESS" v="Bregneveien 26, 2007 KJELLER" />
		<tag k="amenity" v="kindergarten" />
		<tag k="capacity" v="8" />
		<tag k="max_age" v="2" />
		<tag k="min_age" v="1" />
		<tag k="name" v="Lille Krabat familiebarnehage avd. Kjeller" />
		<tag k="no-barnehage:nsrid" v="1015745" />
		<tag k="operator" v="Lille Krabat Aina Lie" />
		<tag k="operator:type" v="private" />
	</node>
	<node id="-856" lat="59.95792" lon="11.06381">
		<tag k="ADDRESS" v="Jølsengata 19, 2004 LILLESTRØM" />
		<tag k="amenity" v="kindergarten" />
		<tag k="capacity" v="4" />
		<tag k="contact:website" v="http://www.facebook.com/search/top/?q=mariannes%20knerten%20familiebarnehage" />
		<tag k="max_age" v="2" />
		<tag k="min_age" v="1" />
		<tag k="name" v="Knerten familiebarnehage" />
		<tag k="no-barnehage:nsrid" v="1020822" />
		<tag k="operator" v="Knerten Familiebarnehage Marianne Worren" />
		<tag k="operator:type" v="private" />
	</node>
	<node id="-2901" lat="63.41338" lon="10.53657">
		<tag k="ADDRESS" v="Markaplassen 3, 7054 RANHEIM" />
		<tag k="amenity" v="kindergarten" />
		<tag k="capacity" v="5" />
		<tag k="max_age" v="5" />
		<tag k="min_age" v="1" />
		<tag k="name" v="Nydammen familiebarnehage" />
		<tag k="no-barnehage:nsrid" v="1020735" />
		<tag k="operator" v="Nydammen Familiebarne Hege Skylstad Dahl" />
		<tag k="operator:type" v="private" />
	</node>
	<node id="-851" lat="59.95402" lon="10.98457">
		<tag k="ADDRESS" v="Hellaveien 71, 2013 SKJETTEN" />
		<tag k="amenity" v="kindergarten" />
		<tag k="capacity" v="4" />
		<tag k="contact:website" v="http://www.borgersen.biz" />
		<tag k="max_age" v="2" />
		<tag k="min_age" v="1" />
		<tag k="name" v="Hakkebakkeskogen familiebarnehage Elisabeth Borgersen" />
		<tag k="no-barnehage:nsrid" v="1021313" />
		<tag k="operator" v="Hakkebakkeskogen Familiebarnehage Elisabeth Borgersen" />
		<tag k="operator:type" v="private" />
	</node>
	<node id="-2893" lat="63.43127" lon="10.36799">
		<tag k="ADDRESS" v="Mellomila 34, 7018 TRONDHEIM" />
		<tag k="amenity" v="kindergarten" />
		<tag k="capacity" v="8" />
		<tag k="max_age" v="2" />
		<tag k="min_age" v="1" />
		<tag k="name" v="Mellomila familiebarnehage og Progressiv Institutt" />
		<tag k="no-barnehage:nsrid" v="1020884" />
		<tag k="operator" v="Mellomila Familiebarnehage og Progressiv Institutt AS" />
		<tag k="operator:type" v="private" />
	</node>
	<node id="-2891" lat="63.37281" lon="10.53982">
		<tag k="ADDRESS" v="Engelsåsvegen 343, 7039 TRONDHEIM" />
		<tag k="amenity" v="kindergarten" />
		<tag k="capacity" v="9" />
		<tag k="max_age" v="5" />
		<tag k="min_age" v="1" />
		<tag k="name" v="Løkka familiebarnehage Grete Mortensen" />
		<tag k="no-barnehage:nsrid" v="1020330" />
		<tag k="operator" v="Løkka Familiebarnehage Grete Mortensen" />
		<tag k="operator:type" v="private" />
	</node>
	<node id="-2889" lat="63.414" lon="10.53826">
		<tag k="ADDRESS" v="Markaplassen 13, 7054 RANHEIM" />
		<tag k="amenity" v="kindergarten" />
		<tag k="capacity" v="9" />
		<tag k="max_age" v="5" />
		<tag k="min_age" v="1" />
		<tag k="name" v="Lekeplassen familiebarnehage" />
		<tag k="no-barnehage:nsrid" v="1020660" />
		<tag k="operator" v="Lekeplassen Familiebarnehage Nina Antonsen" />
		<tag k="operator:type" v="private" />
	</node>
	<node id="-1164" lat="59.91558" lon="10.64007">
		<tag k="ADDRESS" v="Kirkehaugsveien 6b, 0283 OSLO" />
		<tag k="amenity" v="kindergarten" />
		<tag k="capacity" v="4" />
		<tag k="max_age" v="2" />
		<tag k="min_age" v="1" />
		<tag k="name" v="Englegården familiebarnehage" />
		<tag k="no-barnehage:nsrid" v="1018387" />
		<tag k="operator" v="Amigos barnehage Limited" />
		<tag k="operator:type" v="private" />
	</node>
	<node id="-835" lat="59.92652" lon="10.95241">
		<tag k="ADDRESS" v="Ragnhilds Vei 2a, 1473 LØRENSKOG" />
		<tag k="amenity" v="kindergarten" />
		<tag k="capacity" v="4" />
		<tag k="max_age" v="5" />
		<tag k="min_age" v="1" />
		<tag k="name" v="Solheim familiebarnehage" />
		<tag k="no-barnehage:nsrid" v="1020352" />
		<tag k="operator" v="Solheim Familiebarnehage Nr 2 Monica Ellefsen" />
		<tag k="operator:type" v="private" />
	</node>
	<node id="-2882" lat="63.41506" lon="10.48982">
		<tag k="ADDRESS" v="Alv Schiefloes Veg 23, 7058 JAKOBSLI" />
		<tag k="amenity" v="kindergarten" />
		<tag k="capacity" v="4" />
		<tag k="max_age" v="2" />
		<tag k="min_age" v="1" />
		<tag k="name" v="Jakobsli familiebarnehage Sissel Grøthe" />
		<tag k="no-barnehage:nsrid" v="1020856" />
		<tag k="operator" v="Jakobsli Familiebarnehage Sissel Grøthe" />
		<tag k="operator:type" v="private" />
	</node>
	<node id="-833" lat="59.91991" lon="10.96181">
		<tag k="ADDRESS" v="Løkenkollen 13, 1473 LØRENSKOG" />
		<tag k="amenity" v="kindergarten" />
		<tag k="capacity" v="4" />
		<tag k="max_age" v="2" />
		<tag k="min_age" v="1" />
		<tag k="name" v="Småknøttene familiebarnehage" />
		<tag k="no-barnehage:nsrid" v="1021028" />
		<tag k="operator" v="Småknøttene Familiebarnehage Cathrine Stokmann Solberg" />
		<tag k="operator:type" v="private" />
	</node>
	<node id="-826" lat="59.93756" lon="10.96085">
		<tag k="ADDRESS" v="Myrveien 9, 1470 LØRENSKOG" />
		<tag k="amenity" v="kindergarten" />
		<tag k="capacity" v="4" />
		<tag k="max_age" v="2" />
		<tag k="min_age" v="1" />
		<tag k="name" v="Lørenskog familiebarnehage" />
		<tag k="no-barnehage:nsrid" v="1020757" />
		<tag k="operator" v="Lørenskog Familiebarnehage Anne Grethe Solheim Varga" />
		<tag k="operator:type" v="private" />
	</node>
	<node id="-2873" lat="63.35878" lon="10.3589">
		<tag k="ADDRESS" v="Brudalsvegen 17e, 7088 HEIMDAL" />
		<tag k="amenity" v="kindergarten" />
		<tag k="capacity" v="4" />
		<tag k="max_age" v="2" />
		<tag k="min_age" v="1" />
		<tag k="name" v="Brudalstunet familiebarnehage" />
		<tag k="no-barnehage:nsrid" v="1020831" />
		<tag k="operator" v="Ann Iren Solberg" />
		<tag k="operator:type" v="private" />
	</node>
	<node id="-2868" lat="63.35966" lon="10.36938">
		<tag k="ADDRESS" v="Jarveien 46, 7072 HEIMDAL" />
		<tag k="amenity" v="kindergarten" />
		<tag k="capacity" v="9" />
		<tag k="max_age" v="5" />
		<tag k="min_age" v="1" />
		<tag k="name" v="Bamsehiet familiebarnehage" />
		<tag k="no-barnehage:nsrid" v="1020959" />
		<tag k="operator" v="Bamsehiet Familiebarnehage Da" />
		<tag k="operator:type" v="private" />
	</node>
	<node id="-822" lat="59.92599" lon="10.95015">
		<tag k="ADDRESS" v="Torbjørns Vei 23, 1473 LØRENSKOG" />
		<tag k="amenity" v="kindergarten" />
		<tag k="capacity" v="8" />
		<tag k="max_age" v="2" />
		<tag k="min_age" v="1" />
		<tag k="name" v="Luna familiebarnehage avd. Skårer" />
		<tag k="no-barnehage:nsrid" v="2000100" />
		<tag k="operator" v="Luna Familiebarnehage V/helle Slott Hitchinson" />
		<tag k="operator:type" v="private" />
	</node>
	<node id="-821" lat="59.94728" lon="10.9886">
		<tag k="ADDRESS" v="Fridtjof Nansens Vei 69, 1464 " />
		<tag k="amenity" v="kindergarten" />
		<tag k="capacity" v="8" />
		<tag k="max_age" v="2" />
		<tag k="min_age" v="1" />
		<tag k="name" v="Luna familiebarnehage avd. Fjellhamar" />
		<tag k="no-barnehage:nsrid" v="1021257" />
		<tag k="operator" v="Luna Familiebarnehage V/helle Slott Hitchinson" />
		<tag k="operator:type" v="private" />
	</node>
	<node id="-820" lat="59.94734" lon="10.98954">
		<tag k="ADDRESS" v="Fridtjof Nansens Vei 73, 1464 " />
		<tag k="amenity" v="kindergarten" />
		<tag k="capacity" v="4" />
		<tag k="max_age" v="2" />
		<tag k="min_age" v="1" />
		<tag k="name" v="Lille Stjerne familiebarnehage" />
		<tag k="no-barnehage:nsrid" v="1021338" />
		<tag k="operator" v="Lille Stjerne Familiebarnehage Elizabeth Myhre Berntzen" />
		<tag k="operator:type" v="private" />
	</node>
	<node id="-2867" lat="63.34663" lon="10.36336">
		<tag k="ADDRESS" v="Alf Johansens Vei 37a, 7072 HEIMDAL" />
		<tag k="amenity" v="kindergarten" />
		<tag k="capacity" v="4" />
		<tag k="max_age" v="2" />
		<tag k="min_age" v="1" />
		<tag k="name" v="Bambi familiebarnehage Didovic" />
		<tag k="no-barnehage:nsrid" v="1020564" />
		<tag k="operator" v="Bambi Familiebarnehage Didovic" />
		<tag k="operator:type" v="private" />
	</node>
	<node id="-819" lat="59.93969" lon="10.95734">
		<tag k="ADDRESS" v="Fjellveien 2, 1470 LØRENSKOG" />
		<tag k="amenity" v="kindergarten" />
		<tag k="capacity" v="4" />
		<tag k="max_age" v="2" />
		<tag k="min_age" v="1" />
		<tag k="name" v="Langgrunna private familiebarnehage" />
		<tag k="no-barnehage:nsrid" v="1021074" />
		<tag k="operator" v="Langgrunna Familie barnehage Emine Bitmez" />
		<tag k="operator:type" v="private" />
	</node>
	<node id="-816" lat="59.91363" lon="10.95999">
		<tag k="ADDRESS" v="Finstadsletta 31, 1475 FINSTADJORDET" />
		<tag k="amenity" v="kindergarten" />
		<tag k="capacity" v="4" />
		<tag k="max_age" v="2" />
		<tag k="min_age" v="1" />
		<tag k="name" v="Kløverhagen familiebarnehage 2 Inger Elisabeth Bjørnsrud Olaussen" />
		<tag k="no-barnehage:nsrid" v="1021477" />
		<tag k="operator" v="Kløverhagen Familiebarnehage 2 Inger Elisabeth Bjørnsrud Olaussen" />
		<tag k="operator:type" v="private" />
	</node>
	<node id="-815" lat="59.91586" lon="10.96758">
		<tag k="ADDRESS" v="Kløverveien 48, 1475 FINSTADJORDET" />
		<tag k="amenity" v="kindergarten" />
		<tag k="capacity" v="4" />
		<tag k="max_age" v="2" />
		<tag k="min_age" v="1" />
		<tag k="name" v="Kløverhagen 1 Eva Maritha Stolp Olaussen" />
		<tag k="no-barnehage:nsrid" v="1020787" />
		<tag k="operator" v="Kløverhagen 1 Eva Maritha Stolp Olaussen" />
		<tag k="operator:type" v="private" />
	</node>
	<node id="-811" lat="59.91529" lon="10.9288">
		<tag k="ADDRESS" v="Sønnaveien 59, 1476 RASTA" />
		<tag k="amenity" v="kindergarten" />
		<tag k="capacity" v="4" />
		<tag k="max_age" v="2" />
		<tag k="min_age" v="1" />
		<tag k="name" v="Hundremeterskogen familiebarnehage" />
		<tag k="no-barnehage:nsrid" v="1020354" />
		<tag k="operator" v="Hundremeterskogen Familiebarnehage avd Ole Brum Eva Fougli Holmsen" />
		<tag k="operator:type" v="private" />
	</node>
	<node id="-810" lat="59.91991" lon="10.96181">
		<tag k="ADDRESS" v="Løkenkollen 13, 1473 LØRENSKOG" />
		<tag k="amenity" v="kindergarten" />
		<tag k="capacity" v="4" />
		<tag k="max_age" v="2" />
		<tag k="min_age" v="1" />
		<tag k="name" v="Gülserens familiebarnehage" />
		<tag k="no-barnehage:nsrid" v="1021522" />
		<tag k="operator" v="Gülserens Familiebarnehage Gülseren Køkyer" />
		<tag k="operator:type" v="private" />
	</node>
	<node id="-799" lat="59.94456" lon="10.9459">
		<tag k="ADDRESS" v="Høybråtenveien 144, 1470 LØRENSKOG" />
		<tag k="amenity" v="kindergarten" />
		<tag k="capacity" v="8" />
		<tag k="max_age" v="2" />
		<tag k="min_age" v="1" />
		<tag k="name" v="Bambi familiebarnehage" />
		<tag k="no-barnehage:nsrid" v="1020754" />
		<tag k="operator" v="Bambi privat Familiebarnehage Avd.1 Songyl Kisin" />
		<tag k="operator:type" v="private" />
	</node>
	<node id="-2863" lat="58.39733" lon="8.64525">
		<tag k="ADDRESS" v="Nedre Tøra 22, 4885 GRIMSTAD" />
		<tag k="amenity" v="kindergarten" />
		<tag k="capacity" v="8" />
		<tag k="max_age" v="5" />
		<tag k="min_age" v="1" />
		<tag k="name" v="Tøra familiebarnehage Ingunn Steine" />
		<tag k="no-barnehage:nsrid" v="1020850" />
		<tag k="operator" v="Tøra Familiebarnehage V/ingunn Steine" />
		<tag k="operator:type" v="private" />
	</node>
	<node id="-2835" lat="59.56329" lon="9.23986">
		<tag k="ADDRESS" v="Nord-Tinnesvegen 11, 3675 NOTODDEN" />
		<tag k="amenity" v="kindergarten" />
		<tag k="capacity" v="5" />
		<tag k="max_age" v="5" />
		<tag k="min_age" v="3" />
		<tag k="name" v="Mari Beitnes" />
		<tag k="no-barnehage:nsrid" v="1020382" />
		<tag k="operator" v="Mari Beitnes" />
		<tag k="operator:type" v="private" />
	</node>
	<node id="-2831" lat="59.19728" lon="9.57061">
		<tag k="ADDRESS" v="Varpevegen 46, 3728 SKIEN" />
		<tag k="amenity" v="kindergarten" />
		<tag k="capacity" v="8" />
		<tag k="max_age" v="5" />
		<tag k="min_age" v="1" />
		<tag k="name" v="Varpet familiebarnehage" />
		<tag k="no-barnehage:nsrid" v="1020684" />
		<tag k="operator" v="Varpet Familiebarnehage Ans" />
		<tag k="operator:type" v="private" />
	</node>
	<node id="-764" lat="59.94135" lon="11.05293">
		<tag k="ADDRESS" v="Prost Refsums Veg 7, 2005 RÆLINGEN" />
		<tag k="amenity" v="kindergarten" />
		<tag k="capacity" v="8" />
		<tag k="max_age" v="2" />
		<tag k="min_age" v="1" />
		<tag k="name" v="Bjørnehi private familiebarnehage Leonora Hasani" />
		<tag k="no-barnehage:nsrid" v="1021455" />
		<tag k="operator" v="Bjørnehi Private Familiebarnehage Leonora Hasani" />
		<tag k="operator:type" v="private" />
	</node>
	<node id="-2809" lat="59.3582" lon="10.2514">
		<tag k="ADDRESS" v="Brårveien 187, 3175 RAMNES" />
		<tag k="amenity" v="kindergarten" />
		<tag k="capacity" v="9" />
		<tag k="contact:website" v="http://smittogsmulefamiliebarnehage.no" />
		<tag k="max_age" v="5" />
		<tag k="min_age" v="1" />
		<tag k="name" v="Smitt og Smule familiebarnehage Janne Kihle" />
		<tag k="no-barnehage:nsrid" v="1021340" />
		<tag k="operator" v="Smitt og Smule Familiebarnehage Janne Kihle" />
		<tag k="operator:type" v="private" />
	</node>
	<node id="-2805" lat="59.41267" lon="10.28127">
		<tag k="ADDRESS" v="Brekkeåsveien 20, 3178 VÅLE" />
		<tag k="amenity" v="kindergarten" />
		<tag k="capacity" v="9" />
		<tag k="max_age" v="5" />
		<tag k="min_age" v="1" />
		<tag k="name" v="Ole Brumm familiebarnehage Eirik Silseth" />
		<tag k="no-barnehage:nsrid" v="1021673" />
		<tag k="operator" v="Ole Brumm Familiebarnehage Eirik Silseth" />
		<tag k="operator:type" v="private" />
	</node>
	<node id="-2803" lat="59.41328" lon="10.28055">
		<tag k="ADDRESS" v="Brekkeåsveien 28, 3178 VÅLE" />
		<tag k="amenity" v="kindergarten" />
		<tag k="capacity" v="10" />
		<tag k="max_age" v="5" />
		<tag k="min_age" v="1" />
		<tag k="name" v="Knerten familiebarnehage" />
		<tag k="no-barnehage:nsrid" v="1020444" />
		<tag k="operator" v="Bente Strøm'S Familiebarnehage" />
		<tag k="operator:type" v="private" />
	</node>
	<node id="-753" lat="59.93874" lon="11.2128">
		<tag k="ADDRESS" v="Varsjøveien 38, 1900 FETSUND" />
		<tag k="amenity" v="kindergarten" />
		<tag k="capacity" v="8" />
		<tag k="max_age" v="2" />
		<tag k="min_age" v="1" />
		<tag k="name" v="Engebakken familiebarnehage" />
		<tag k="no-barnehage:nsrid" v="1020852" />
		<tag k="operator" v="Engebakken Familiebarnehage Da" />
		<tag k="operator:type" v="private" />
	</node>
	<node id="-2799" lat="59.52864" lon="10.0776">
		<tag k="ADDRESS" v="Grindaveien 5, 3090 HOF" />
		<tag k="amenity" v="kindergarten" />
		<tag k="capacity" v="10" />
		<tag k="max_age" v="5" />
		<tag k="min_age" v="1" />
		<tag k="name" v="Rakkerungen familiebarnehage" />
		<tag k="no-barnehage:nsrid" v="1021763" />
		<tag k="operator" v="Rakkerungen Familiebarnehage AS" />
		<tag k="operator:type" v="private" />
	</node>
	<node id="-749" lat="60.02565" lon="11.06659">
		<tag k="ADDRESS" v="Skarstubben 11, 2016 FROGNER" />
		<tag k="amenity" v="kindergarten" />
		<tag k="capacity" v="5" />
		<tag k="contact:website" v="http://sfbh.mamutweb.com/" />
		<tag k="max_age" v="5" />
		<tag k="min_age" v="1" />
		<tag k="name" v="Skarstubben familiebarnehage Ann-charlott Slaaen" />
		<tag k="no-barnehage:nsrid" v="1020508" />
		<tag k="operator" v="Skarstubben Familiebarnehage Ann-Charlott Slaaen" />
		<tag k="operator:type" v="private" />
	</node>
	<node id="-740" lat="0.0" lon="0.0">
		<tag k="ADDRESS" v="Viggernesv, 1925 BLAKER" />
		<tag k="amenity" v="kindergarten" />
		<tag k="capacity" v="11" />
		<tag k="max_age" v="5" />
		<tag k="min_age" v="1" />
		<tag k="name" v="Jensrud gårdsbarnehage" />
		<tag k="no-barnehage:nsrid" v="1020485" />
		<tag k="operator" v="Jensrud Gårdsbarnehage" />
		<tag k="operator:type" v="private" />
	</node>
	<node id="-731" lat="60.01653" lon="11.1528">
		<tag k="ADDRESS" v="Birkelyveien 5a, 2016 FROGNER" />
		<tag k="amenity" v="kindergarten" />
		<tag k="capacity" v="10" />
		<tag k="max_age" v="5" />
		<tag k="min_age" v="1" />
		<tag k="name" v="100-meterskogen" />
		<tag k="no-barnehage:nsrid" v="1021123" />
		<tag k="operator" v="Hundremeterskogen Familiebarnehage Borgaard" />
		<tag k="operator:type" v="private" />
	</node>
	<node id="-2759" lat="59.09261" lon="10.10328">
		<tag k="ADDRESS" v="Hemsvingen 2, 3270 LARVIK" />
		<tag k="amenity" v="kindergarten" />
		<tag k="capacity" v="10" />
		<tag k="max_age" v="5" />
		<tag k="min_age" v="1" />
		<tag k="name" v="Stensby Lillefot familiebarnehage Hilde Olsen Stensby" />
		<tag k="no-barnehage:nsrid" v="1022100" />
		<tag k="operator" v="Stensby Lillefot Familiebarnehage V/ Hilde Olsen Stensby" />
		<tag k="operator:type" v="private" />
	</node>
	<node id="-706" lat="59.79919" lon="10.48606">
		<tag k="ADDRESS" v="Råengveien 3a, 1390 VOLLEN" />
		<tag k="amenity" v="kindergarten" />
		<tag k="capacity" v="2" />
		<tag k="max_age" v="2" />
		<tag k="min_age" v="1" />
		<tag k="name" v="Vollen familiebarnehage" />
		<tag k="no-barnehage:nsrid" v="1021290" />
		<tag k="operator" v="Vollen Familiebarnehage Linda Cecilie Elverum Keyn" />
		<tag k="operator:type" v="private" />
	</node>
	<node id="-2741" lat="59.09105" lon="10.09896">
		<tag k="ADDRESS" v="Gamle Ravei 154, 3270 LARVIK" />
		<tag k="amenity" v="kindergarten" />
		<tag k="capacity" v="4" />
		<tag k="max_age" v="5" />
		<tag k="min_age" v="1" />
		<tag k="name" v="Heffalompen familiebarnehage Ann Christin Berentsen Sundet" />
		<tag k="no-barnehage:nsrid" v="1021267" />
		<tag k="operator" v="Heffalompen Familiebarnehage Ann Christin Berentsen Sundet" />
		<tag k="operator:type" v="private" />
	</node>
	<node id="-692" lat="59.82906" lon="10.41578">
		<tag k="ADDRESS" v="Drengsrudveien 40, 1383 ASKER" />
		<tag k="amenity" v="kindergarten" />
		<tag k="capacity" v="2" />
		<tag k="max_age" v="2" />
		<tag k="min_age" v="1" />
		<tag k="name" v="Snoopy familiebarnehage" />
		<tag k="no-barnehage:nsrid" v="1020648" />
		<tag k="operator" v="Snoopy Familie barnehage Manjit Kaur" />
		<tag k="operator:type" v="private" />
	</node>
	<node id="-668" lat="59.78842" lon="10.48111">
		<tag k="ADDRESS" v="Høymyrmarka 58, 1391 VOLLEN" />
		<tag k="amenity" v="kindergarten" />
		<tag k="capacity" v="3" />
		<tag k="contact:website" v="http://www.hoymyrmarka.barnehageside.no" />
		<tag k="max_age" v="2" />
		<tag k="min_age" v="1" />
		<tag k="name" v="Høymyrmarka familiebarnehage" />
		<tag k="no-barnehage:nsrid" v="1021146" />
		<tag k="operator" v="Høymyrmarka Familiebarnehage Tone Karin Bjellvåg" />
		<tag k="operator:type" v="private" />
	</node>
	<node id="-623" lat="59.88136" lon="10.60987">
		<tag k="ADDRESS" v="Bruksveien 2, 1367 SNARØYA" />
		<tag k="amenity" v="kindergarten" />
		<tag k="capacity" v="8" />
		<tag k="max_age" v="2" />
		<tag k="min_age" v="1" />
		<tag k="name" v="Tusseladden familiebarnehage" />
		<tag k="no-barnehage:nsrid" v="1020842" />
		<tag k="operator" v="Tusseladden Familiebarnehage Ans" />
		<tag k="operator:type" v="private" />
	</node>
	<node id="-622" lat="59.90053" lon="10.55774">
		<tag k="ADDRESS" v="Blommenholmveien 21, 1365 BLOMMENHOLM" />
		<tag k="amenity" v="kindergarten" />
		<tag k="capacity" v="8" />
		<tag k="max_age" v="2" />
		<tag k="min_age" v="1" />
		<tag k="name" v="Trygg Start familiebarnehage avd. Blommenholmveien" />
		<tag k="no-barnehage:nsrid" v="1014309" />
		<tag k="operator" v="Trygg Start V/håkon Sletnes" />
		<tag k="operator:type" v="private" />
	</node>
	<node id="-620" lat="59.90598" lon="10.5693">
		<tag k="ADDRESS" v="Ramstadåsveien 17, 1363 HØVIK" />
		<tag k="amenity" v="kindergarten" />
		<tag k="capacity" v="5" />
		<tag k="max_age" v="2" />
		<tag k="min_age" v="1" />
		<tag k="name" v="Trygg Start familiebarnehage avd. Ramstadåsveien" />
		<tag k="no-barnehage:nsrid" v="1017937" />
		<tag k="operator" v="Trygg Start V/håkon Sletnes" />
		<tag k="operator:type" v="private" />
	</node>
	<node id="-619" lat="59.89401" lon="10.48868">
		<tag k="ADDRESS" v="Tobias Kupfers Vei 8, 1336 SANDVIKA" />
		<tag k="amenity" v="kindergarten" />
		<tag k="capacity" v="8" />
		<tag k="max_age" v="2" />
		<tag k="min_age" v="1" />
		<tag k="name" v="Trygg Start familebarnehage avd. Emma Hjort" />
		<tag k="no-barnehage:nsrid" v="1020843" />
		<tag k="operator" v="Trygg Start V/håkon Sletnes" />
		<tag k="operator:type" v="private" />
	</node>
	<node id="-611" lat="59.91243" lon="10.60747">
		<tag k="ADDRESS" v="Storengveien 56b, 1368 STABEKK" />
		<tag k="amenity" v="kindergarten" />
		<tag k="capacity" v="8" />
		<tag k="max_age" v="2" />
		<tag k="min_age" v="1" />
		<tag k="name" v="Sukkerspinn familiebarnehage" />
		<tag k="no-barnehage:nsrid" v="1021682" />
		<tag k="operator" v="Sukkerspinn Familiebarnehage Da" />
		<tag k="operator:type" v="private" />
	</node>
	<node id="-605" lat="59.91677" lon="10.61659">
		<tag k="ADDRESS" v="Njålveien 2a, 1368 STABEKK" />
		<tag k="amenity" v="kindergarten" />
		<tag k="capacity" v="8" />
		<tag k="max_age" v="2" />
		<tag k="min_age" v="1" />
		<tag k="name" v="Storeng familiebarnehage" />
		<tag k="no-barnehage:nsrid" v="1020940" />
		<tag k="operator" v="Storeng Familiebarnehage Da" />
		<tag k="operator:type" v="private" />
	</node>
	<node id="-600" lat="59.91201" lon="10.61989">
		<tag k="ADDRESS" v="Nordraaks Vei 55a, 1369 STABEKK" />
		<tag k="amenity" v="kindergarten" />
		<tag k="capacity" v="8" />
		<tag k="max_age" v="5" />
		<tag k="min_age" v="1" />
		<tag k="name" v="Stabekk familie barnehage" />
		<tag k="no-barnehage:nsrid" v="1013262" />
		<tag k="operator" v="Familiebarnehagene Vivi Engelund" />
		<tag k="operator:type" v="private" />
	</node>
	<node id="-2148" lat="0.0" lon="0.0">
		<tag k="ADDRESS" v="Løvlund, Kjønnås, 2630 RINGEBU" />
		<tag k="amenity" v="kindergarten" />
		<tag k="capacity" v="4" />
		<tag k="max_age" v="2" />
		<tag k="min_age" v="1" />
		<tag k="name" v="Løvlund familiebarnehage" />
		<tag k="no-barnehage:nsrid" v="1021896" />
		<tag k="operator" v="Løvlund Familiebarnehage Kine Engum" />
		<tag k="operator:type" v="private" />
	</node>
	<node id="-1043" lat="59.85372" lon="10.80303">
		<tag k="ADDRESS" v="Ljabrubakken 4, 1165 OSLO" />
		<tag k="amenity" v="kindergarten" />
		<tag k="capacity" v="6" />
		<tag k="max_age" v="2" />
		<tag k="min_age" v="1" />
		<tag k="name" v="Alfred familiebarnehage" />
		<tag k="no-barnehage:nsrid" v="1013088" />
		<tag k="operator" v="Lønneberget barnehage AS" />
		<tag k="operator:type" v="private" />
	</node>
	<node id="-591" lat="59.90993" lon="10.46751">
		<tag k="ADDRESS" v="Nedre Ringvoll 7, 1339 VØYENENGA" />
		<tag k="amenity" v="kindergarten" />
		<tag k="capacity" v="4" />
		<tag k="max_age" v="2" />
		<tag k="min_age" v="1" />
		<tag k="name" v="Rådyrhagen" />
		<tag k="no-barnehage:nsrid" v="1022267" />
		<tag k="operator" v="Rådyrhagen AS" />
		<tag k="operator:type" v="private" />
	</node>
	<node id="-589" lat="59.91732" lon="10.56421">
		<tag k="ADDRESS" v="Tveterveien 49, 1344 HASLUM" />
		<tag k="amenity" v="kindergarten" />
		<tag k="capacity" v="7" />
		<tag k="max_age" v="2" />
		<tag k="min_age" v="1" />
		<tag k="name" v="Rugekassen avd. Bærum" />
		<tag k="no-barnehage:nsrid" v="1013423" />
		<tag k="operator" v="Kapelo AS" />
		<tag k="operator:type" v="private" />
	</node>
	<node id="-2634" lat="59.27493" lon="10.46945">
		<tag k="ADDRESS" v="Kastanjeveien 37, 3151 TOLVSRØD" />
		<tag k="amenity" v="kindergarten" />
		<tag k="capacity" v="4" />
		<tag k="max_age" v="2" />
		<tag k="min_age" v="1" />
		<tag k="name" v="Kastanjenøtten barnehage Hilde Sannum Lunne" />
		<tag k="no-barnehage:nsrid" v="1021287" />
		<tag k="operator" v="Kastanjenøtten barnehage Hilde Sannum Lunne" />
		<tag k="operator:type" v="private" />
	</node>
	<node id="-582" lat="59.91246" lon="10.61076">
		<tag k="ADDRESS" v="Kyrres Vei 28f, 1369 STABEKK" />
		<tag k="amenity" v="kindergarten" />
		<tag k="capacity" v="8" />
		<tag k="contact:website" v="http://www.Familiebarnehage.no" />
		<tag k="max_age" v="2" />
		<tag k="min_age" v="1" />
		<tag k="name" v="Nøtteliten familiebarnehager avd. Kyrresvei" />
		<tag k="no-barnehage:nsrid" v="1018384" />
		<tag k="operator" v="Nøtteliten Familiebarnehager AS" />
		<tag k="operator:type" v="private" />
	</node>
	<node id="-2629" lat="59.2863" lon="10.49568">
		<tag k="ADDRESS" v="Grusveien 33, 3150 TOLVSRØD" />
		<tag k="amenity" v="kindergarten" />
		<tag k="capacity" v="4" />
		<tag k="max_age" v="2" />
		<tag k="min_age" v="1" />
		<tag k="name" v="Grusveien familiebarnehage" />
		<tag k="no-barnehage:nsrid" v="1020740" />
		<tag k="operator" v="Nina Bollæren Sandvik" />
		<tag k="operator:type" v="private" />
	</node>
	<node id="-2628" lat="59.28705" lon="10.49641">
		<tag k="ADDRESS" v="Fregattveien 19, 3150 TOLVSRØD" />
		<tag k="amenity" v="kindergarten" />
		<tag k="capacity" v="4" />
		<tag k="max_age" v="2" />
		<tag k="min_age" v="1" />
		<tag k="name" v="Granstua familiebarnehage Irene Homleid Kristiansen" />
		<tag k="no-barnehage:nsrid" v="1021845" />
		<tag k="operator" v="Granstua Familiebarnehage Irene Homleid Kristiansen" />
		<tag k="operator:type" v="private" />
	</node>
	<node id="-579" lat="59.91816" lon="10.62065">
		<tag k="ADDRESS" v="Storengveien 22, 1358 JAR" />
		<tag k="amenity" v="kindergarten" />
		<tag k="capacity" v="8" />
		<tag k="contact:website" v="http://www.Familiebarnehage.no" />
		<tag k="max_age" v="2" />
		<tag k="min_age" v="1" />
		<tag k="name" v="Nøtteliten familiebarnehager avd. Storengveien" />
		<tag k="no-barnehage:nsrid" v="1015599" />
		<tag k="operator" v="Nøtteliten Familiebarnehager AS" />
		<tag k="operator:type" v="private" />
	</node>
	<node id="-578" lat="59.92" lon="10.56925">
		<tag k="ADDRESS" v="Tveterlia 6, 1344 HASLUM" />
		<tag k="amenity" v="kindergarten" />
		<tag k="capacity" v="8" />
		<tag k="contact:website" v="http://www.Familiebarnehage.no" />
		<tag k="max_age" v="2" />
		<tag k="min_age" v="1" />
		<tag k="name" v="Nøtteliten familiebarnehager avd. Tveterlia" />
		<tag k="no-barnehage:nsrid" v="1015598" />
		<tag k="operator" v="Nøtteliten Familiebarnehager AS" />
		<tag k="operator:type" v="private" />
	</node>
	<node id="-577" lat="59.93578" lon="10.62048">
		<tag k="ADDRESS" v="Velliveien 30a, 1358 JAR" />
		<tag k="amenity" v="kindergarten" />
		<tag k="capacity" v="8" />
		<tag k="contact:website" v="http://www.Familiebarnehage.no" />
		<tag k="max_age" v="2" />
		<tag k="min_age" v="1" />
		<tag k="name" v="Nøtteliten familiebarnehager avd. Velliveien" />
		<tag k="no-barnehage:nsrid" v="1016360" />
		<tag k="operator" v="Nøtteliten Familiebarnehager AS" />
		<tag k="operator:type" v="private" />
	</node>
	<node id="-576" lat="59.89927" lon="10.52909">
		<tag k="ADDRESS" v="Gamle Solbergvei 5, 1337 SANDVIKA" />
		<tag k="amenity" v="kindergarten" />
		<tag k="capacity" v="8" />
		<tag k="contact:website" v="http://www.Familiebarnehage.no" />
		<tag k="max_age" v="2" />
		<tag k="min_age" v="1" />
		<tag k="name" v="Nøtteliten familiebarnehager avd. Gamle Solbergvei" />
		<tag k="no-barnehage:nsrid" v="1016359" />
		<tag k="operator" v="Nøtteliten Familiebarnehager AS" />
		<tag k="operator:type" v="private" />
	</node>
	<node id="-575" lat="59.91304" lon="10.60054">
		<tag k="ADDRESS" v="Festningsveien 20c, 1368 STABEKK" />
		<tag k="amenity" v="kindergarten" />
		<tag k="capacity" v="8" />
		<tag k="max_age" v="2" />
		<tag k="min_age" v="1" />
		<tag k="name" v="Nøtteliten familiebarnehager avd. Festningsveien" />
		<tag k="no-barnehage:nsrid" v="1016358" />
		<tag k="operator" v="Nøtteliten Familiebarnehager AS" />
		<tag k="operator:type" v="private" />
	</node>
	<node id="-574" lat="59.89859" lon="10.58582">
		<tag k="ADDRESS" v="Fagerstrandveien 79, 1363 HØVIK" />
		<tag k="amenity" v="kindergarten" />
		<tag k="capacity" v="8" />
		<tag k="contact:website" v="http://www.Familiebarnehage.no" />
		<tag k="max_age" v="2" />
		<tag k="min_age" v="1" />
		<tag k="name" v="Nøtteliten familiebarnehager avd. Fagerstrandveien" />
		<tag k="no-barnehage:nsrid" v="1016357" />
		<tag k="operator" v="Nøtteliten Familiebarnehager AS" />
		<tag k="operator:type" v="private" />
	</node>
	<node id="-573" lat="0.0" lon="0.0">
		<tag k="ADDRESS" v="Langoddveien 88 A, 1367 SNARØYA" />
		<tag k="amenity" v="kindergarten" />
		<tag k="capacity" v="8" />
		<tag k="contact:website" v="http://www.Familiebarnehage.no" />
		<tag k="max_age" v="2" />
		<tag k="min_age" v="1" />
		<tag k="name" v="Nøtteliten familiebarnehager avd. Langoddveien" />
		<tag k="no-barnehage:nsrid" v="1016356" />
		<tag k="operator" v="Nøtteliten Familiebarnehager AS" />
		<tag k="operator:type" v="private" />
	</node>
	<node id="-572" lat="59.90284" lon="10.59984">
		<tag k="ADDRESS" v="Michelets Vei 85, 1368 STABEKK" />
		<tag k="amenity" v="kindergarten" />
		<tag k="capacity" v="8" />
		<tag k="contact:website" v="http://www.Familiebarnehage.no" />
		<tag k="max_age" v="2" />
		<tag k="min_age" v="1" />
		<tag k="name" v="Nøtteliten familiebarnehager avd. Micheletvei" />
		<tag k="no-barnehage:nsrid" v="1016355" />
		<tag k="operator" v="Nøtteliten Familiebarnehager AS" />
		<tag k="operator:type" v="private" />
	</node>
	<node id="-571" lat="59.90787" lon="10.57077">
		<tag k="ADDRESS" v="Hans Øverlands Vei 10, 1363 HØVIK" />
		<tag k="amenity" v="kindergarten" />
		<tag k="capacity" v="8" />
		<tag k="contact:website" v="http://www.Familiebarnehage.no" />
		<tag k="max_age" v="2" />
		<tag k="min_age" v="1" />
		<tag k="name" v="Nøtteliten familiebarnehager avd. Hans Øverlandsvei" />
		<tag k="no-barnehage:nsrid" v="1016574" />
		<tag k="operator" v="Nøtteliten Familiebarnehager AS" />
		<tag k="operator:type" v="private" />
	</node>
	<node id="-570" lat="59.8997" lon="10.5299">
		<tag k="ADDRESS" v="Gamle Solbergvei 1a, 1337 SANDVIKA" />
		<tag k="amenity" v="kindergarten" />
		<tag k="capacity" v="6" />
		<tag k="contact:website" v="http://www.Familiebarnehage.no" />
		<tag k="max_age" v="2" />
		<tag k="min_age" v="1" />
		<tag k="name" v="Nøtteliten familiebarnehager avd. Gamle Solbergvei" />
		<tag k="no-barnehage:nsrid" v="1013146" />
		<tag k="operator" v="Nøtteliten Familiebarnehager AS" />
		<tag k="operator:type" v="private" />
	</node>
	<node id="-569" lat="59.90267" lon="10.54258">
		<tag k="ADDRESS" v="Lillehagveien 52b, 1365 BLOMMENHOLM" />
		<tag k="amenity" v="kindergarten" />
		<tag k="capacity" v="8" />
		<tag k="contact:website" v="http://www.Familiebarnehage.no" />
		<tag k="max_age" v="2" />
		<tag k="min_age" v="1" />
		<tag k="name" v="Nøtteliten familiebarnehager avd. Lillehagveien" />
		<tag k="no-barnehage:nsrid" v="1013492" />
		<tag k="operator" v="Nøtteliten Familiebarnehager AS" />
		<tag k="operator:type" v="private" />
	</node>
	<node id="-568" lat="59.94664" lon="10.60667">
		<tag k="ADDRESS" v="Østeråsbakken 13, 1361 ØSTERÅS" />
		<tag k="amenity" v="kindergarten" />
		<tag k="capacity" v="8" />
		<tag k="contact:website" v="http://www.Familiebarnehage.no" />
		<tag k="max_age" v="2" />
		<tag k="min_age" v="1" />
		<tag k="name" v="Nøtteliten familiebarnehager avd. Østeråsbakken" />
		<tag k="no-barnehage:nsrid" v="1025448" />
		<tag k="operator" v="Nøtteliten Familiebarnehager AS" />
		<tag k="operator:type" v="private" />
	</node>
	<node id="-567" lat="59.9208" lon="10.62369">
		<tag k="ADDRESS" v="Wedel Jarlsbergs Vei 4a, 1358 JAR" />
		<tag k="amenity" v="kindergarten" />
		<tag k="capacity" v="7" />
		<tag k="contact:website" v="http://www.familiebarnehage.no" />
		<tag k="max_age" v="2" />
		<tag k="min_age" v="1" />
		<tag k="name" v="Nøtteliten familiebarnehager avd. Wedel Jarlsbergs Vei" />
		<tag k="no-barnehage:nsrid" v="2000305" />
		<tag k="operator" v="Nøtteliten Familiebarnehager AS" />
		<tag k="operator:type" v="private" />
	</node>
	<node id="-2614" lat="59.40808" lon="10.46267">
		<tag k="ADDRESS" v="Vipesvingen 52, 3188 HORTEN" />
		<tag k="amenity" v="kindergarten" />
		<tag k="capacity" v="4" />
		<tag k="max_age" v="2" />
		<tag k="min_age" v="1" />
		<tag k="name" v="Tusseladden familiebarnehage" />
		<tag k="no-barnehage:nsrid" v="1021672" />
		<tag k="operator" v="Kathrine Jonas Hansen Tusseladdenfamiliebarnehage" />
		<tag k="operator:type" v="private" />
	</node>
	<node id="-565" lat="59.91159" lon="10.57669">
		<tag k="ADDRESS" v="Høvikveien 60, 1356 BEKKESTUA" />
		<tag k="amenity" v="kindergarten" />
		<tag k="capacity" v="8" />
		<tag k="contact:website" v="http://www.Familiebarnehage.no" />
		<tag k="max_age" v="2" />
		<tag k="min_age" v="1" />
		<tag k="name" v="Nøtteliten familiebarnehager avd. Høvikveien" />
		<tag k="no-barnehage:nsrid" v="1025449" />
		<tag k="operator" v="Nøtteliten Familiebarnehager AS" />
		<tag k="operator:type" v="private" />
	</node>
	<node id="-2609" lat="59.40734" lon="10.46884">
		<tag k="ADDRESS" v="Thora Holms Gate 5, 3188 HORTEN" />
		<tag k="amenity" v="kindergarten" />
		<tag k="capacity" v="4" />
		<tag k="max_age" v="2" />
		<tag k="min_age" v="1" />
		<tag k="name" v="Sommerfugl familiebarnehage" />
		<tag k="no-barnehage:nsrid" v="1020739" />
		<tag k="operator" v="Sommerfugl Familiebarnehage Ruth-Laila Larsen" />
		<tag k="operator:type" v="private" />
	</node>
	<node id="-2608" lat="59.42287" lon="10.46049">
		<tag k="ADDRESS" v="Øvre Keisemark 63, 3189 HORTEN" />
		<tag k="amenity" v="kindergarten" />
		<tag k="capacity" v="8" />
		<tag k="max_age" v="2" />
		<tag k="min_age" v="1" />
		<tag k="name" v="Skrukketrollet familiebarnehage" />
		<tag k="no-barnehage:nsrid" v="1021118" />
		<tag k="operator" v="Skrukketrollet Familiebarnehage Da" />
		<tag k="operator:type" v="private" />
	</node>
	<node id="-554" lat="59.91475" lon="10.60656">
		<tag k="ADDRESS" v="Skogveien 55, 1368 STABEKK" />
		<tag k="amenity" v="kindergarten" />
		<tag k="capacity" v="8" />
		<tag k="max_age" v="5" />
		<tag k="min_age" v="1" />
		<tag k="name" v="Miniputten familiebarnehage" />
		<tag k="no-barnehage:nsrid" v="1020886" />
		<tag k="operator" v="Miniputten Familiebarnehage Da" />
		<tag k="operator:type" v="private" />
	</node>
	<node id="-2600" lat="59.40302" lon="10.47329">
		<tag k="ADDRESS" v="Rustadgata 84, 3186 HORTEN" />
		<tag k="amenity" v="kindergarten" />
		<tag k="capacity" v="8" />
		<tag k="max_age" v="2" />
		<tag k="min_age" v="1" />
		<tag k="name" v="Horten familiebarnehage" />
		<tag k="no-barnehage:nsrid" v="1020338" />
		<tag k="operator" v="Babyhagen Familiebarnehage Liv Gulestøl" />
		<tag k="operator:type" v="private" />
	</node>
	<node id="-543" lat="59.89969" lon="10.56283">
		<tag k="ADDRESS" v="Gamle Drammensvei 142, 1363 HØVIK" />
		<tag k="amenity" v="kindergarten" />
		<tag k="capacity" v="7" />
		<tag k="contact:website" v="http://www.tornsvalen.no" />
		<tag k="max_age" v="2" />
		<tag k="min_age" v="1" />
		<tag k="name" v="Lindegaard familebarnehage" />
		<tag k="no-barnehage:nsrid" v="1015905" />
		<tag k="operator" v="Tårnsvalen barnehage AS" />
		<tag k="operator:type" v="private" />
	</node>
	<node id="-539" lat="59.94931" lon="10.62566">
		<tag k="ADDRESS" v="Grinistubben 2, 1359 EIKSMARKA" />
		<tag k="amenity" v="kindergarten" />
		<tag k="capacity" v="8" />
		<tag k="contact:website" v="http://www.liljabhg.com" />
		<tag k="max_age" v="5" />
		<tag k="min_age" v="1" />
		<tag k="name" v="Lilja familiebarnehage avd. Grinistubben 2" />
		<tag k="no-barnehage:nsrid" v="1018459" />
		<tag k="operator" v="Lilja Familiebarnehage Da" />
		<tag k="operator:type" v="private" />
	</node>
	<node id="-538" lat="59.94963" lon="10.62465">
		<tag k="ADDRESS" v="Grinistubben 6, 1359 EIKSMARKA" />
		<tag k="amenity" v="kindergarten" />
		<tag k="capacity" v="8" />
		<tag k="contact:website" v="http://www.liljabhg.com" />
		<tag k="max_age" v="2" />
		<tag k="min_age" v="1" />
		<tag k="name" v="Lilja familiebarnehage avd. Grinistubben 6" />
		<tag k="no-barnehage:nsrid" v="1013615" />
		<tag k="operator" v="Lilja Familiebarnehage Da" />
		<tag k="operator:type" v="private" />
	</node>
	<node id="-536" lat="59.92531" lon="10.60556">
		<tag k="ADDRESS" v="Underhaugsveien 21, 1358 JAR" />
		<tag k="amenity" v="kindergarten" />
		<tag k="capacity" v="8" />
		<tag k="max_age" v="2" />
		<tag k="min_age" v="1" />
		<tag k="name" v="Krokus familiebarnehage" />
		<tag k="no-barnehage:nsrid" v="1020885" />
		<tag k="operator" v="Krokus Familiebarnehage Da" />
		<tag k="operator:type" v="private" />
	</node>
	<node id="-2580" lat="59.67031" lon="10.53287">
		<tag k="ADDRESS" v="Falkeveien 25, 3475 SÆTRE" />
		<tag k="amenity" v="kindergarten" />
		<tag k="capacity" v="9" />
		<tag k="max_age" v="5" />
		<tag k="min_age" v="1" />
		<tag k="name" v="Utsikt1 familiebarnehage" />
		<tag k="no-barnehage:nsrid" v="1021758" />
		<tag k="operator" v="Rigmor Børve Familiebarnehage" />
		<tag k="operator:type" v="private" />
	</node>
	<node id="-2573" lat="59.63367" lon="10.4956131">
		<tag k="ADDRESS" v="Holtebrekk, 3490 KLOKKARSTUA" />
		<tag k="amenity" v="kindergarten" />
		<tag k="capacity" v="6" />
		<tag k="max_age" v="2" />
		<tag k="min_age" v="1" />
		<tag k="name" v="Holtebrekk familiebarnehage" />
		<tag k="no-barnehage:nsrid" v="1014856" />
		<tag k="operator" v="Stiftelsen Askeladden Steinerbarnehage" />
		<tag k="operator:type" v="private" />
	</node>
	<node id="-2566" lat="59.71272" lon="10.51716">
		<tag k="ADDRESS" v="Fjellstien 1, 3474 ÅROS" />
		<tag k="amenity" v="kindergarten" />
		<tag k="capacity" v="10" />
		<tag k="max_age" v="5" />
		<tag k="min_age" v="1" />
		<tag k="name" v="Utsikten familie barnehage Carina Abrahamsen" />
		<tag k="no-barnehage:nsrid" v="1021476" />
		<tag k="operator" v="Utsikten Familie barnehage Carina Abrahamsen" />
		<tag k="operator:type" v="private" />
	</node>
	<node id="-515" lat="59.92716" lon="10.60639">
		<tag k="ADDRESS" v="Bjerkelundsveien 37c, 1358 JAR" />
		<tag k="amenity" v="kindergarten" />
		<tag k="capacity" v="8" />
		<tag k="max_age" v="2" />
		<tag k="min_age" v="1" />
		<tag k="name" v="Gullungene familiebarnehage avd. Bjerkelundsveien" />
		<tag k="no-barnehage:nsrid" v="1017742" />
		<tag k="operator" v="Gullungene Familiebarnehage Mona K Axelsen" />
		<tag k="operator:type" v="private" />
	</node>
	<node id="-514" lat="59.9415" lon="10.62536">
		<tag k="ADDRESS" v="Vollsveien 168, 1359 EIKSMARKA" />
		<tag k="amenity" v="kindergarten" />
		<tag k="capacity" v="8" />
		<tag k="max_age" v="2" />
		<tag k="min_age" v="1" />
		<tag k="name" v="Gullungene familiebarnehage avd. Vollsveien" />
		<tag k="no-barnehage:nsrid" v="1018382" />
		<tag k="operator" v="Gullungene Familiebarnehage Mona K Axelsen" />
		<tag k="operator:type" v="private" />
	</node>
	<node id="-512" lat="59.91458" lon="10.62801">
		<tag k="ADDRESS" v="Nordraaks Vei 9, 1369 STABEKK" />
		<tag k="amenity" v="kindergarten" />
		<tag k="capacity" v="8" />
		<tag k="max_age" v="2" />
		<tag k="min_age" v="1" />
		<tag k="name" v="Gullungene familiebarnehage avd. Nordraaks Vei" />
		<tag k="no-barnehage:nsrid" v="1013293" />
		<tag k="operator" v="Gullungene Familiebarnehage Mona K Axelsen" />
		<tag k="operator:type" v="private" />
	</node>
	<node id="-507" lat="59.92169" lon="10.47831">
		<tag k="ADDRESS" v="Grindstuveien 8, 1349 RYKKINN" />
		<tag k="amenity" v="kindergarten" />
		<tag k="capacity" v="8" />
		<tag k="max_age" v="2" />
		<tag k="min_age" v="1" />
		<tag k="name" v="Grindstuveien familiebarnehage" />
		<tag k="no-barnehage:nsrid" v="1018322" />
		<tag k="operator" v="Grindstuveien Familiebarnehage AS" />
		<tag k="operator:type" v="private" />
	</node>
	<node id="-2547" lat="59.75354" lon="10.46588">
		<tag k="ADDRESS" v="Aukeveien 118d, 3472 BØDALEN" />
		<tag k="amenity" v="kindergarten" />
		<tag k="capacity" v="11" />
		<tag k="max_age" v="5" />
		<tag k="min_age" v="1" />
		<tag k="name" v="Hno barnehage" />
		<tag k="no-barnehage:nsrid" v="1013521" />
		<tag k="operator" v="Hno barnehage AS" />
		<tag k="operator:type" v="private" />
	</node>
	<node id="-2544" lat="59.77639" lon="10.41346">
		<tag k="ADDRESS" v="Hallenåsen Terrasse 41, 1389 HEGGEDAL" />
		<tag k="amenity" v="kindergarten" />
		<tag k="capacity" v="5" />
		<tag k="max_age" v="5" />
		<tag k="min_age" v="1" />
		<tag k="name" v="Hallenåsen familiebarnehage Marit Regine Kinserdal" />
		<tag k="no-barnehage:nsrid" v="2000032" />
		<tag k="operator" v="Hallenåsen Familiebarnehage Marit Regine Kinserdal" />
		<tag k="operator:type" v="private" />
	</node>
	<node id="-2543" lat="59.77612" lon="10.49338">
		<tag k="ADDRESS" v="Furulia 3a, 3470 SLEMMESTAD" />
		<tag k="amenity" v="kindergarten" />
		<tag k="capacity" v="7" />
		<tag k="contact:website" v="http://ja-riis.wix.com/furuliafamiliebhg" />
		<tag k="max_age" v="5" />
		<tag k="min_age" v="1" />
		<tag k="name" v="Furulia familiebarnehage" />
		<tag k="no-barnehage:nsrid" v="1020810" />
		<tag k="operator" v="Furulia Familiebarnehage Ruud" />
		<tag k="operator:type" v="private" />
	</node>
	<node id="-2538" lat="59.73797" lon="10.40348">
		<tag k="ADDRESS" v="Furutoppveien 61, 3440 RØYKEN" />
		<tag k="amenity" v="kindergarten" />
		<tag k="capacity" v="6" />
		<tag k="max_age" v="5" />
		<tag k="min_age" v="1" />
		<tag k="name" v="Ayno" />
		<tag k="no-barnehage:nsrid" v="2000074" />
		<tag k="operator" v="Ayno Ans" />
		<tag k="operator:type" v="private" />
	</node>
	<node id="-2527" lat="59.74806" lon="10.23337">
		<tag k="ADDRESS" v="Baches Vei 23, 3413 LIER" />
		<tag k="amenity" v="kindergarten" />
		<tag k="capacity" v="8" />
		<tag k="max_age" v="5" />
		<tag k="min_age" v="1" />
		<tag k="name" v="Mikkel Rev Marion Garofalo Andersen" />
		<tag k="no-barnehage:nsrid" v="1020417" />
		<tag k="operator" v="Mikkel Rev Marion Garofalo Andersen" />
		<tag k="operator:type" v="private" />
	</node>
	<node id="-476" lat="59.91093" lon="10.59885">
		<tag k="ADDRESS" v="Skogveien 66b, 1369 STABEKK" />
		<tag k="amenity" v="kindergarten" />
		<tag k="capacity" v="8" />
		<tag k="max_age" v="5" />
		<tag k="min_age" v="1" />
		<tag k="name" v="Blåklokken Fam barnehage avd. Skogveien" />
		<tag k="no-barnehage:nsrid" v="1018597" />
		<tag k="operator" v="Blåklokken Fam barnehage Rehnvall" />
		<tag k="operator:type" v="private" />
	</node>
	<node id="-474" lat="59.92282" lon="10.55887">
		<tag k="ADDRESS" v="Haslum Terrasse 20, 1344 HASLUM" />
		<tag k="amenity" v="kindergarten" />
		<tag k="capacity" v="8" />
		<tag k="max_age" v="2" />
		<tag k="min_age" v="1" />
		<tag k="name" v="Blåklokken Fam barnehage avd. Haslum terrasse" />
		<tag k="no-barnehage:nsrid" v="1013267" />
		<tag k="operator" v="Blåklokken Fam barnehage Rehnvall" />
		<tag k="operator:type" v="private" />
	</node>
	<node id="-2520" lat="59.82196" lon="10.27325">
		<tag k="ADDRESS" v="Gunnersbråteveien 11, 3406 TRANBY" />
		<tag k="amenity" v="kindergarten" />
		<tag k="capacity" v="3" />
		<tag k="max_age" v="2" />
		<tag k="min_age" v="1" />
		<tag k="name" v="Hennum familiebarnehage Mona Maribo" />
		<tag k="no-barnehage:nsrid" v="1020677" />
		<tag k="operator" v="Hennum Familiebarnehage Mona Maribo" />
		<tag k="operator:type" v="private" />
	</node>
	<node id="-2491" lat="59.76155" lon="9.99501">
		<tag k="ADDRESS" v="Hasselbakken 18, 3055 KROKSTADELVA" />
		<tag k="amenity" v="kindergarten" />
		<tag k="capacity" v="5" />
		<tag k="max_age" v="5" />
		<tag k="min_age" v="1" />
		<tag k="name" v="Hasselbakken familiebarnehage" />
		<tag k="no-barnehage:nsrid" v="1021203" />
		<tag k="operator" v="Heidi Gundersen" />
		<tag k="operator:type" v="private" />
	</node>
	<node id="-2490" lat="59.76155" lon="9.99501">
		<tag k="ADDRESS" v="Hasselbakken 18, 3055 KROKSTADELVA" />
		<tag k="amenity" v="kindergarten" />
		<tag k="capacity" v="5" />
		<tag k="max_age" v="5" />
		<tag k="min_age" v="1" />
		<tag k="name" v="Hasselbakken familiebarnehage" />
		<tag k="no-barnehage:nsrid" v="1021199" />
		<tag k="operator" v="Hege Olsrud Korsgård" />
		<tag k="operator:type" v="private" />
	</node>
	<node id="-2471" lat="59.7307" lon="9.92406">
		<tag k="ADDRESS" v="Flessebergveien 1, 3302 HOKKSUND" />
		<tag k="amenity" v="kindergarten" />
		<tag k="capacity" v="3" />
		<tag k="max_age" v="5" />
		<tag k="min_age" v="3" />
		<tag k="name" v="Lille Lam familiebarnehage Valentina Winnæss" />
		<tag k="no-barnehage:nsrid" v="1021955" />
		<tag k="operator" v="Lille Lam Familiebarnehage Valentyna Winnæss" />
		<tag k="operator:type" v="private" />
	</node>
	<node id="-2467" lat="59.76212" lon="9.92829">
		<tag k="ADDRESS" v="Pålsplass 41b, 3300 HOKKSUND" />
		<tag k="amenity" v="kindergarten" />
		<tag k="capacity" v="5" />
		<tag k="contact:website" v="http://goungen.com" />
		<tag k="max_age" v="2" />
		<tag k="min_age" v="1" />
		<tag k="name" v="Go Ungen familiebarnehage" />
		<tag k="no-barnehage:nsrid" v="1021051" />
		<tag k="operator" v="Go Ungen Familiebarnehage Hege Lajorde Helgheim" />
		<tag k="operator:type" v="private" />
	</node>
	<node id="-414" lat="59.84264" lon="10.67894">
		<tag k="ADDRESS" v="Mosses Vei 12, 1459 NESODDEN" />
		<tag k="amenity" v="kindergarten" />
		<tag k="capacity" v="4" />
		<tag k="max_age" v="2" />
		<tag k="min_age" v="1" />
		<tag k="name" v="Mosseliten familiebarnehage Hege Frøyland" />
		<tag k="no-barnehage:nsrid" v="1021555" />
		<tag k="operator" v="Mosseliten Familiebarnehage Hege Frøyland" />
		<tag k="operator:type" v="private" />
	</node>
	<node id="-410" lat="59.82557" lon="10.68757">
		<tag k="ADDRESS" v="Asgerds Vei 53, 1459 NESODDEN" />
		<tag k="amenity" v="kindergarten" />
		<tag k="capacity" v="5" />
		<tag k="max_age" v="2" />
		<tag k="min_age" v="1" />
		<tag k="name" v="Hind Herred" />
		<tag k="no-barnehage:nsrid" v="1026444" />
		<tag k="operator" v="Hind Herred AS" />
		<tag k="operator:type" v="private" />
	</node>
	<node id="-409" lat="59.82954" lon="10.68474">
		<tag k="ADDRESS" v="Sjølies Vei 7, 1459 NESODDEN" />
		<tag k="amenity" v="kindergarten" />
		<tag k="capacity" v="4" />
		<tag k="max_age" v="2" />
		<tag k="min_age" v="1" />
		<tag k="name" v="Hestehoven familiebarnehage" />
		<tag k="no-barnehage:nsrid" v="1020931" />
		<tag k="operator" v="Lena Susanne Moland Hestehoven Familiebarnehage" />
		<tag k="operator:type" v="private" />
	</node>
	<node id="-406" lat="59.77187" lon="10.69823">
		<tag k="ADDRESS" v="Haslerudveien 21, 1459 NESODDEN" />
		<tag k="amenity" v="kindergarten" />
		<tag k="capacity" v="10" />
		<tag k="max_age" v="5" />
		<tag k="min_age" v="3" />
		<tag k="name" v="Haslerud natur familiebarnehage Are Dammann" />
		<tag k="no-barnehage:nsrid" v="1021461" />
		<tag k="operator" v="Haslerud Natur Familiebarnehage Are Dammann" />
		<tag k="operator:type" v="private" />
	</node>
	<node id="-2444" lat="0.0" lon="0.0">
		<tag k="ADDRESS" v=", 3536 NORESUND" />
		<tag k="amenity" v="kindergarten" />
		<tag k="capacity" v="5" />
		<tag k="contact:website" v="http://www.lesteberggaard.com" />
		<tag k="max_age" v="5" />
		<tag k="min_age" v="3" />
		<tag k="name" v="Lesteberg familiebarnehage avd. 2" />
		<tag k="no-barnehage:nsrid" v="1015183" />
		<tag k="operator" v="Lesteberg Familiebarnehage Da" />
		<tag k="operator:type" v="private" />
	</node>
	<node id="-2443" lat="0.0" lon="0.0">
		<tag k="ADDRESS" v="Lesteberg, 3536 NORESUND" />
		<tag k="amenity" v="kindergarten" />
		<tag k="capacity" v="10" />
		<tag k="contact:website" v="http://www.lesteberggaard.com" />
		<tag k="max_age" v="5" />
		<tag k="min_age" v="1" />
		<tag k="name" v="Lesteberg familiebarnehage avd. 1" />
		<tag k="no-barnehage:nsrid" v="1018401" />
		<tag k="operator" v="Lesteberg Familiebarnehage Da" />
		<tag k="operator:type" v="private" />
	</node>
	<node id="-391" lat="59.66573" lon="10.64874">
		<tag k="ADDRESS" v="Ullerudskogen 5, 1447 DRØBAK" />
		<tag k="amenity" v="kindergarten" />
		<tag k="capacity" v="4" />
		<tag k="max_age" v="2" />
		<tag k="min_age" v="1" />
		<tag k="name" v="Ole Brumm familiebarnehage" />
		<tag k="no-barnehage:nsrid" v="1021008" />
		<tag k="operator" v="Ole Brumm Familiebarnehage Nygård" />
		<tag k="operator:type" v="private" />
	</node>
	<node id="-390" lat="59.66705" lon="10.65678">
		<tag k="ADDRESS" v="Løvsangerveien 28, 1448 DRØBAK" />
		<tag k="amenity" v="kindergarten" />
		<tag k="capacity" v="4" />
		<tag k="max_age" v="2" />
		<tag k="min_age" v="1" />
		<tag k="name" v="Løvspretten familiebarnehage" />
		<tag k="no-barnehage:nsrid" v="1020705" />
		<tag k="operator" v="Løvspretten Familiebarnehage Brita Bæck" />
		<tag k="operator:type" v="private" />
	</node>
	<node id="-2418" lat="60.70576" lon="8.94737">
		<tag k="ADDRESS" v="Tronderudvegen 5b, 3550 GOL" />
		<tag k="amenity" v="kindergarten" />
		<tag k="capacity" v="9" />
		<tag k="max_age" v="2" />
		<tag k="min_age" v="1" />
		<tag k="name" v="Klara's familiebarnehage" />
		<tag k="no-barnehage:nsrid" v="1020472" />
		<tag k="operator" v="Klaras Familebarnehage Klara Magnetun" />
		<tag k="operator:type" v="private" />
	</node>
	<node id="-3475" lat="63.60735" lon="11.10818">
		<tag k="ADDRESS" v="Mossingvegen 311, 7630 ÅSEN" />
		<tag k="amenity" v="kindergarten" />
		<tag k="capacity" v="15" />
		<tag k="max_age" v="5" />
		<tag k="min_age" v="1" />
		<tag k="name" v="Mossingan familiebarnehage" />
		<tag k="no-barnehage:nsrid" v="1020743" />
		<tag k="operator" v="Mossingan Familiebarnehage Ans" />
		<tag k="operator:type" v="private" />
	</node>
	<node id="-363" lat="59.71717" lon="10.80826">
		<tag k="ADDRESS" v="Amunds Vei 37, 1406 SKI" />
		<tag k="amenity" v="kindergarten" />
		<tag k="capacity" v="8" />
		<tag k="max_age" v="2" />
		<tag k="min_age" v="1" />
		<tag k="name" v="Pingvinen familiebarnehage" />
		<tag k="no-barnehage:nsrid" v="1020518" />
		<tag k="operator" v="Pingvinen Familiebarnehage Da" />
		<tag k="operator:type" v="private" />
	</node>
	<node id="-355" lat="59.65385" lon="10.80537">
		<tag k="ADDRESS" v="Feltspatveien 81, 1435 ÅS" />
		<tag k="amenity" v="kindergarten" />
		<tag k="capacity" v="4" />
		<tag k="max_age" v="2" />
		<tag k="min_age" v="1" />
		<tag k="name" v="Do-re-mi musikk familiebarnehage" />
		<tag k="no-barnehage:nsrid" v="1020533" />
		<tag k="operator" v="Do-Re-Mi Musikk-Familiebarnehage Anne-Karine Kjus" />
		<tag k="operator:type" v="private" />
	</node>
	<node id="-2397" lat="60.17749" lon="10.23759">
		<tag k="ADDRESS" v="Vesleveien 11, 3517 HØNEFOSS" />
		<tag k="amenity" v="kindergarten" />
		<tag k="capacity" v="10" />
		<tag k="max_age" v="5" />
		<tag k="min_age" v="1" />
		<tag k="name" v="Vesleveien familiebarnehage" />
		<tag k="no-barnehage:nsrid" v="1021853" />
		<tag k="operator" v="Vesleveien Familiebarnehage AS" />
		<tag k="operator:type" v="private" />
	</node>
	<node id="-2390" lat="60.1646" lon="10.34434">
		<tag k="ADDRESS" v="Bånntjernveien 42, 3514 HØNEFOSS" />
		<tag k="amenity" v="kindergarten" />
		<tag k="capacity" v="8" />
		<tag k="max_age" v="2" />
		<tag k="min_age" v="1" />
		<tag k="name" v="Skogstjernen familiebarnehage" />
		<tag k="no-barnehage:nsrid" v="1022296" />
		<tag k="operator" v="Skogstjernen Familiebarnehage AS" />
		<tag k="operator:type" v="private" />
	</node>
	<node id="-340" lat="59.71143" lon="10.83939">
		<tag k="ADDRESS" v="Eikåsveien 1a, 1424 " />
		<tag k="amenity" v="kindergarten" />
		<tag k="capacity" v="6" />
		<tag k="max_age" v="2" />
		<tag k="min_age" v="1" />
		<tag k="name" v="Ski familiebarnehage" />
		<tag k="no-barnehage:nsrid" v="1020806" />
		<tag k="operator" v="Ski Familiebarnehage Avd. Eikåsen Marianne Espesæter" />
		<tag k="operator:type" v="private" />
	</node>
	<node id="-2383" lat="60.249" lon="10.17164">
		<tag k="ADDRESS" v="Linjeveien 45, 3525 HALLINGBY" />
		<tag k="amenity" v="kindergarten" />
		<tag k="capacity" v="8" />
		<tag k="max_age" v="2" />
		<tag k="min_age" v="1" />
		<tag k="name" v="Hundremeterskogen familiebarnehage Grethe Marie Madsen Simarud" />
		<tag k="no-barnehage:nsrid" v="1022277" />
		<tag k="operator" v="Hundremeterskogen Familiebarnehage Grethe Marie Madsen Simarud" />
		<tag k="operator:type" v="private" />
	</node>
	<node id="-2377" lat="60.09165" lon="10.10926">
		<tag k="ADDRESS" v="Vikersundveien 152, 3533 TYRISTRAND" />
		<tag k="amenity" v="kindergarten" />
		<tag k="capacity" v="9" />
		<tag k="max_age" v="5" />
		<tag k="min_age" v="1" />
		<tag k="name" v="Fegri familiebarnehage" />
		<tag k="no-barnehage:nsrid" v="1021169" />
		<tag k="operator" v="Fegri Familiebarnehage Siv Modalen Bakken" />
		<tag k="operator:type" v="private" />
	</node>
	<node id="-2371" lat="60.28704" lon="10.18934">
		<tag k="ADDRESS" v="Gamle Ådalsvei 105, 3525 HALLINGBY" />
		<tag k="amenity" v="kindergarten" />
		<tag k="capacity" v="10" />
		<tag k="max_age" v="5" />
		<tag k="min_age" v="1" />
		<tag k="name" v="Bondeheimen familiebarnehage" />
		<tag k="no-barnehage:nsrid" v="1022391" />
		<tag k="operator" v="Vestre Aker Omsorg AS" />
		<tag k="operator:type" v="private" />
	</node>
	<node id="-3465" lat="63.43244" lon="10.70313">
		<tag k="ADDRESS" v="Skansenvegen 2, 7563 MALVIK" />
		<tag k="amenity" v="kindergarten" />
		<tag k="capacity" v="4" />
		<tag k="max_age" v="2" />
		<tag k="min_age" v="1" />
		<tag k="name" v="Småtroll familiebarnehage Lena Birgit Hansson" />
		<tag k="no-barnehage:nsrid" v="2000169" />
		<tag k="operator" v="Småtroll Familiebarnehage Lena Birgit Hansson" />
		<tag k="operator:type" v="private" />
	</node>
	<node id="-307" lat="59.59346" lon="10.7091">
		<tag k="ADDRESS" v="Dommerens Vei 17, 1542 " />
		<tag k="amenity" v="kindergarten" />
		<tag k="capacity" v="4" />
		<tag k="max_age" v="5" />
		<tag k="min_age" v="1" />
		<tag k="name" v="Muldvarpen familiebarnehage" />
		<tag k="no-barnehage:nsrid" v="1020505" />
		<tag k="operator" v="May Britt Bendixen" />
		<tag k="operator:type" v="private" />
	</node>
	<node id="-291" lat="59.42352" lon="11.01519">
		<tag k="ADDRESS" v="Svinndalveien 28, 1593 SVINNDAL" />
		<tag k="amenity" v="kindergarten" />
		<tag k="capacity" v="6" />
		<tag k="max_age" v="2" />
		<tag k="min_age" v="1" />
		<tag k="name" v="Svinndal familiebarnehage" />
		<tag k="no-barnehage:nsrid" v="1015215" />
		<tag k="operator" v="Våler kommune" />
		<tag k="operator:type" v="public" />
	</node>
	<node id="-289" lat="0.0" lon="0.0">
		<tag k="ADDRESS" v="Vålerveien 962, 1591 SPERREBOTN" />
		<tag k="amenity" v="kindergarten" />
		<tag k="capacity" v="8" />
		<tag k="contact:website" v="http://www.sperbund.no" />
		<tag k="max_age" v="2" />
		<tag k="min_age" v="1" />
		<tag k="name" v="Sperbund gård og familiebarnehage" />
		<tag k="no-barnehage:nsrid" v="2000113" />
		<tag k="operator" v="Roger Nyhus" />
		<tag k="operator:type" v="private" />
	</node>
	<node id="-282" lat="59.38231" lon="10.7514">
		<tag k="ADDRESS" v="Ryggeveien 368, 1580 RYGGE" />
		<tag k="amenity" v="kindergarten" />
		<tag k="capacity" v="9" />
		<tag k="max_age" v="5" />
		<tag k="min_age" v="1" />
		<tag k="name" v="Tittin familiebarnehage Ann Christin Amundsen" />
		<tag k="no-barnehage:nsrid" v="1020586" />
		<tag k="operator" v="Tittin Familiebarnehage Ann Christin Amundsen" />
		<tag k="operator:type" v="private" />
	</node>
	<node id="-2322" lat="59.72972" lon="10.21241">
		<tag k="ADDRESS" v="Colletts Gate 25, 3043 DRAMMEN" />
		<tag k="amenity" v="kindergarten" />
		<tag k="capacity" v="4" />
		<tag k="max_age" v="5" />
		<tag k="min_age" v="1" />
		<tag k="name" v="Strømsø familiebarnehage Qum Gilani" />
		<tag k="no-barnehage:nsrid" v="1020768" />
		<tag k="operator" v="Strømsø Familiebarnehage Qum Gilani" />
		<tag k="operator:type" v="private" />
	</node>
	<node id="-2305" lat="59.69902" lon="10.25059">
		<tag k="ADDRESS" v="Eikhaugen 56, 3036 DRAMMEN" />
		<tag k="amenity" v="kindergarten" />
		<tag k="capacity" v="8" />
		<tag k="max_age" v="5" />
		<tag k="min_age" v="1" />
		<tag k="name" v="Nedre Eik familiebarnehage Lisbeth Halmrast" />
		<tag k="no-barnehage:nsrid" v="1020331" />
		<tag k="operator" v="Nedre Eik Familiebarnehage Lisbeth Halmrast" />
		<tag k="operator:type" v="private" />
	</node>
	<node id="-2304" lat="59.74326" lon="10.15104">
		<tag k="ADDRESS" v="Leiv Eriksons Gate 7, 3048 DRAMMEN" />
		<tag k="amenity" v="kindergarten" />
		<tag k="capacity" v="5" />
		<tag k="max_age" v="5" />
		<tag k="min_age" v="3" />
		<tag k="name" v="Markblomsten Camilla Larsen avd. Drammen" />
		<tag k="no-barnehage:nsrid" v="1017915" />
		<tag k="operator" v="Markblomsten Camilla Larsen" />
		<tag k="operator:type" v="private" />
	</node>
	<node id="-3077" lat="58.14505" lon="7.84867">
		<tag k="ADDRESS" v="Lysgårdlia 2, 4647 BRENNÅSEN" />
		<tag k="amenity" v="kindergarten" />
		<tag k="capacity" v="9" />
		<tag k="max_age" v="5" />
		<tag k="min_age" v="1" />
		<tag k="name" v="Slottsparken familiebarnehage Vibeke Slotte" />
		<tag k="no-barnehage:nsrid" v="1020635" />
		<tag k="operator" v="Slottsparken Familiebarnehage Vibeke Slotte" />
		<tag k="operator:type" v="private" />
	</node>
	<node id="-237" lat="59.59101" lon="11.19624">
		<tag k="ADDRESS" v="Regnbueveien 13, 1812 ASKIM" />
		<tag k="amenity" v="kindergarten" />
		<tag k="capacity" v="8" />
		<tag k="max_age" v="2" />
		<tag k="min_age" v="1" />
		<tag k="name" v="Regnbuen familiebarnehage" />
		<tag k="no-barnehage:nsrid" v="1020679" />
		<tag k="operator" v="Laila Frydenlund" />
		<tag k="operator:type" v="private" />
	</node>
	<node id="-235" lat="59.59233" lon="11.19074">
		<tag k="ADDRESS" v="Røsslyngveien 9b, 1812 ASKIM" />
		<tag k="amenity" v="kindergarten" />
		<tag k="capacity" v="4" />
		<tag k="max_age" v="5" />
		<tag k="min_age" v="1" />
		<tag k="name" v="Ole Brumm familiebarnehage Kristina Smiljanic" />
		<tag k="no-barnehage:nsrid" v="1021374" />
		<tag k="operator" v="Ole Brumm Familiebarnehage Kristina Smiljanic" />
		<tag k="operator:type" v="private" />
	</node>
	<node id="-201" lat="59.22335" lon="10.95567">
		<tag k="ADDRESS" v="Holbergs Vei 4a, 1605 FREDRIKSTAD" />
		<tag k="amenity" v="kindergarten" />
		<tag k="capacity" v="5" />
		<tag k="max_age" v="5" />
		<tag k="min_age" v="1" />
		<tag k="name" v="Wilberg familiebarnehage" />
		<tag k="no-barnehage:nsrid" v="1021652" />
		<tag k="operator" v="Wilberg Familiebarnehage Qun Shen" />
		<tag k="operator:type" v="private" />
	</node>
	<node id="-199" lat="59.22764" lon="11.0151">
		<tag k="ADDRESS" v="Nannasvei 35, 1654 SELLEBAKK" />
		<tag k="amenity" v="kindergarten" />
		<tag k="capacity" v="10" />
		<tag k="max_age" v="5" />
		<tag k="min_age" v="1" />
		<tag k="name" v="Ville Villekulla familiebarnehage" />
		<tag k="no-barnehage:nsrid" v="1022397" />
		<tag k="operator" v="Ville Villekulla Familiebarnehage AS" />
		<tag k="operator:type" v="private" />
	</node>
	<node id="-197" lat="59.24664" lon="10.93028">
		<tag k="ADDRESS" v="Veumveien 139, 1615 FREDRIKSTAD" />
		<tag k="amenity" v="kindergarten" />
		<tag k="capacity" v="4" />
		<tag k="max_age" v="5" />
		<tag k="min_age" v="1" />
		<tag k="name" v="Veum familiebarnehage" />
		<tag k="no-barnehage:nsrid" v="1021711" />
		<tag k="operator" v="Veum Familiebarnehage Annette Opstad Hansen" />
		<tag k="operator:type" v="private" />
	</node>
	<node id="-193" lat="59.22701" lon="10.9217">
		<tag k="ADDRESS" v="Mølleveien 4, 1613 FREDRIKSTAD" />
		<tag k="amenity" v="kindergarten" />
		<tag k="capacity" v="4" />
		<tag k="max_age" v="2" />
		<tag k="min_age" v="1" />
		<tag k="name" v="Trosvikhaven familiebarnehage" />
		<tag k="no-barnehage:nsrid" v="1021211" />
		<tag k="operator" v="Trosvikhaven Familiebarnehage Anne Marit Osen" />
		<tag k="operator:type" v="private" />
	</node>
	<node id="-189" lat="59.25809" lon="11.10552">
		<tag k="ADDRESS" v="Almveien 14, 1659 TORP" />
		<tag k="amenity" v="kindergarten" />
		<tag k="capacity" v="9" />
		<tag k="max_age" v="2" />
		<tag k="min_age" v="1" />
		<tag k="name" v="Trollklubben barnehage avd. Årum" />
		<tag k="no-barnehage:nsrid" v="1016092" />
		<tag k="operator" v="Trollklubben barnehage AS" />
		<tag k="operator:type" v="private" />
	</node>
	<node id="-184" lat="59.22424" lon="11.04151">
		<tag k="ADDRESS" v="Haldenveien 76, 1655 SELLEBAKK" />
		<tag k="amenity" v="kindergarten" />
		<tag k="capacity" v="5" />
		<tag k="max_age" v="5" />
		<tag k="min_age" v="1" />
		<tag k="name" v="Tornerose familiebarnehage" />
		<tag k="no-barnehage:nsrid" v="1021377" />
		<tag k="operator" v="Anett Vikanes Tornerose" />
		<tag k="operator:type" v="private" />
	</node>
	<node id="-183" lat="59.21812" lon="11.06574">
		<tag k="ADDRESS" v="Hunnbakken 9c, 1655 SELLEBAKK" />
		<tag k="amenity" v="kindergarten" />
		<tag k="capacity" v="5" />
		<tag k="max_age" v="5" />
		<tag k="min_age" v="1" />
		<tag k="name" v="Tommeliten familiebarnehage" />
		<tag k="no-barnehage:nsrid" v="1021482" />
		<tag k="operator" v="Tommeliten Familiebarnehage Edel Andersen" />
		<tag k="operator:type" v="private" />
	</node>
	<node id="-180" lat="59.22879" lon="10.97474">
		<tag k="ADDRESS" v="Lauritz Johnsens Vei 3, 1619 FREDRIKSTAD" />
		<tag k="amenity" v="kindergarten" />
		<tag k="capacity" v="4" />
		<tag k="max_age" v="5" />
		<tag k="min_age" v="1" />
		<tag k="name" v="Solstua familiebarnehage" />
		<tag k="no-barnehage:nsrid" v="1020389" />
		<tag k="operator" v="Solstua Familiebarnehage Solbjørg Lund Bernabé" />
		<tag k="operator:type" v="private" />
	</node>
	<node id="-2222" lat="60.39666" lon="10.56486">
		<tag k="ADDRESS" v="Movegen 31, 2770 JAREN" />
		<tag k="amenity" v="kindergarten" />
		<tag k="capacity" v="8" />
		<tag k="max_age" v="2" />
		<tag k="min_age" v="1" />
		<tag k="name" v="Knærten familiebarnehage Linda Merete Bakken" />
		<tag k="no-barnehage:nsrid" v="1020821" />
		<tag k="operator" v="Knærten Familiebarnehage Linda Merete Bakken" />
		<tag k="operator:type" v="private" />
	</node>
	<node id="-2221" lat="60.39295" lon="10.56042">
		<tag k="ADDRESS" v="Rådhusvegen 39, 2770 JAREN" />
		<tag k="amenity" v="kindergarten" />
		<tag k="capacity" v="37" />
		<tag k="max_age" v="5" />
		<tag k="min_age" v="1" />
		<tag k="name" v="Gran kommune familiebarnehage" />
		<tag k="no-barnehage:nsrid" v="1013776" />
		<tag k="operator" v="Gran kommune" />
		<tag k="operator:type" v="public" />
	</node>
	<node id="-2218" lat="60.41455" lon="10.58969">
		<tag k="ADDRESS" v="Emsevegen 115, 2770 JAREN" />
		<tag k="amenity" v="kindergarten" />
		<tag k="capacity" v="10" />
		<tag k="max_age" v="2" />
		<tag k="min_age" v="1" />
		<tag k="name" v="Emsetrolla familiebarnehage" />
		<tag k="no-barnehage:nsrid" v="1020857" />
		<tag k="operator" v="Skapalen Familiebarnehage" />
		<tag k="operator:type" v="private" />
	</node>
	<node id="-169" lat="59.21994" lon="10.9061">
		<tag k="ADDRESS" v="Parkveien 14, 1621 GRESSVIK" />
		<tag k="amenity" v="kindergarten" />
		<tag k="capacity" v="3" />
		<tag k="max_age" v="5" />
		<tag k="min_age" v="3" />
		<tag k="name" v="Parkveien familiebarnehage" />
		<tag k="no-barnehage:nsrid" v="1021284" />
		<tag k="operator" v="Parkveien Familiebarnehage Nazira Anjaria" />
		<tag k="operator:type" v="private" />
	</node>
	<node id="-2214" lat="60.4649" lon="10.50773">
		<tag k="ADDRESS" v="Rundenvegen 30, 2760 BRANDBU" />
		<tag k="amenity" v="kindergarten" />
		<tag k="capacity" v="7" />
		<tag k="max_age" v="5" />
		<tag k="min_age" v="1" />
		<tag k="name" v="1000meterskogen Fam-og naturbhg" />
		<tag k="no-barnehage:nsrid" v="1020481" />
		<tag k="operator" v="1000meterskogen Familie &amp; Natur- barnehage Anne-Berit Dahl-Tomter" />
		<tag k="operator:type" v="private" />
	</node>
	<node id="-2212" lat="60.25928" lon="10.66868">
		<tag k="ADDRESS" v="Taubanen 10a, 2742 GRUA" />
		<tag k="amenity" v="kindergarten" />
		<tag k="capacity" v="8" />
		<tag k="contact:website" v="http://www.taubanenbarnehage.no" />
		<tag k="max_age" v="2" />
		<tag k="min_age" v="1" />
		<tag k="name" v="Taubanen barnehage" />
		<tag k="no-barnehage:nsrid" v="2000057" />
		<tag k="operator" v="Taubanen barnehage AS" />
		<tag k="operator:type" v="private" />
	</node>
	<node id="-2211" lat="60.21826" lon="10.72141">
		<tag k="ADDRESS" v="Klemmavegen 3a, 2743 HARESTUA" />
		<tag k="amenity" v="kindergarten" />
		<tag k="capacity" v="8" />
		<tag k="max_age" v="5" />
		<tag k="min_age" v="1" />
		<tag k="name" v="Spurven familie barnehage" />
		<tag k="no-barnehage:nsrid" v="1021350" />
		<tag k="operator" v="Wenches Familie Barnehager AS" />
		<tag k="operator:type" v="private" />
	</node>
	<node id="-2201" lat="60.19356" lon="10.72073">
		<tag k="ADDRESS" v="Furumohaugen 7, 2743 HARESTUA" />
		<tag k="amenity" v="kindergarten" />
		<tag k="capacity" v="7" />
		<tag k="max_age" v="5" />
		<tag k="min_age" v="1" />
		<tag k="name" v="Furumohaugen familiebarnehage Henriette Ottosen" />
		<tag k="no-barnehage:nsrid" v="1020882" />
		<tag k="operator" v="Furumohaugen Familiebarnehage Henriette Ottosen" />
		<tag k="operator:type" v="private" />
	</node>
	<node id="-151" lat="59.21517" lon="11.00449">
		<tag k="ADDRESS" v="Kong Sverres Vei 15, 1639 GAMLE FREDRIKSTAD" />
		<tag k="amenity" v="kindergarten" />
		<tag k="capacity" v="5" />
		<tag k="max_age" v="5" />
		<tag k="min_age" v="1" />
		<tag k="name" v="Lilleputt familiebarnehage Linda Norheim" />
		<tag k="no-barnehage:nsrid" v="1020618" />
		<tag k="operator" v="Lilleputt Familiebarnehage Linda Norheim" />
		<tag k="operator:type" v="private" />
	</node>
	<node id="-2189" lat="0.0" lon="0.0">
		<tag k="ADDRESS" v="Solvoll, 2840 REINSVOLL" />
		<tag k="amenity" v="kindergarten" />
		<tag k="capacity" v="10" />
		<tag k="max_age" v="5" />
		<tag k="min_age" v="1" />
		<tag k="name" v="Solvoll familiebarnehage" />
		<tag k="no-barnehage:nsrid" v="1021241" />
		<tag k="operator" v="Solvoll Familiebarnehage Da" />
		<tag k="operator:type" v="private" />
	</node>
	<node id="-141" lat="59.2318" lon="10.97565">
		<tag k="ADDRESS" v="Konditorveien 6, 1619 FREDRIKSTAD" />
		<tag k="amenity" v="kindergarten" />
		<tag k="capacity" v="4" />
		<tag k="max_age" v="5" />
		<tag k="min_age" v="1" />
		<tag k="name" v="Hjertestua familiebarnehage" />
		<tag k="no-barnehage:nsrid" v="1021860" />
		<tag k="operator" v="Wenche Pettersen" />
		<tag k="operator:type" v="private" />
	</node>
	<node id="-2166" lat="61.22651" lon="10.22952">
		<tag k="ADDRESS" v="Stensrudvegen 15a, 2651 ØSTRE GAUSDAL" />
		<tag k="amenity" v="kindergarten" />
		<tag k="capacity" v="5" />
		<tag k="max_age" v="5" />
		<tag k="min_age" v="1" />
		<tag k="name" v="Kvila familiebarnehage Kari Thoresen" />
		<tag k="no-barnehage:nsrid" v="1020658" />
		<tag k="operator" v="Kvila Familiebarnehage Kari Thoresen" />
		<tag k="operator:type" v="private" />
	</node>
	<node id="-113" lat="59.27852" lon="11.09733">
		<tag k="ADDRESS" v="Ringgata 77, 1723 SARPSBORG" />
		<tag k="amenity" v="kindergarten" />
		<tag k="capacity" v="8" />
		<tag k="contact:website" v="http://www.torsbekkfbh.no/" />
		<tag k="max_age" v="2" />
		<tag k="min_age" v="1" />
		<tag k="name" v="Torsbekkdalen familiebarnehage" />
		<tag k="no-barnehage:nsrid" v="1020802" />
		<tag k="operator" v="Bente Tømmerholt" />
		<tag k="operator:type" v="private" />
	</node>
	<node id="-106" lat="59.25515" lon="11.12897">
		<tag k="ADDRESS" v="Nordbergveien 98, 1738 BORGENHAUGEN" />
		<tag k="amenity" v="kindergarten" />
		<tag k="capacity" v="8" />
		<tag k="max_age" v="2" />
		<tag k="min_age" v="1" />
		<tag k="name" v="Skogro familiebarnehage" />
		<tag k="no-barnehage:nsrid" v="1025456" />
		<tag k="operator" v="Skogro barnehage AS" />
		<tag k="operator:type" v="private" />
	</node>
	<node id="-2153" lat="0.0" lon="0.0">
		<tag k="ADDRESS" v="Viken, 2634 FÅVANG" />
		<tag k="amenity" v="kindergarten" />
		<tag k="capacity" v="5" />
		<tag k="max_age" v="2" />
		<tag k="min_age" v="1" />
		<tag k="name" v="Sør-fåvang familiebarnehage Kjersti Ringlund" />
		<tag k="no-barnehage:nsrid" v="1022233" />
		<tag k="operator" v="Sør-Fåvang Familiebarnehage Kjersti Ringlund" />
		<tag k="operator:type" v="private" />
	</node>
	<node id="-2152" lat="0.0" lon="0.0">
		<tag k="ADDRESS" v="Segelstad Nistuen, 2634 FÅVANG" />
		<tag k="amenity" v="kindergarten" />
		<tag k="capacity" v="4" />
		<tag k="max_age" v="2" />
		<tag k="min_age" v="1" />
		<tag k="name" v="Segelstad familiebarnehage Camilla Sønsteli" />
		<tag k="no-barnehage:nsrid" v="1020991" />
		<tag k="operator" v="Segelstad Familiebarnehage Camilla Sønsteli" />
		<tag k="operator:type" v="private" />
	</node>
	<node id="-102" lat="59.26596" lon="11.04653">
		<tag k="ADDRESS" v="Gamle Vektervei 10, 1718 GREÅKER" />
		<tag k="amenity" v="kindergarten" />
		<tag k="capacity" v="8" />
		<tag k="max_age" v="2" />
		<tag k="min_age" v="1" />
		<tag k="name" v="Sagatoppen familiebarnehage" />
		<tag k="no-barnehage:nsrid" v="1021460" />
		<tag k="operator" v="Sagatoppen Familiebarnehage Knut-Richard Sjøvold" />
		<tag k="operator:type" v="private" />
	</node>
	<node id="-101" lat="59.21471" lon="11.08565">
		<tag k="ADDRESS" v="Oldtidsveien 709, 1747 SKJEBERG" />
		<tag k="amenity" v="kindergarten" />
		<tag k="capacity" v="11" />
		<tag k="max_age" v="5" />
		<tag k="min_age" v="1" />
		<tag k="name" v="Picasso familiebarnehage Irene Håndlykken" />
		<tag k="no-barnehage:nsrid" v="1022422" />
		<tag k="operator" v="Picasso Familiebarnehage Irene Håndlykken" />
		<tag k="operator:type" v="private" />
	</node>
	<node id="-100" lat="59.21471" lon="11.08565">
		<tag k="ADDRESS" v="Oldtidsveien 709, 1747 SKJEBERG" />
		<tag k="amenity" v="kindergarten" />
		<tag k="capacity" v="10" />
		<tag k="max_age" v="5" />
		<tag k="min_age" v="1" />
		<tag k="name" v="Paletten familiebarnehage" />
		<tag k="no-barnehage:nsrid" v="1021370" />
		<tag k="operator" v="Irene Håndlykken Paletten" />
		<tag k="operator:type" v="private" />
	</node>
	<node id="-2147" lat="0.0" lon="0.0">
		<tag k="ADDRESS" v="Prestbakken, 2630 RINGEBU" />
		<tag k="amenity" v="kindergarten" />
		<tag k="capacity" v="4" />
		<tag k="max_age" v="2" />
		<tag k="min_age" v="1" />
		<tag k="name" v="Lenas familiebarnehage" />
		<tag k="no-barnehage:nsrid" v="1022269" />
		<tag k="operator" v="Lenas Familiebarnehage" />
		<tag k="operator:type" v="private" />
	</node>
	<node id="-2144" lat="61.46352" lon="10.19991">
		<tag k="ADDRESS" v="Brekkomsvegen 58, 2634 FÅVANG" />
		<tag k="amenity" v="kindergarten" />
		<tag k="capacity" v="8" />
		<tag k="max_age" v="2" />
		<tag k="min_age" v="1" />
		<tag k="name" v="Brekkomsvegen familiebarnehage Elin Flyen" />
		<tag k="no-barnehage:nsrid" v="1021447" />
		<tag k="operator" v="Elin Margit Flyen" />
		<tag k="operator:type" v="private" />
	</node>
	<node id="-2143" lat="0.0" lon="0.0">
		<tag k="ADDRESS" v=", 2634 FÅVANG" />
		<tag k="amenity" v="kindergarten" />
		<tag k="capacity" v="8" />
		<tag k="max_age" v="2" />
		<tag k="min_age" v="1" />
		<tag k="name" v="Arnestad Fam barnehage A R Amrud" />
		<tag k="no-barnehage:nsrid" v="1020438" />
		<tag k="operator" v="Arnestad Fam barnehage A R Amrud" />
		<tag k="operator:type" v="private" />
	</node>
	<node id="-2142" lat="61.53345" lon="10.13225">
		<tag k="ADDRESS" v="Elgfaret 6, 2630 RINGEBU" />
		<tag k="amenity" v="kindergarten" />
		<tag k="capacity" v="4" />
		<tag k="max_age" v="2" />
		<tag k="min_age" v="1" />
		<tag k="name" v="Annys familiebarnehage Voldsrud A" />
		<tag k="no-barnehage:nsrid" v="1020080" />
		<tag k="operator" v="Annys Familiebarnehage A Voldsrud" />
		<tag k="operator:type" v="private" />
	</node>
	<node id="-2141" lat="61.53445" lon="10.13699">
		<tag k="ADDRESS" v="Kjønnåsvegen 9, 2630 RINGEBU" />
		<tag k="amenity" v="kindergarten" />
		<tag k="capacity" v="8" />
		<tag k="max_age" v="2" />
		<tag k="min_age" v="1" />
		<tag k="name" v="Anne Margrethe's familiebarnehage" />
		<tag k="no-barnehage:nsrid" v="2000165" />
		<tag k="operator" v="Anne Margrethe'S Familiebarnehage AS" />
		<tag k="operator:type" v="private" />
	</node>
	<node id="-2140" lat="61.56909" lon="9.96039">
		<tag k="ADDRESS" v="Pyntabergvegen 164, 2647 SØR-FRON" />
		<tag k="amenity" v="kindergarten" />
		<tag k="capacity" v="3" />
		<tag k="max_age" v="2" />
		<tag k="min_age" v="1" />
		<tag k="name" v="Øverbygda familiebarnehage Laila Dokken Skogen" />
		<tag k="no-barnehage:nsrid" v="1021937" />
		<tag k="operator" v="Øverbygda Familiebarnehage Laila Dokken Skogen" />
		<tag k="operator:type" v="private" />
	</node>
	<node id="-2126" lat="61.58807" lon="9.78515">
		<tag k="ADDRESS" v="Gammelgata 17, 2640 VINSTRA" />
		<tag k="amenity" v="kindergarten" />
		<tag k="capacity" v="9" />
		<tag k="max_age" v="2" />
		<tag k="min_age" v="1" />
		<tag k="name" v="Sødorp familiebarnehage" />
		<tag k="no-barnehage:nsrid" v="1021743" />
		<tag k="operator" v="Sødorp Familiebarnehage Inger Johanne Ringen" />
		<tag k="operator:type" v="private" />
	</node>
	<node id="-75" lat="59.20611" lon="11.19215">
		<tag k="ADDRESS" v="Fladebyveien 2, 1746 SKJEBERG" />
		<tag k="amenity" v="kindergarten" />
		<tag k="capacity" v="10" />
		<tag k="max_age" v="5" />
		<tag k="min_age" v="1" />
		<tag k="name" v="Askeladden barnehage Borg avd. Reveenka" />
		<tag k="no-barnehage:nsrid" v="1025609" />
		<tag k="operator" v="Askeladden barnehage Borg AS" />
		<tag k="operator:type" v="private" />
	</node>
	<node id="-74" lat="59.26616" lon="11.0368">
		<tag k="ADDRESS" v="Revyveien 2a, 1718 GREÅKER" />
		<tag k="amenity" v="kindergarten" />
		<tag k="capacity" v="10" />
		<tag k="max_age" v="5" />
		<tag k="min_age" v="1" />
		<tag k="name" v="Askeladden barnehage Borg avd. Trollskogen" />
		<tag k="no-barnehage:nsrid" v="1025492" />
		<tag k="operator" v="Askeladden barnehage Borg AS" />
		<tag k="operator:type" v="private" />
	</node>
	<node id="-73" lat="59.28807" lon="11.12558">
		<tag k="ADDRESS" v="Opsundveien 5, 1726 SARPSBORG" />
		<tag k="amenity" v="kindergarten" />
		<tag k="capacity" v="9" />
		<tag k="max_age" v="5" />
		<tag k="min_age" v="1" />
		<tag k="name" v="Askeladden barnehage Borg avd. Eikeskogen" />
		<tag k="no-barnehage:nsrid" v="1025491" />
		<tag k="operator" v="Askeladden barnehage Borg AS" />
		<tag k="operator:type" v="private" />
	</node>
	<node id="-72" lat="59.28119" lon="11.12423">
		<tag k="ADDRESS" v="St. Nikolas-Gate 19, 1706 SARPSBORG" />
		<tag k="amenity" v="kindergarten" />
		<tag k="capacity" v="10" />
		<tag k="max_age" v="5" />
		<tag k="min_age" v="1" />
		<tag k="name" v="Askeladden barnehage Borg avd. Skjærungen" />
		<tag k="no-barnehage:nsrid" v="1025457" />
		<tag k="operator" v="Askeladden barnehage Borg AS" />
		<tag k="operator:type" v="private" />
	</node>
	<node id="-2113" lat="0.0" lon="0.0">
		<tag k="ADDRESS" v="Lundagrenda, 2690 SKJÅK" />
		<tag k="amenity" v="kindergarten" />
		<tag k="capacity" v="3" />
		<tag k="max_age" v="2" />
		<tag k="min_age" v="1" />
		<tag k="name" v="Furuly familiebarnehage Asta Irene Aamodt" />
		<tag k="no-barnehage:nsrid" v="1020419" />
		<tag k="operator" v="Furuly Familiebarnehage Asta Irene Aamodt" />
		<tag k="operator:type" v="private" />
	</node>
	<node id="-3078" lat="58.08568" lon="7.83155">
		<tag k="ADDRESS" v="Blåsmoen 17, 4640 SØGNE" />
		<tag k="amenity" v="kindergarten" />
		<tag k="capacity" v="11" />
		<tag k="max_age" v="5" />
		<tag k="min_age" v="1" />
		<tag k="name" v="Blåsmoen familiebarnehage" />
		<tag k="no-barnehage:nsrid" v="1020664" />
		<tag k="operator" v="Anne Line R Melvoll Blåsmoen Familiebarnehage" />
		<tag k="operator:type" v="private" />
	</node>
	<node id="-29" lat="59.11329" lon="11.41631">
		<tag k="ADDRESS" v="Tunveien 3, 1769 HALDEN" />
		<tag k="amenity" v="kindergarten" />
		<tag k="capacity" v="5" />
		<tag k="max_age" v="5" />
		<tag k="min_age" v="1" />
		<tag k="name" v="Risum familiebarnehage (det Blå Huset)" />
		<tag k="no-barnehage:nsrid" v="1020482" />
		<tag k="operator" v="Risum Familiebarnehage Det Blå Huset V/ Lise Danino" />
		<tag k="operator:type" v="private" />
	</node>
	<node id="-16" lat="59.14317" lon="11.41151">
		<tag k="ADDRESS" v="Bratnerenga 21, 1785 HALDEN" />
		<tag k="amenity" v="kindergarten" />
		<tag k="capacity" v="9" />
		<tag k="max_age" v="5" />
		<tag k="min_age" v="1" />
		<tag k="name" v="Heidis familiebarnehage Heidi Nilsen" />
		<tag k="no-barnehage:nsrid" v="1020220" />
		<tag k="operator" v="Heidis Familiebarnehage Heidi Nilsen" />
		<tag k="operator:type" v="private" />
	</node>
	<node id="-14" lat="59.1366" lon="11.43682">
		<tag k="ADDRESS" v="Solåsveien 4, 1791 TISTEDAL" />
		<tag k="amenity" v="kindergarten" />
		<tag k="capacity" v="16" />
		<tag k="contact:website" v="http://www.cum-cura.no" />
		<tag k="max_age" v="5" />
		<tag k="min_age" v="1" />
		<tag k="name" v="Halden Montessori barnehage" />
		<tag k="no-barnehage:nsrid" v="1022219" />
		<tag k="operator" v="Cum-Cura AS" />
		<tag k="operator:type" v="private" />
	</node>
</osm>
